USDOT,Company Name,Operating status,DBA,Entity type,Operations,Classification,Docket #,DUNS #,SCAC,MCS-150 form date,MCS-150 Mileage/Year,Business address,Phone,Fax,Email,Web,Mailing address,Representative,Power units,Autonomous units,Electric units,Drivers,SmartWay,CARB TRU
382472,FLORAL MARKETING SOLUTIONS INC,NONE,,,,,MC313239,,,,,4695 BARTLETT RD BEAMSVILLE ON L0R 1B1,(905) 670-9556,,,,,,,,,,Not a,Not 100% compliant
390424,BLUE BIRD PRODUCTS INC,ACTIVE,,Carrier,Intrastate Non-Hazmat,Private Property,,016834004,,,,"15135 HAMILTON AVE HIGHLAND PARK, MI 48203-3725",(313) 822-0255,,,,"15135 HAMILTON AVE HIGHLAND PARK, MI 48203-3725",,22,,,,Not a,Not 100% compliant
582596,TRANSPORTATION COMMODITIES INC,AUTHORIZED FOR PROPERTY,TCI LEASING AND RENTALS,Carrier,Interstate,Authorized For Hire LEASING AN,MC252726,,,06/17/2019,"28,278,000 (2018)","4950 TRIGGS ST COMMERCE, CA 90022",(323) 269-3033,(323) 881-6388,vollhardtt@tci-leasing.com,,"4950 TRIGGS ST COMMERCE, CA 90022",ANDREW FLYNN,1003,,,14,Not a,Not 100% compliant
352900,WALTER R ANSARDI,ACTIVE,,Carrier,Intrastate Non-Hazmat,APPLYING F,,,,,,"69296 ARCHIE SINGLETARY RD PEARL RIVER, LA 70452",(504) 863-2841,,,,"69296 ARCHIE SINGLETARY RD PEARL RIVER, LA 70452",,3,,,2,Not a,Not 100% compliant
328986,CEMEX CONSTRUCTION MATERIALS FLORIDA LLC,ACTIVE,CEMEX,Carrier,Interstate,Private Property,,557093945,,05/15/2020,"23,780,154 (2019)","1501 BELVEDERE ROAD WEST PALM BEACH, FL 33406",(561) 833-5555,,briank.currie@cemex.com,,"1501 BELVEDERE ROAD WEST PALM BEACH, FL 33406",RYAN MAHONEY DONALD LAFAVERS,1004,,,879,Not a,Not 100% compliant
987933,MED TRANS LLC,AUTHORIZED FOR PROPERTY,,Carrier,Interstate,Authorized For Hire Private Property,MC419207,,,10/09/2019,"32,400,000 (2018)","1200 TOWNLINE ROAD MUNDELEIN, IL 60060-4486",(847) 643-4541,(847) 643-3408,jlaskowski@medline.com,,"1200 TOWNLINE ROAD MUNDELEIN, IL 60060-4486","JOE LASKOWSKI DIRECTOR, FLEET SAFETY",1005,,,860,,Not 100% compliant
384330,ATF TRUCKING,ACTIVE,,Carrier,Intrastate Non-Hazmat,FOR HIRE,,,,10/29/2003,"12,857 (2002)","US 285892 FEDSCREEK, KY 41524",(606) 835-2493,,,,"US 285892 FEDSCREEK, KY 41524",,1,,,2,Not a,Not 100% compliant
367592,SELMORE FIXTURE MFG CO INC,ACTIVE,,Carrier,Intrastate Non-Hazmat,Private Property,,001100569,,01/29/2001,"30,000 (2000)","57 WHIPPLE STREET LEWISTON, ME 04240",(207) 782-3780,(207) 783-0460,,,"BOX 971 LEWISTON, ME 04243-0971",,1,,,3,Not a,Not 100% compliant
356940,JAMES ERICKSON,ACTIVE,JIM ERICKSON CONSTRUCTION & EXCAVATION,Carrier,Intrastate Non-Hazmat,Exempt For Hire Private Property,,616280731,,10/21/2002,,"STATE HIGHWAY 47 E OF US 20 ASHTON, ID 83420",(208) 652-7275,,,,"P O BOX 796 ASHTON, ID 83420",,1,,,1,Not a,Not 100% compliant
386888,CATAB ENTERPRISES INC,ACTIVE,,Carrier,Interstate,Private Property,,,,05/29/2019,500 (2018),"6145 AVENORRA DR LA MESA, CA 91942",(858) 414-1837,,brandon@bealracing.com,,"6145 AVENORRA DR LA MESA, CA 91942",BRANDON WELCH TYSON PORLAS,1,,,1,Not a,Not 100% compliant
256859,GEORGE KRAPF JR & SONS INC,AUTHORIZED FOR PASSENGER,KRAPF SCHOOL BUS,Carrier,Interstate,Authorized For Hire,MC795205,3794625,,07/30/2019,"12,965,454 (2018)","120 SPRINGTON ROAD GLENMOORE, PA 19343",(484) 696-3854,(484) 593-0454,stallman@krapfbus.com,krapfbus.com,"120 SPRINGTON ROAD GLENMOORE, PA 19343",BLAKE A KRAPF DALLAS L KRAPF,1016,,,851,Not a,Not 100% compliant
704220,ALLIED WASTE TRANSPORTATION INC,AUTHORIZED FOR PROPERTY,REPUBLIC SERVICES OR ALLIED WASTE SERVICES,Carrier,Interstate,Authorized For Hire Private Property,MC325602,964034185,,04/30/2020,"27,531,250 (2018)","18500 N ALLIED WAY PHOENIX, AZ 85054",(480) 627-2700,,dot@republicservices.com,www.republicservices.com,"18500 N ALLIED WAY PHOENIX, AZ 85054",JAMES OLSON,1023,,,883,Not a,Not 100% compliant
104154,L & W SUPPLY CORPORATION,ACTIVE,L&W SUPPLY,Carrier Shipper,Interstate,Private Property,,56625908,,04/04/2019,"18,871,988 (2018)","300 S RIVERSIDE PLAZA SUITE 200 CHICAGO, IL 60606",(312) 436-6811,(608) 363-0273,kevin.manning1@abcsupply.com,,"300 S RIVERSIDE PLAZA SUITE 20 CHICAGO, IL 60606",DAN PICHE ROB WATERHOUSE,1024,,,"1,336",Not a,Not 100% compliant
46257,FOODLINER INC,AUTHORIZED FOR PROPERTY,QUEST LOGISTICS,Carrier Cargo Tank Broker,Interstate,Authorized For Hire,MC163711,117530436,,07/22/2019,"80,260,373 (2018)","2099 S PARK CT STE 1 DUBUQUE, IA 52003",(563) 584-2670,(563) 584-2698,mbirkett@foodliner.com,,"2099 S PARK CT STE 1 DUBUQUE, IA 52003",MICHAEL BIRKETT GREG MCCOY,1027,,,"1,027",Not a,Not 100% compliant
341339,STAPLES CONTRACT AND COMMERCIAL LLC,ACTIVE,STAPLES INC STAPLES,Carrier,Interstate,Private Property,,829721547,,10/02/2019,"18,463,183 (2019)","500 STAPLES DR FRAMINGHAM, MA 01702",,(508) 253-2692,keith.barrows@staples.com,,"500 STAPLES DR FRAMINGHAM, MA 01702",J ALEXANDER DOUGLAS JR JEFFREY HALL,1028,,,"1,333",Not a,Not 100% compliant
10686,H E ROHRER INC,AUTHORIZED FOR PASSENGER,ROHRER BUS SERVICE,Carrier,Interstate,Authorized For Hire Exempt For Hire Private Property SCHOOL BUS,MC111749,64031248,,12/09/2020,"12,670,396 (2019)","1515 STATE ROAD DUNCANNON, PA 17020",(717) 957-3811,(717) 957-4884,eallandar@rohrerbus.com,www.rohrerbus.com,"P O BOX 100 DUNCANNON, PA 17020",EDWARD ALLANDAR JOHN M SCHRANTZ,1030,,,"1,026",Not a,Not 100% compliant
185732,CENTRAL STATES TRUCKING CO,AUTHORIZED FOR PROPERTY,FORWARD INTERMODAL,Carrier,Interstate,Authorized For Hire,MC152337,161037734,,12/05/2019,"107,901,009 (2018)","1250 MILLSDALE ROAD JOLIET, IL 60436",(779) 205-0500,(630) 595-9540,mcasey@forwardair.com,,"1250 MILLSDALE ROAD JOLIET, IL 60436",RON VALES MATT CASEY,1030,,,"1,023",Not a,Not 100% compliant
747152,SKY CHEFS INC,AUTHORIZED FOR PROPERTY,LSG SKY CHEFS,Carrier,Interstate,Authorized For Hire Private Property,MC338871,6990402,,04/21/2020,"1,035,000 (2019)","6191 NORTH STATE HIGHWAY 161 IRVING, TX 75038",(972) 793-9037,(972) 793-9630,todd.liddle@lsg-group.com,,"6191 NORTH STATE HIGHWAY 161 IRVING, TX 75038",TOM LEE JOHN RUTJES,1035,,,"3,000",Not a,Not 100% compliant
759493,HENIFF TRANSPORTATION SYSTEMS LLC,AUTHORIZED FOR PROPERTY,,Carrier Cargo Tank Broker,Interstate,Authorized For Hire,MC342531,,,03/10/2020,"69,600,000 (2019)","2015 SPRING ROAD SUITE 780 OAK BROOK, IL 60523",(708) 489-3592,,llupina@heniff.com,www.heniff.com,"2015 SPRING ROAD SUITE 780 OAK BROOK, IL 60523",ROBERT HENIFF MARTIN MARTINSON,1039,,,880,,Not 100% compliant
215732,MARTIN TRANSPORTATION SYSTEMS INC,AUTHORIZED FOR PROPERTY,,Carrier,Interstate,Authorized For Hire,MC160108,,,06/10/2020,"122,869,397 (2019)","7300 CLYDE PARK SW BYRON CENTER, MI 49315-8387",(616) 455-8850,(616) 455-6511,jeff.wood@mtstrans.com,,"7300 CLYDE PARK SW BYRON CENTER, MI 49315-8387",RICHARD JOHNSTON,1040,,,"1,247",,Not 100% compliant
153720,LEONARD R GARTNER,AUTHORIZED FOR PROPERTY,LEONARD GARTNER TRUCKING,Carrier,Interstate,Authorized For Hire,MC183188,102258910,,10/25/2018,"104,116 (2017)","410 8TH AVE NE MAPLETON, MN 56065-0181",(507) 524-3196,(507) 524-4026,,,"PO BOX 181 MAPLETON, MN 56065-0181",LEONARD R GARTNER,1,,,1,Not a,Not 100% compliant
330266,HARRY MASSER COMPANY INC,ACTIVE,MASSER METALS & RECYCLING,Carrier,Interstate,Private Property,,,,09/12/2018,"114,519 (2017)","3103 LAMB AVENUE COLUMBUS, OH 43219",(614) 471-3195,(614) 471-2999,pfiroben@rrohio.com,,"3103 LAMB AVENUE COLUMBUS, OH 43219",PATTY FIROBEN,1,,,3,Not a,Not 100% compliant
386083,WASTE MANAGEMENT OF TEXAS INC,ACTIVE,,Carrier,Interstate,Private Property,,149935124,,03/10/2020,"37,793,850 (2019)","9821 KATY FREEWAY SUITE 700 HOUSTON, TX 77024",(713) 647-5450,(713) 365-2161,tjacques@wm.com,,"24275 KATY FREEWAY SUITE 450 KATY, TX 77494",DON SMITH R. THOMAS JACQUES,1047,,,"1,018",Not a,Not 100% compliant
871652,BADGER DAYLIGHTING CORP,AUTHORIZED FOR PROPERTY,,Carrier,Interstate,Authorized For Hire Private Property,MC1107680,106430734,,04/24/2020,"13,093,160 (2018)","8930 MOTORSPORTS WAY BROWNSBURG, IN 46112",(317) 456-1050,(317) 892-2661,jdavis@badger-corp.com,www.badgerinc.com,"8930 MOTORSPORTS WAY BROWNSBURG, IN 46112",PAUL VANDERBURG JOHN KELLY,1047,,,"1,172",Not a,Not 100% compliant
261849,CHARLES B. SCHILLO,NONE,SCHILLO FARM TRUCKING,,,,MC184564,,,,,P.O. BOX 193 GOLVA ND 58632,,,,,,,,,,,Not a,Not 100% compliant
334685,THE E C BROWNS NURSERY INC,ACTIVE,,Carrier,Interstate,Private Property,,71946008,,03/14/2020,"21,766 (2019)","3782 ROUTE 113 THETFORD CENTER, VT 05075",(802) 785-2167,(802) 785-2602,info@ecbrownsnursery.com,,"PO BOX 237 THETFORD CENTER, VT 05075-0237",KEVIN BROWN BERTHA BROWN,2,,,5,Not a,Not 100% compliant
372987,"YOUNGBLOOD TRUCK SERVICE, INC.",NONE,,,,,MC224689,,,,,9051 INFIRMARY RD RAVENNA OH 44266,(216) 626-4903,,,,,,,,,,Not a,Not 100% compliant
70719,WHEATON VAN LINES INC,"AUTHORIZED FOR PROPERTY, HHG",WHEATON WORLDWIDE MOVING,Carrier,Interstate,Authorized For Hire,MC87113,5785845,,02/15/2020,"24,460,363 (2019)","8010 CASTLETON ROAD INDIANAPOLIS, IN 46250-0800",(317) 849-7900,(317) 570-4632,jim_witzerman@wvlcorp.com,,"PO BOX 50800 INDIANAPOLIS, IN 46250-0800",MARK KIRSCHNER,1067,,,"1,178",,Not 100% compliant
342117,APPROVED COLOR LLC,ACTIVE,,Carrier,Interstate,Private Property,,101,,05/09/2019,"53,000 (2019)","101 ADAMS HILL ROAD GREENVILLE, NH 03048",(603) 878-1470,(603) 878-1179,chris@approvedcolor.comcastbiz.net,,"P O BOX 413 GREENVILLE, NH 03048-0413",CHRISTOPHER I LA BONTE,1,,,1,Not a,Not 100% compliant
377338,SANDHILL EQUIPMENT INC,ACTIVE,,Carrier,Interstate,Private Property,,185782331,,05/20/2020,"28,000 (2020)","44362 US HWY 20 BASSETT, NE 68714",(402) 684-2331,(402) 684-2336,dennis@sandhilleq.com,,"P O BOX 507 BASSETT, NE 68714",DENNIS SWANSON TERRI SWANSON,3,,,3,Not a,Not 100% compliant
314842,MATHESON-TRIGAS INC,ACTIVE,,Carrier,Interstate,Private Property,,179092028,,02/07/2020,"28,567,222 (2019)","909 LAKE CAROLYN PARKWAY SUITE 1300 IRVING, TX 75039",,(972) 501-9583,garakelian@mathesongas.com,www.mathesongas.com,"909 LAKE CAROLYN PARKWAY SUITE IRVING, TX 75039",FRANCISCO M. GARCIA GEORGE ARAKELIAN,1077,,,995,Not a,Not 100% compliant
216825,NIAGARA MOHAWK POWER CORP,ACTIVE,NATIONAL GRID,Carrier,Intrastate Non-Hazmat,Private Property,,6994735,,05/06/2020,"8,337,498 (2019)","300 ERIE BLVD WEST SYRACUSE, NY 13202-4250",,(508) 389-3119,,,"40 SYLVAN ROAD WALTHAM, MA 02451",BADAR KHAN,1078,,,"1,714",Not a,Not 100% compliant
148389,"ROBERT L. LEE TRUCKING, LLC",NONE,,,,,MC330613,,,,,280 WALLS MILL ROAD AUROA NC 27806,(919) 322-5711,,,,PO BOX 151 AURORA NC 27806,,,,,,Not a,Not 100% compliant
143930,UNITED STATES BAKERY,AUTHORIZED FOR PROPERTY,FRANZ BAKERY,Carrier,Interstate,Authorized For Hire Private Property BAKED GOOD,MC262394,790410278,,10/31/2019,"16,448,962 (2019)","340 NE 11TH AVE PORTLAND, OR 97232",(503) 232-2191,(503) 731-5680,tommy.moreno@usbakery.com,,"340 NE 11TH AVE PORTLAND, OR 97232",TOMMY MORENO MIKE PETITT,1083,,,953,Not a,Not 100% compliant
334286,HOME DEPOT USA INC,AUTHORIZED FOR BROKER PROPERTY,THE HOME DEPOT,Carrier Broker,Interstate,Private Property,MC1060197,783266950,,08/23/2019,"28,739,000 (2018)","2455 PACES FERRY NW TRANS DEPT ATLANTA, GA 30339",,,michael_r_perry@homedepot.com,www.homedepot.com,"2455 PACES FERRY NW TRANS DEPT ATLANTA, GA 30339",SHELBY MCMAHON COLBY CHILES/MICHELLE LIVINGSTON,1086,,,"1,168",Not a,Not 100% compliant
500737,PANTHER II TRANSPORTATION INC,AUTHORIZED FOR PROPERTY,PANTHER PREMIUM LOGISTICS,Carrier Broker,Interstate,Authorized For Hire,MC257496,8992543,,07/03/2019,"116,674,908 (2018)","84 MEDINA ROAD MEDINA, OH 44256",(800) 685-0657,(330) 239-3864,dfrye@arcb.com,,"84 MEDINA ROAD MEDINA, OH 44256",DEAN FRYE JOHN PENCE,1091,,,"1,488",,Not 100% compliant
33234,VERIZON PENNSYLVANIA INC,ACTIVE,VERIZON,Carrier,Interstate,Private Property,,7913171,,03/18/2020,"10,930,000 (2019)","700 HIDDEN RIDGE MC HQW0BH50 IRVING, TX 75038",(972) 457-5716,(888) 847-6186,sonya.schroeder@verizon.com,www.verizon.com,"700 HIDDEN RIDGE MC HQW0BH50 IRVING, TX 75038",TIM SMITH,1093,,,637,Not a,Not 100% compliant
277907,CONSOLIDATED ELECTRICAL DISTRIBUTORS INC,ACTIVE,,Carrier,Interstate,Private Property,,8873804,,03/10/2020,"18,502,304 (2019)","1920 WESTRIDGE DRIVE IRVING, TX 75038",(972) 582-5300,(972) 793-0497,rick.knight@ced.com,,"1920 WESTRIDGE DRIVE IRVING, TX 75038",KURT LASHER,1093,,,"1,648",Not a,Not 100% compliant
782649,MEADE ELECTRIC COMPANY INC,ACTIVE,,Carrier,Interstate,Private Property,,,,12/06/2019,"12,913,741 (2019)","625 WILLOW PKWY WILLOW BROOK, IL 60527",(708) 588-2500,(708) 588-6293,dpandolfo@meade100.com,,"625 WILLOW PKWY WILLOW BROOK, IL 60527",BRIAN CURRY DAN KOZAK,1100,,,"1,220",Not a,Not 100% compliant
506909,KING COUNTY METRO TRANSIT,ACTIVE,,Carrier Shipper,Intrastate Non-Hazmat,Local Government,,,,08/26/2004,"35,040,000 (1997)","201 S JACKSON ST MS SFMTR0100 SEATTLE, WA 98104-1598",(206) 684-2266,(206) 684-2248,,,"201 S JACKSON ST MS SFMTR0100 SEATTLE, WA 98104-1598",RON SIMS,1103,,,"3,000",Not a,Not 100% compliant
821384,PETERMANN LTD,AUTHORIZED FOR PASSENGER,,Carrier,Interstate,Authorized For Hire Exempt For Hire,MC364668,,,04/30/2020,"11,414,000 (2019)","8041 HOSBROOK ROAD SUITE 330 CINCINNATI, OH 45236",(513) 322-8705,(888) 819-3886,michelle.simon@nellc.com,,"2601 NAVISTAR DRIVE LISLE, IL 60532",GARY WAITS ROBERT RAMSDELL,1106,,,952,Not a,Not 100% compliant
212335,SOUTHEASTERN CONCRETE PRODUCTS COMPANY INC,ACTIVE,SOUTHEASTERN CONCRETE PRODUCTS,Carrier,Interstate,Private Property,,3351889,,07/12/2019,"176,315 (2016)","917 FRINK ST CAYCE, SC 29033-3501",(803) 794-7363,(803) 794-0362,ccarson@seconcreteproducts.com,,"P O BOX 2104 CAYCE-WEST COLUMBIA, SC 29171-2104",CHARLES A CARSON JR BARBARA STITH,10,,,7,Not a,Not 100% compliant
524125,BENTLEY TRUCK SERVICES INC,ACTIVE,,Carrier,Interstate,Authorized For Hire Exempt For Hire,,623413317,,03/14/2020,"33,768,394 (2019)","307 HERON DRIVE LOGAN TWP, NJ 08085",(856) 467-4446,(856) 467-2455,donna.bentley@bentleyts.com,,"307 HERON DRIVE LOGAN TWP, NJ 08085",FRED BENTLEY DONNA BENTLEY,1113,,,5,Not a,Not 100% compliant
568253,HANSEN & ADKINS AUTO TRANSPORT INC,AUTHORIZED FOR PROPERTY,,Carrier,Interstate,Authorized For Hire,MC277621,,,03/20/2020,"83,105,430 (2019)","3552 GREEN AVENUE LOS ALAMITOS, CA 90720",(562) 430-4100,(562) 430-4144,safety@hansenadkins.com,,"3552 GREEN AVENUE LOS ALAMITOS, CA 90720",LOUIE ADKINS STEVEN HANSEN,1117,,,"1,022",,Not 100% compliant
817987,STUDENT TRANSPORTATION OF AMERICA INC,AUTHORIZED FOR PASSENGER,,Carrier,Interstate,Authorized For Hire Private Passengers (Business),MC31422,,,08/15/2019,"17,597,000 (2018)","3349 HWY 138 BLDG A STE C WALL, NJ 07719",(732) 280-4200,,mbroerman@ridesta.com,,"3349 HWY 138 BLDG A STE C WALL, NJ 07719",RONALD J RICK JR MAGGIE L BROERMAN,1125,,,"1,125",Not a,Not 100% compliant
281132,DONALD E. HEATER,NONE,,,,,MC180394,,,,,505 COMO PARK BLVD. CHEEKTOWAGA NY 14225,,,,,,,,,,,Not a,Not 100% compliant
172901,SIMPLOT AB RETAIL INC,ACTIVE,SIMPLOT GROWER SOLUTIONS SIMPLOT TURF AND HORTICULTURE SIMPLOT PARTNERS JACKLIN SEED SIMPLOT,Carrier Shipper,Interstate,Private Property,,,,12/18/2019,"15,090,000 (2019)","1099 W FRONT STREET BOISE, ID 83702",,(208) 780-7333,andrew.hutchison@simplot.com,,"PO BOX 27 BOISE, ID 83707",ANDREW HUTCHISON GARRETT LOFTO,1128,,,762,Not a,Not 100% compliant
375375,USA WASTE OF CALIFORNIA INC,ACTIVE,,Carrier,Intrastate Hazmat,Authorized For Hire Exempt For Hire Private Property,,603219619,,10/01/2019,"22,007,754 (2018)","9081 TUJUNGA AVE SUN VALLEY, CA 91352",(831) 750-8863,(831) 632-0180,tjacques@wm.com,,"13793 REDWOOD STREET CHINO, CA 91710",BARRY S. SKOLNICK R. THOMAS JACQUES,1131,,,839,Not a,Not 100% compliant
531552,C R & R INC,AUTHORIZED FOR PROPERTY,,Carrier,Interstate,Authorized For Hire,MC266494,,,07/26/2019,"17,200,300 (2018)","11292 WESTERN AVE STANTON, CA 90680",(714) 890-6300,(714) 890-6347,jboyle@crrmail.com,,"11292 WESTERN AVE STANTON, CA 90680",CLIFFORD RONNENBERG JOYCE AMATO,1133,,,717,Not a,Not 100% compliant
28633,UNIVAR SOLUTIONS USA INC,AUTHORIZED FOR PROPERTY,UNIVAR USA INC,Carrier,Interstate,Authorized For Hire Private Property,MC158072,102971785,,09/18/2019,"28,595,000 (2018)","3075 HIGHLAND PKWY STE 200 DOWNERS GROVE, IL 60515-5560",(708) 325-2555,(425) 497-3813,james.chamberlain@univarsolutions.com,www.univar.com/us,"7050 W 71ST ST BEDFORD PARK, IL 60638-5902",MARK FISHER JAMES CHAMBERLAIN,1137,,,"1,019",Not a,Not 100% compliant
392278,SUMMIT TRUCK GROUP LLC,ACTIVE,SUMMIT IDEALEASE LLC,Carrier,Interstate,Private Property LEASE AND,,183188325,,03/26/2020,"7,500 (2017)","1825 LAKEWAY DRIVE SUITE 700 LEWISVILLE, TX 75057",(469) 645-7148,(806) 355-4801,stuart.hellen@summittruckgroup.com,,"1825 LAKEWAY DRIVE SUITE 700 LEWISVILLE, TX 75057",JUSTIN FINK SCOTT GILL,1140,,,2,Not a,Not 100% compliant
105234,PASCHALL TRUCK LINES INC,AUTHORIZED FOR PROPERTY,,Carrier Broker,Interstate,Authorized For Hire Private Passengers (Business),MC111485,62975578,,12/04/2019,"131,920,752 (2018)","3443 HIGHWAY 641 SOUTH MURRAY, KY 42071",(270) 753-1717,(270) 753-1730,cmccuiston@ptl-inc.com,www.ptl-inc.com,"PO BOX 1080 MURRAY, KY 42071-0018",PAUL RASMUSSEN CHELSIE MCCUISTON,1141,,,"1,396",,Not 100% compliant
339274,DECAROLIS TRUCK RENTAL INC,ACTIVE,DECAROLIS NATIONALEASE,Carrier,Interstate,RENTAL AND,,2224707,,11/11/2019,"37,434,556 (2018)","333 COLFAX ST ROCHESTER, NY 14606-3188",(585) 254-1169,(585) 254-4209,timothy.storie@decarolis.com,,"333 COLFAX ST ROCHESTER, NY 14606-3188",MIKE MARGARONE TIMOTHY STORIE,1143,,,119,Not a,Not 100% compliant
41539,WILBUR-ELLIS COMPANY LLC,AUTHORIZED FOR PROPERTY,,Carrier Shipper,Interstate,Authorized For Hire Private Property,MC269395,69134,,09/10/2019,"12,043,060 (2018)","345 CALIFORNIA STREET 27TH FLOOR SAN FRANCISCO, CA 94104",(206) 988-5385,,mrollo@wilburellis.com,,"16300 CHRISTENSEN RD STE 135 TUKWILA, WA 98188",JOHN BUCKLEY,1155,,,"1,156",Not a,Not 100% compliant
658909,WESTERN FLYER EXPRESS LLC,AUTHORIZED FOR PROPERTY,,Carrier,Interstate,Authorized For Hire,MC309036,,,06/23/2020,"101,717,953 (2020)","4050 WEST I-40 SERVICE ROAD OKLAHOMA CITY, OK 73137",(405) 946-7289,(405) 917-4011,cshilhanek@westernflyerexpress.com,,"PO BOX 270814 OKLAHOMA CITY, OK 73137",CHRIS SHILHANEK MICHAEL MATTOX,1155,,,"1,060",,100% COMPLIANT
344050,WASTE MANAGEMENT OF PENNSYLVANIA INC,AUTHORIZED FOR PROPERTY,WASTE MANAGEMENT,Carrier Shipper,Interstate,Authorized For Hire,MC987274,,,04/30/2020,"27,940,070 (2018)","197 SWAMP CREEK RD GILBERTSVILLE, PA 19525",(610) 367-1383,(610) 367-1315,tjacques@wm.com,www.wm.com,"197 SWAMP CREEK RD GILBERTSVILLE, PA 19525",RAFAEL CARRASCO R. THOMAS JACQUES,1156,,,"1,040",Not a,Not 100% compliant
164025,FEDEX CUSTOM CRITICAL INC,"AUTHORIZED FOR PROPERTY, HHG",,Carrier,Interstate,Authorized For Hire,MC141898 FF3926,55820518,,10/16/2020,"85,383,942 (2019)","1475 BOETTLER RD UNIONTOWN, OH 44685-9584",(234) 310-4090,(888) 234-3792,scott.mccahan@fedex.com,www.customcritical.fedex.com,"1475 BOETTLER RD UNIONTOWN, OH 44685-9584",RAMONA HOOD ELAINE KAPUSTA,1158,,,"2,280",,Not 100% compliant
90831,KENAN TRANSPORT LLC,AUTHORIZED FOR PROPERTY,KENAN TRANSPORT,Carrier Cargo Tank,Interstate,Authorized For Hire,MC124306,3461233,,02/17/2020,"72,300,000 (2019)","4366 MT PLEASANT ST NW N CANTON, OH 44720",(800) 969-5419,(330) 409-1154,bperlaky@thekag.com,,"4366 MT PLEASANT ST NW N CANTON, OH 44720",CHARLIE DELACEY JACQUELINE MUSACCHIA,1165,,,"1,165",Not a,Not 100% compliant
115479,BEN E KEITH COMPANY,AUTHORIZED FOR PROPERTY,BEN E KEITH FOODS BEN E KEITH BEVERAGES,Carrier,Interstate,Authorized For Hire Private Property,MC1099851,59631812,,09/26/2019,"51,806,000 (2018)","601 EAST 7TH STREET FORT WORTH, TX 76102",(817) 877-5700,(817) 336-2149,jdwigington@benekeith.com,,"601 EAST 7TH STREET FORT WORTH, TX 76102",DARYL WIGINGTON GORDON CROW,1167,,,"1,575",Not a,Not 100% compliant
664776,PRAXAIR DISTRIBUTION INC,ACTIVE,,Carrier Cargo Tank,Interstate,Private Property,,,,06/12/2019,"24,552,595 (2017)","2301 S E CREEKVIEW DRIVE ANKENY, IA 50021",(800) 266-4369,(515) 965-6645,rebecca_wright@praxair.com,,"2301 SE CREEKVIEW DRIVE ANKENY, IA 50021",BEN BLAZER TAMARA VOLMER,1169,,,"1,092",Not a,Not 100% compliant
76235,ALLIED VAN LINES INC,"AUTHORIZED FOR PROPERTY, HHG",,Carrier,Interstate,Authorized For Hire,MC15735 FF9490,4790143,,12/01/2020,"46,107,222 (2019)","101 EAST WASHINGTON BLVD SUITE 1100 FORT WAYNE, IN 46802",(260) 429-2755,(260) 429-3135,mark.davison@sirva.com,www.sirva.com,"101 E WASHINGTON BLVD SUITE 11 FORT WAYNE, IN 46802",ANDREW P. COOLIDGE JEFF MARGOLIS,1170,,,"2,013",Not a,Not 100% compliant
95203,THE FISHEL COMPANY,ACTIVE,TEAM FISHEL,Carrier,Interstate,Private Property,,47975867,,02/28/2020,"27,736,338 (2018)","1366 DUBLIN ROAD COLUMBUS, OH 43215",(614) 351-6276,(614) 274-6794,csmathes@teamfishel.com,www.teamfishel.com,"1366 DUBLIN ROAD COLUMBUS, OH 43215",CRAIG MATHES PAUL RIEWE,1177,,,"1,637",Not a,Not 100% compliant
105252,"EXPRESSCO, INC. OF KENTUCKY",NONE,,,,,MC98438,,,,,50 OLDHAM STREET NASHVILLE TN 37207,(615) 244-1115,,,,,,,,,,Not a,Not 100% compliant
175882,AMERICAN TIRE DISTRIBUTORS INC,AUTHORIZED FOR PROPERTY,ATD,Carrier,Interstate,Authorized For Hire Private Property,MC1028767 FF31767,3173481,,05/06/2020,"85,949,425 (2019)","12200 HERBERT WAYNE CT STE 150 HUNTERSVILLE, NC 28078",(704) 793-8643,,scosimano@atd-us.com,www.atd-us.com,"PO BOX 3145 HUNTERSVILLE, NC 28070-3145",STUART SCHUETTE OWEN SCHIANO,1183,,,"1,589",Not a,Not 100% compliant
94081,MAY TRUCKING COMPANY,AUTHORIZED FOR PROPERTY,,Carrier,Interstate,Authorized For Hire,MC128527,9859430,,01/31/2020,"95,068,431 (2019)","4185 BROOKLAKE ROAD NE SALEM, OR 97305",(503) 393-7030,(503) 390-8836,kory.knox@maytrucking.com,,"PO BOX 9039 SALEM, OR 97305",SCOTT D. SMITH DAVID M DANIELS,1185,,,"1,271",,Not 100% compliant
850618,CINTAS CORPORATION NO 3,ACTIVE,CINTAS,Carrier,Interstate,Private Property,,,,08/30/2019,"14,460,000 (2018)","6800 CINTAS BLVD MASON, OH 45040-9151",(513) 972-2986,(877) 762-8532,kirstg@cintas.com,,"6800 CINTAS BLVD MASON, OH 45040",KEVIN BIEN,1185,,,"1,872",Not a,Not 100% compliant
119456,BLUE BELL CREAMERIES LP,ACTIVE,,Carrier,Interstate,Private Property,,8098196,,06/21/2019,"25,000,000 (2018)","1101 S BLUE BELL RD BRENHAM, TX 77833",(979) 836-7977,(979) 830-7398,safety@bluebell.com,,"PO BOX1807 BRENHAM, TX 77834",RICKY DICKSON / HOWARD ZUCH SAM SOMMER,1192,,,"1,376",Not a,Not 100% compliant
4247,GROENDYKE TRANSPORT INC,AUTHORIZED FOR PROPERTY,,Carrier Cargo Tank,Interstate,Authorized For Hire,MC111401,7905748,,05/15/2020,"86,219,064 (2019)","2510 ROCK ISLAND BLVD ENID, OK 73701",(580) 234-4663,(580) 234-1216,mmueller@groendyke.com,www.groendyke.com,"P O BOX 632 ENID, OK 73702-0632",MATTHEW J. MUELLER MIKE BARNTHOUSE,1193,,,"1,079",Not a,Not 100% compliant
343029,"MOSTELLER'S TOWING, INC.",NONE,,,,,MC229301,,,,,2411 ROSSVILLE BLVD CHATTANOOGA TN 37408,(423) 622-5313,(423) 622-5491,,,P O BOX 3006 CHATTANOOGA TN 37404,,,,,,Not a,Not 100% compliant
236365,STAKER & PARSON COMPANIES,AUTHORIZED FOR PROPERTY,,Carrier,Interstate,Authorized For Hire Private Property,MC297876,89491401,,05/12/2020,"25,061,000 (2019)","2350 SOUTH 1900 WEST OGDEN, UT 84401",(801) 731-1111,(801) 409-2596,roger.rich@stakerparson.com,,"2350 S 1900 W SUITE 100 OGDEN, UT 84401",ROGER RICH PEGGY DUNN,1224,,,"1,341",Not a,Not 100% compliant
373113,"THE ROYAL COACH, INC.",NONE,,,,,MC224591,,,,,1362 N. W. 9 HIGHWAY PARKVILLE MO 64152,(816) 741-7774,,,,,,,,,,Not a,Not 100% compliant
232734,CONTAINERPORT GROUP INC,AUTHORIZED FOR PROPERTY,,Carrier Broker,Interstate,Authorized For Hire,MC152125,66039223,,01/09/2020,"55,368,408 (2019)","1340 DEPOT STREET CLEVELAND, OH 44116",(440) 895-8113,(440) 895-1618,roy.villella@containerport.com,,"1340 DEPOT STREET CLEVELAND, OH 44116",ROY VILLELLA,1236,,,"1,236",,Not 100% compliant
156275,SYSCO USA I INC,AUTHORIZED FOR PROPERTY,,Carrier,Interstate,Authorized For Hire Private Property,MC737096,968171160,,05/31/2019,"40,869,000 (2018)","1390 ENCLAVE PARKWAY HOUSTON, TX 77077",(281) 584-1419,,000-dotcompliance@corp.sysco.com,,"1390 ENCLAVE PARKWAY HOUSTON, TX 77077",JOEL GRADE EVE MCFADDEN,1238,,,"1,405",Not a,Not 100% compliant
145799,MENOMINEE TRIBAL ENTERPRISES,ACTIVE,,Carrier Shipper,Interstate,Authorized For Hire Private Property Indian Tribe,,10223873,,07/30/2019,"189,593 (2018)","N 3522 COTTAGE AVE NEOPIT, WI 54150",(715) 756-2311,(715) 756-2386,elmerd@mtewood.com,,"P O BOX 10 NEOPIT, WI 54150-0010",ELMER DENNY,2,,,4,Not a,Not 100% compliant
31120,NEW ENGLAND MOTOR FREIGHT INC,NOT AUTHORIZED,NEMF,Carrier,Interstate,Authorized For Hire,MC112107,3701550,,02/11/2019,"80,831,581 (2018)","1-71 NORTH AVENUE EAST ELIZABETH, NJ 07201-2936",(908) 965-0100,(908) 351-0153,thartleyiii@nemf.com,,"1-71 NORTH AVENUE EAST ELIZABETH, NJ 07201-2936",MYRON SHEVELL THOMAS CONNERY,1263,,,"1,472",Not a,Not 100% compliant
286600,UV LOGISTICS LLC,"AUTHORIZED FOR PASSENGER, PROPERTY",UNITED VISION LOGISTICS,Carrier Broker,Interstate,Authorized For Hire Private Passengers (Business),MC194705,174881524,,09/24/2018,"64,728,799 (2017)","4021 AMBASSADOR CAFFERY PARKWAY SUITE 200 BLDG A LAFAYETTE, LA 70503",(337) 291-6700,,michelle.uskuraitis@uvlogistics.com,,"4021 AMBASSADOR CAFFERY PARKWAY SUITE 200 BLDG A LAFAYETTE, LA 70503",NICOLE ROMERO RUSTY GUILBEAU,1263,,,"1,196",,Not 100% compliant
465185,QUALITY DRIVE AWAY INC,AUTHORIZED FOR PROPERTY,,Carrier Broker,Interstate,Authorized For Hire,MC248649,,,01/07/2021,"41,957,824 (2019)","64825 CR 31 GOSHEN, IN 46528",(574) 642-2000,(574) 642-2025,safety@qualitydriveaway.com,www.qualitydriveaway.com,"PO BOX 764 GOSHEN, IN 46527",DEVON BECHTEL ANDREW MEDFORD,1268,,,"1,535",Not a,Not 100% compliant
337574,SOUTHERN FOODS GROUP LLC,DELETED,,Carrier,Interstate,Authorized For Hire Private Property,MC891265,,,04/29/2019,"32,864,677 (2018)","2711 N HASKELL AVE SUITE 3400 DALLAS, TX 75204",(214) 303-3300,(214) 721-8933,maureen_peterson@deanfoods.com,,"2711 N HASKELL AVE SUITE 3400 DALLAS, TX 75204",MARK LONGMIER BRAD CASHAW,1274,,,"1,507",Not a,Not 100% compliant
70851,NORTH AMERICAN VAN LINES INC,"AUTHORIZED FOR PROPERTY, HHG",,Carrier Broker,Interstate,Authorized For Hire,MC107012,6937197,,01/29/2021,"31,246,297 (2020)","101 EAST WASHINGTON BLVD SUITE 1100 FORT WAYNE, IN 46802",(260) 429-2511,(260) 429-3811,mark.davison@sirva.com,,"101 EAST WASHINGTON BLVD SUITE 1100 FORT WAYNE, IN 46802",ANDREW P. COOLIDGE JEFF MARGOLIS,1284,,,"1,390",Not a,Not 100% compliant
120195,EPES TRANSPORT SYSTEM LLC,AUTHORIZED FOR PROPERTY,,Carrier,Interstate,Authorized For Hire,MC44128,,,05/29/2020,"122,484,367 (2019)","3400 EDGEFIELD COURT GREENSBORO, NC 27409",(800) 869-3737,(336) 605-9584,david.leik@epestransport.com,www.epestransport.com,"PO BOX 35605 GREENSBORO, NC 27425",DAVID LEIK,1287,,,"1,642",,Not 100% compliant
927955,COLORADO DEPARTMENT OF TRANSPORTATION,ACTIVE,,Carrier Shipper,Intrastate Hazmat,State Government,,,,05/08/2019,"69,000,000 (2018)","2829 W HOWARD PLACE DENVER, CO 80204",(303) 757-9420,(303) 757-9409,elbert.hunt@state.co.us,,"2829 W HOWARD PLACE DENVER, CO 80204",SHOSHANA LEW JOSHUA LAIPPLY,1294,,,"1,639",Not a,Not 100% compliant
20293,G I TRUCKING COMPANY,AUTHORIZED FOR PROPERTY,ESTES WEST,Carrier,Interstate,Authorized For Hire,MC99685,99461949,,02/11/2020,"77,728,661 (2019)","14727 ALONDRA BLVD LA MIRADA, CA 90638-5617",(714) 523-1122,(804) 359-9341,curtis.carr@estes-express.com,,"PO BOX 25612 RICHMOND, VA 23260",WILLIAM T HUPP CURTIS E CARR,1312,,,"1,348",Not a,Not 100% compliant
48553,RITEWAY BUS SERVICE INC,AUTHORIZED FOR PASSENGER,GORITEWAY TRANSPORTATION GROUP INC,Carrier,Interstate,Authorized For Hire,MC172105,602521478,,03/10/2020,"19,324,975 (2018)","W201 N13900 FOND DU LAC AVENUE RICHFIELD, WI 53076",(262) 677-3282,(262) 677-3121,dan.becher@goriteway.com,,"W201 N13900 FOND DU LAC AVENUE RICHFIELD, WI 53076",DAN BECHER BRADLEY PENNEAU,1315,,,"1,469",Not a,Not 100% compliant
190180,PITT OHIO EXPRESS LLC,AUTHORIZED FOR PROPERTY,PITT OHIO EXPRESS,Carrier Broker,Interstate,Authorized For Hire,MC30136,,,03/25/2019,"101,627,324 (2018)","15 27TH STREET PITTSBURGH, PA 15222",(412) 232-3015,(412) 232-1303,tstipcak@pittohio.com,www.pittohio.com,"15 27TH STREET PITTSBURGH, PA 15222",CHARLES HAMMEL III JEFF MERCADANTE,1317,,,"1,835",,Not 100% compliant
148192,THE MARTIN-BROWER COMPANY,AUTHORIZED FOR PROPERTY,,Carrier,Interstate,Authorized For Hire Private Property,MC173515,,,07/28/2020,"114,953,051 (2019)","6250 NORTH RIVER ROAD SUITE 9000 ROSEMONT, IL 60018",(847) 227-6500,,kgrotzke@reyesholdings.com,,"6250 NORTH RIVER ROAD SUITE 9000 ROSEMONT, IL 60018",KEVIN GROTZKE NICHOLAS L GIAMPIETRO SR,1318,,,"2,366",,Not 100% compliant
91805,PILOT TRAVEL CENTERS LLC,AUTHORIZED FOR PROPERTY,SARATOGA,Carrier,Interstate,Authorized For Hire,MC694221,21339648,,01/28/2020,"138,784,396 (2019)","5508 LONAS RD KNOXVILLE, TN 37909",(865) 474-3978,(865) 297-0694,john.beach@pilottravelcenters.com,www.pilottravelcenters.com,"P O BOX 10146 KNOXVILLE, TN 37939-0146",JAMES HASLAM BRAD JENKINS,1321,,,"2,122",Not a,Not 100% compliant
114501,M J ELECTRIC LLC,ACTIVE,,Carrier Shipper,Interstate,Private Property,,,,02/12/2020,"16,952,519 (2019)","200 W FRANK PIPP DRIVE IRON MOUNTAIN, MI 49801",(906) 774-8000,(906) 779-4203,hr@mjelectric.com,,"PO BOX 686 IRON MOUNTAIN, MI 49801",THOMAS H NAGY,1323,,,"1,214",Not a,Not 100% compliant
321602,VERIZON NEW ENGLAND INC,ACTIVE,VERIZON,Carrier,Interstate,Private Property,,6952899,,02/07/2020,"10,710,000 (2019)","700 HIDDEN RIDGE MC HQW0BH50 IRVING, TX 75038",(972) 457-5716,(888) 847-6186,sonya.schroeder@verizon.com,,"700 HIDDEN RIDGE MC HWQ0BH50 IRVING, TX 75038",DONNA CUPELO,1338,,,"1,722",Not a,Not 100% compliant
183949,TRANSPORT CORPORATION OF AMERICA INC,AUTHORIZED FOR PROPERTY,TRANSPORT AMERICA,Carrier Broker,Interstate,Authorized For Hire,MC151556,156960320,,10/30/2018,"156,810,001 (2017)","1715 YANKEE DOODLE ROAD EAGAN, MN 55121",(651) 905-2824,(651) 994-5754,lisa.gonnerman@transportamerica.com,www.transportamerica.com,"1715 YANKEE DOODLE ROAD EAGAN, MN 55121",LORI SELLNER,1343,,,"1,535",Not a,Not 100% compliant
146060,STAN KOCH & SONS TRUCKING INC,AUTHORIZED FOR PROPERTY,,Carrier Broker,Interstate,Authorized For Hire,MC146969,619301757,,01/03/2019,"75,063,243 (2017)","4200 DAHLBERG DRIVE GOLDEN VALLEY, MN 55422",(763) 302-5400,(763) 302-5800,sullivan@kochcompanies.com,kochtrucking.us/,"4200 DAHLBERG DRIVE GOLDEN VALLEY, MN 55422",RANDY KOCH DAVE KOCH,1345,,,810,,Not 100% compliant
413426,FLORIDA POWER & LIGHT COMPANY,ACTIVE,,Carrier,Intrastate Hazmat,Private Property,,6922371,,06/15/2020,"13,883,552 (2019)","700 UNIVERSE BLVD JUNO BEACH, FL 33408",,(561) 881-3436,glenn.martin@fpl.com,www.fpl.com,"2457 PORT WEST BOULEVARD RIVIERA BEACH, FL 33407",JOE SUAREZ,1362,,,"2,428",Not a,Not 100% compliant
237997,ALLIED WASTE SYSTEMS INC,ACTIVE,REPUBLIC SERVICES OR ALLIED WASTE SERVICES,Carrier,Interstate,Private Property,,,,01/31/2019,"34,468,750 (2018)","18500 NORTH ALLIED WAY PHOENIX, AZ 85054",(480) 627-2700,,dot@republicservices.com,,"18500 NORTH ALLIED WAY PHOENIX, AZ 85054",JAMES OLSON,1363,,,"1,143",Not a,Not 100% compliant
887804,ADVANCED DISPOSAL SERVICES SOLID WASTE MIDWEST LLC,ACTIVE,ADVANCED DISPOSAL,Carrier,Interstate,Private Property,,,,04/30/2020,"30,910,000 (2019)","90 FORT WADE ROAD #200 PONTE VEDRA, FL 32081",(904) 309-6686,(904) 309-6685,melissa.henricks@advanceddisposal.com,,"90 FORT WADE ROAD #200 PONTE VEDRA, FL 32081",DANIEL DEWAARD,1366,,,"1,095",Not a,Not 100% compliant
358443,MIDAMERICAN ENERGY COMPANY,ACTIVE,,Carrier Shipper,Interstate,Private Property,,178925020,,03/09/2020,"17,260,000 (2019)","2595 34TH AVE NW ALTOONA, IA 50009",,(515) 281-2616,arbogdan@midamerican.com,www.midamerican.com,"2595 34TH AVE NW ALTOONA, IA 50009",ANDREW BOGDAN,1369,,,858,Not a,Not 100% compliant
342117,APPROVED COLOR LLC,ACTIVE,,Carrier,Interstate,Private Property,,101,,05/09/2019,"53,000 (2019)","101 ADAMS HILL ROAD GREENVILLE, NH 03048",(603) 878-1470,(603) 878-1179,chris@approvedcolor.comcastbiz.net,,"P O BOX 413 GREENVILLE, NH 03048-0413",CHRISTOPHER I LA BONTE,1,,,1,Not a,Not 100% compliant
273286,HORIZON TRANSPORT INC,AUTHORIZED FOR PROPERTY,,Carrier Broker,Interstate,Authorized For Hire DRIVEAWAY/,MC203246,156221913,,03/03/2020,"52,403,125 (2019)","100 NORTH STATE ROAD 19 WAKARUSA, IN 46573-9543",(574) 862-2161,(574) 862-1446,jessica@horizontransport.com,www.horizontransport.com,"P O BOX 826 WAKARUSA, IN 46573-0826",JESSICA ULANOWICZ ASHLEY SHAFER,1383,,,"2,061",Not a,Not 100% compliant
408430,COMMONWEALTH EDISON COMPANY,ACTIVE,COMED,Carrier,Intrastate Hazmat,Private Property,,6929509,,10/29/2019,"10,462,024 (2018)","THREE LINCOLN CENTER OAKBROOK TERRACE, IL 60181-4260",(630) 576-6327,(630) 576-6324,les.faul@comed.com,,"THREE LINCOLN CENTER OAKBROOK TERRACE, IL 60181-4260",TERRENCE R. DONNELLY JOSEPH MOSER,1395,,,"2,629",Not a,Not 100% compliant
255166,DEALERS CHOICE TRUCKAWAY SYSTEM INC,AUTHORIZED FOR PROPERTY,TRUCKMOVERS,Carrier,Interstate,Authorized For Hire,MC180587,166285171,,04/14/2020,"73,482,962 (2019)","2310 S REDWOOD AVE INDEPENDENCE, MO 64057",(816) 861-5444,(816) 817-1184,dave@truckmovers.com,,"2310 S REDWOOD AVE INDEPENDENCE, MO 64057",,1400,,,"1,400",Not a,Not 100% compliant
124333,H M CRAGG CO,ACTIVE,HM CRAGG,Carrier,Interstate,Private Property,,51443919,,01/07/2019,"167,874 (2014)","7490 BUSH LAKE ROAD EDINA, MN 55439",(952) 884-7775,(952) 884-7739,,www.hmcragg.com,"7490 BUSH LAKE ROAD EDINA, MN 55439",TONY WAND,10,,,8,Not a,Not 100% compliant
387102,MR BULT'S INC,AUTHORIZED FOR PROPERTY,,Carrier Broker,Interstate,Authorized For Hire Exempt For Hire Private Property,MC290960,184942555,,02/13/2020,"93,439,754 (2019)","2627 E 139TH ST BURNHAM, IL 60633",(708) 585-3302,(708) 868-2462,kburns@mrbults.com,,"2627 E 139TH ST BURNHAM, IL 60633",TONY SCHMIDT RICH BORGETTI,1409,,,"1,159",,Not 100% compliant
10206,SOUTHEASTERN PENNSYLVANIA TRANSPORTATION AUTHORITY SEPTA,AUTHORIZED FOR PASSENGER,,Carrier,Interstate,Authorized For Hire,MC29850,53292512,,06/11/2020,"46,550,000 (2019)","1234 MARKET STREET PHILADELPHIA, PA 19107-3780",(215) 580-8100,(215) 580-3636,ssauer@septa.org,www.septa.org,"1234 MARKET STREET FL 9 PHILADELPHIA, PA 19107-3780",SCOTT A. SAUER,1418,,,"2,480",Not a,Not 100% compliant
113594,A DUIE PYLE INC,AUTHORIZED FOR PROPERTY,,Carrier,Interstate,Authorized For Hire,MC39140 FF36613,93723518,,03/11/2020,"82,398,543 (2019)","650 WESTTOWN RD WEST CHESTER, PA 19382",(610) 696-5800,(610) 350-0406,safety@aduiepyle.com,,"PO BOX 564 WEST CHESTER, PA 19382",PETER LATTA PETER DANNECKER,1420,,,"1,632",,Not 100% compliant
385749,VERIZON NEW JERSEY INC,ACTIVE,VERIZON,Carrier,Interstate,Private Property,,6973762,,03/29/2020,"8,532,000 (2019)","700 HIDDEN RIDGE MC HQW0BH50 IRVING, TX 75038",(972) 457-5716,(888) 847-6186,sonya.schroeder@verizon.com,www.verizon.com,"700 HIDDEN RIDGE MC HQW0BH50 IRVING, TX 75038",THOMAS MAGUIRE,1422,,,"1,730",Not a,Not 100% compliant
64161,JACK COOPER TRANSPORT COMPANY LLC,AUTHORIZED FOR PROPERTY,,Carrier,Interstate,Authorized For Hire,MC71902,,,10/13/2020,"87,443,795 (2020)","2345 GRAND BLVD SUITE 2400 KANSAS CITY, MO 64108",(816) 983-4000,(816) 983-5000,phall@jackcooper.com,www.jackcooper.com,"2345 GRAND BLVD SUITE 2400 KANSAS CITY, MO 64108",T. MICHAEL RIGGS GREG MAY,1424,,,"1,297",,Not 100% compliant
585103,ADAMS TRANSPORT COMPANY,AUTHORIZED FOR PROPERTY,,Carrier,Interstate,Authorized For Hire,MC283203,,,01/08/2021,"542,000 (2019)","801 WESTBOURNE GROVE COURT COLFAX, NC 27235",(336) 992-6846,,sherribadams801@gmail.com,,"801 WESTBOURNE GROVE COURT COLFAX, NC 27235",ED ADAMS,,,,31,Not a,Not 100% compliant
299928,THE GOODYEAR TIRE & RUBBER COMPANY,ACTIVE,GOODYEAR,Carrier Shipper,Interstate,Private Property,,4467924,,10/18/2019,"28,416,000 (2017)","200 INNOVATION WAY AKRON, OH 44316",,,michael_muzychenko@goodyear.com,goodyear.com/,"200 INNOVATION WAY HQ 3691 AKRON, OH 44316",JANET CHANCE MIKE MUZYCHENKO,1431,,,"1,498",Not a,Not 100% compliant
362827,BRIGHTVIEW LANDSCAPES LLC,ACTIVE,BRIGHTVIEW LANDSCAPE SERVICES BRIGHTVIEW ENTERPRISE SOLUTIONS BRICKMAN,Carrier,Interstate,Private Property LANDSCAPE,,144780863,,04/03/2020,"1,992,000 (2019)","980 JOLLY RD STE 300 BLUE BELL, PA 19422",(818) 737-3150,,fleet.department@brightview.com,www.brightview.com,"980 JOLLY RD STE 300 BLUE BELL, PA 19422",JONATHEN GOTTSEGEN ROBERT TYLER,1439,,,"1,439",Not a,Not 100% compliant
245330,BISON TRANSPORT INC,AUTHORIZED FOR PROPERTY,,Carrier Broker,Interstate,Authorized For Hire,MC156588,205191612,,09/05/2019,"154,561,287 (2017)","1001 SHERWIN ROAD WINNIPEG, MB R3H 0T8",(204) 833-0240,(204) 833-0252,gpitzel@bisontransport.com,www.bisontransport.com,"1001 SHERWIN ROAD WINNIPEG, MB R3H 0T8",DON STREUBER ROB PENNER,1441,,,"1,765",,Not 100% compliant
385277,AMERICAN ULTRAVIOLET CO,ACTIVE,,Shipper,,,,002182756,,,,"212 N MT ZION RD LEBANON, IN 46052-9497",(201) 665-2211,,,HTTPS://WWW.AMERICANULTRAVIOLET.COM,"212 N MT ZION RD LEBANON, IN 46052-9497",,,,,,Not a,Not 100% compliant
34666,MELTON TRUCK LINES INC,AUTHORIZED FOR PROPERTY,,Carrier,Interstate,Authorized For Hire,MC100666,874951197,,04/16/2020,"134,687,558 (2019)","808 N 161ST EAST AVE TULSA, OK 74116",(918) 234-8000,(918) 270-9602,weathers@meltontruck.com,www.meltontruck.com,"808 N 161ST EAST AVE TULSA, OK 74116",LISA MASON RUSSELL ELLIOTT,1442,,,"1,353",,Not 100% compliant
424023,DOT TRANSPORTATION INC,AUTHORIZED FOR PROPERTY,,Carrier Broker,Interstate,Authorized For Hire Private Property,MC235436,824618813,,12/20/2019,"156,052,008 (2019)","1 DOT WAY MT STERLING, IL 62353",(217) 773-4411,(217) 773-9306,tim.eckhardt@dotfoods.com,www.dotfoods.com,"1 DOT WAY PO BOX 206 MT STERLING, IL 62353",TIM ECKHARDT PAUL MUGERDITCHIAN,1445,,,"1,730",,100% COMPLIANT
850629,LAZER SPOT INC,AUTHORIZED FOR PROPERTY,LAZER SPOT,Carrier,Interstate,Authorized For Hire,MC370668,,,03/03/2020,"18,709,073 (2019)","6525 SHILOH RD SUITE 900 ALPHARETTA, GA 30005",(678) 771-2600,(678) 771-2649,bwright@lazerspot.com,www.lazerspot.com,"6525 SHILOH RD SUITE 900 ALPHARETTA, GA 30005",BOB WRIGHT,1454,,,"2,213",Not a,Not 100% compliant
61222,DATTCO INC,AUTHORIZED FOR PASSENGER,,Carrier,Interstate,Authorized For Hire Private Passengers (Business),MC95466,18727560,,02/04/2020,"22,649,101 (2019)","583 SOUTH ST NEW BRITAIN, CT 06051-3847",(860) 229-4878,(860) 229-5091,frank.baio@dattco.com,,"583 SOUTH ST NEW BRITAIN, CT 06051-3847",FRANK BAIO DENNIS LYONS,1456,,,"1,343",Not a,Not 100% compliant
677713,SANTA BARBARA TRANSPORTATION CORP,ACTIVE,STUDENT TRANSPORTATION OF AMERICA,Carrier,Intrastate Non-Hazmat,Private Passengers (Business),,108891748,,07/18/2019,"18,599,819 (2018)","6414 HOLLISTER AVE GOLETA, CA 93117",(805) 681-8355,(805) 681-8374,mbroerman@ridesta.com,,"6414 HOLLISTER AVE GOLETA, CA 93117-3787",DON KISSELL MAGGIE L BROERMAN,1456,,,"1,301",Not a,Not 100% compliant
26931,PACIFICORP,ACTIVE,,Carrier,Interstate,Private Property,,7909013,,01/10/2019,"14,514,360 (2018)","3133 WEST 900 SOUTH SALT LAKE CITY, UT 84104",(801) 220-7613,(801) 220-7649,tranhlp@pacificorp.com,PacifiCorp.com,"3133 WEST 900 SOUTH SALT LAKE CITY, UT 84104","G. HOOGEVEEN, RMP S.BIRD, PP",1464,,,"1,215",Not a,Not 100% compliant
52767,ACME TRUCK LINE INC,"AUTHORIZED FOR PASSENGER, PROPERTY",,Carrier,Interstate,Authorized For Hire,MC120675 MC204229 MC442453 FF17385,59118810,,05/26/2020,"59,862,620 (2019)","200 WESTBANK EXPRESSWAY GRETNA, LA 70053",(504) 368-2510,(504) 368-9389,admindept@acmetruck.com,www.acmetruck.com,"PO BOX 183 HARVEY, LA 70059-0183",KIMBERLY FOSTER TYLER COATNEY,1472,,,"1,164",,Not 100% compliant
818076,STA OF PENNSYLVANIA INC,ACTIVE,,Carrier,Intrastate Non-Hazmat,Authorized For Hire Exempt For Hire Private Passengers (Business),,,,07/22/2019,"21,279,000 (2018)","1370 WASHINGTON PIKE STE 505 BRIDGEVILLE, PA 15017",(412) 278-2667,(412) 278-0452,mbroerman@ridesta.com,,"1370 WASHINGTON PIKE STE 505 BRIDGEVILLE, PA 15017",PAUL J FICHNER MAGGIE L BROERMAN,1474,,,"1,383",Not a,Not 100% compliant
882290,REINHART TRANSPORTATION LLC,AUTHORIZED FOR PROPERTY,,Carrier,Interstate,Authorized For Hire,MC383070,,,03/26/2020,"65,457,000 (2019)","100 HARBORVIEW SUITE 200 LA CROSSE, WI 54601",(865) 724-8228,,kacosby@rfsdelivers.com,,"100 HARBORVIEW SUITE 200 LA CROSSE, WI 54601",KEN COSBY THOMAS OLITSKY,1482,,,"1,717",Not a,Not 100% compliant
343050,MAXIM CRANE WORKS LP,AUTHORIZED FOR PROPERTY,,Carrier,Interstate,Authorized For Hire,MC266643,362185451,,03/30/2020,"15,543,192 (2019)","1225 WASHINGTON PIKE BRIDGEVILLE, PA 15017",(412) 504-0176,(412) 504-0126,twagner@maximcrane.com,maximcrane.com,"1225 WASHINGTON PIKE BRIDGEVILLE, PA 15017",JOSEPH KEEFE TROY WAGNER,1483,,,"1,277",Not a,Not 100% compliant
728630,FAF INC,AUTHORIZED FOR PROPERTY,FORWARD LTL,Carrier Broker,Interstate,Authorized For Hire,MC333604,,,02/28/2020,"136,830,971 (2019)","6800 PORT ROAD GROVEPORT, OH 43125",(888) 497-5000,(423) 783-9011,mcasey@forwardair.com,,"6800 PORT ROAD GROVEPORT, OH 43125",MATT CASEY,1486,,,"1,996",Not a,Not 100% compliant
745614,TRANS-PORTE INC,AUTHORIZED FOR PROPERTY,US FOODS,Carrier Shipper,Interstate,Authorized For Hire Private Property,MC338366,50963664,,12/03/2019,"65,858,674 (2018)","6133 N RIVER ROAD 9TH FLOOR ROSEMONT, IL 60018",(847) 268-5824,,james.gustin@usfoods.com,,"6133 N RIVER ROAD 9TH FLOOR ROSEMONT, IL 60018",JAMES GUSTIN JERRY GREINER,1500,,,"1,798",Not a,Not 100% compliant
210768,RENZENBERGER INC,AUTHORIZED FOR PASSENGER,HALLCON,Carrier,Interstate,Authorized For Hire Private Passengers (Business),MC170517,107100208,,01/26/2020,"99,578,717 (2019)","14325 W 95TH STREET LENEXA, KS 66215-5210",(913) 631-0450,,pbenne@hallcon.com,,"14325 W 95TH STREET LENEXA, KS 66215-5210",JOHN STOIBER MR KEVIN RAMSAY,1502,,,"3,846",Not a,Not 100% compliant
41208,UACL LOGISTICS LLC,AUTHORIZED FOR PROPERTY,UNIVERSAL,Carrier Broker,Interstate,Authorized For Hire GENERAL FR,MC59583,7921273,,02/23/2021,"113,020,160 (2020)","12755 E NINE MILE WARREN, MI 48089",(800) 233-9445,,,,"12755 E NINE MILE WARREN, MI 48089",KERI LOWE,1505,,,"1,350",Not a,Not 100% compliant
377664,LOUISVILLE DRYWALL DISTRIBUTORS INC,ACTIVE,,Carrier,Interstate,Private Property,,62966635,,04/16/2020,"30,000 (2019)","4021 CONTRACTORS COURT LOUISVILLE, KY 40213-2901",(502) 968-4127,(502) 964-2020,leslies@l-d-d.com,,"4021 CONTRACTORS COURT LOUISVILLE, KY 40213-2901",KENNETH E STILGER TERRY L STILGER,5,,,7,Not a,Not 100% compliant
471318,DARLING INGREDIENTS INC,AUTHORIZED FOR PROPERTY,DARLING INGREDIENTS,Carrier,Interstate,Authorized For Hire Private Property,MC250621,71000837,,12/15/2020,"50,818,131 (2020)","5601 N MACARTHUR BLVD IRVING, TX 75038",(972) 281-4424,(972) 717-1588,shenley@darlingii.com,www.darlingii.com,"5601 N MACARTHUR BLVD IRVING, TX 75038",RANDALL C. STUEWE,1519,,,"1,152",Not a,Not 100% compliant
924720,UTILITY LINES CONSTRUCTION SERVICES LLC,ACTIVE,,Carrier,Interstate,Private Property,,,,04/08/2020,"5,233,080 (2019)","708 BLAIR MILL ROAD WILLOW GROVE, PA 19090",(800) 248-8733,(215) 784-4237,dot@utilservllc.com,,"708 BLAIR MILL ROAD WILLOW GROVE, PA 19090",GEORGE GRAHAM STEVEN ASPLUNDH,1525,,,"1,060",Not a,Not 100% compliant
217321,CONSUMERS ENERGY,ACTIVE,,Carrier,Intrastate Hazmat,Private Property,,6959803,,01/23/2020,"20,780,000 (2019)","ONE ENERGY PLAZA JACKSON, MI 49201",(517) 788-1972,(517) 768-1412,harold.devine@cmsenergy.com,,"PO BOX 1085 JACKSON, MI 49204",PATRICIA K POPPE REJJI P HAYES,1529,,,"2,263",Not a,Not 100% compliant
62227,USF REDDAWAY INC,AUTHORIZED FOR PROPERTY,REDDAWAY,Carrier,Interstate,Authorized For Hire,MC65895,54260856,,02/14/2020,"79,577,358 (2017)","7720 SW MOHAWK ST BLDG H TUALATIN, OR 97062",(503) 612-3100,(800) 994-7358,kwolfe@usfc.com,www.usfc.com,"P O BOX 1300 TUALATIN, OR 97062",T.J. O'CONNOR TAMARA JALVING,1532,,,"1,597",Not a,Not 100% compliant
106673,CONSOLIDATED EDISON CO OF NEW YORK,ACTIVE,CON EDISON,Carrier,Interstate,Private Property,,6982359,,05/14/2020,"6,730,000 (2019)","31 01 20TH AVENUE BLDG 137 LONG ISLAND CITY, NY 11105",,(646) 654-2949,tsangte@coned.com,www.coned.com,"3101 20TH AVE BLDG 137 1ST FL LONG ISLAND CITY, NY 11105",TERESA TSANG KAREN PAIGE,1534,,,"3,511",Not a,Not 100% compliant
125563,MAYFLOWER TRANSIT LLC,"AUTHORIZED FOR PROPERTY, HHG",,Carrier Broker,Interstate,Authorized For Hire,MC2934 FF7137,6937650,,03/30/2020,"39,148,000 (2019)","ONE MAYFLOWER DRIVE FENTON, MO 63026",(636) 305-4000,(636) 305-4682,dave_pile@unigroup.com,www.mayflower.com,"ONE MAYFLOWER DRIVE FENTON, MO 63026",SCOTT A. KLUESNER,1535,,,"1,486",,Not 100% compliant
76483,KAG SPECIALTY PRODUCTS GROUP LLC,AUTHORIZED FOR PROPERTY,TRANSPORT SERVICE,Carrier Cargo Tank Broker,Interstate,Authorized For Hire,MC112801,2984276,,02/17/2020,"78,100,000 (2019)","4366 MT PLEASANT ST NW N CANTON, OH 44720",(330) 409-1020,(330) 409-1154,becky.perlaky@thekag.com,,"4366 MT PLEASANT ST NW N CANTON, OH 44720",BECKY J. PERLAKY JACQUELINE MUSACCHIA,1537,,,"1,355",Not a,Not 100% compliant
198696,WASTE INDUSTRIES USA,ACTIVE,GFL ENVIRONMENTAL,Carrier,Interstate,Private Property,,65302267,,02/17/2020,"42,968,706 (2019)","3301 BENSON DRIVE STE 601 RALEIGH, NC 27609",(919) 325-3000,(919) 325-3017,ehs@wasteindustries.com,www.wasteindustries.com,"3301 BENSON DRIVE STE 601 RALEIGH, NC 27609",VEN POOLE GREG YORSTON,1541,,,"1,366",Not a,Not 100% compliant
273818,COVENANT TRANSPORT INC,"AUTHORIZED FOR PROPERTY, HHG",COVENANT LOGISTICS,Carrier Broker,Interstate,Authorized For Hire,MC188102,876533548,,06/24/2020,"178,218,572 (2018)","400 BIRMINGHAM HIGHWAY CHATTANOOGA, TN 37422",(423) 821-1212,(423) 825-7694,cofrob@covenanttransport.com,,"PO BOX 22997 CHATTANOOGA, TN 37422",ROB COFFMAN JOEY HOGAN,1557,,,"2,171",,Not 100% compliant
547892,HYDROCHEM LLC,AUTHORIZED FOR PROPERTY,HYDROCHEMPSC,Carrier Shipper,Interstate,Authorized For Hire Private Property,MC852564,1026738,,02/18/2019,"7,465,000 (2018)","900 GEORGIA AVENUE DEER PARK, TX 77536",(713) 393-5600,(713) 393-5959,marsha.wendel@hydrochempsc.com,,"900 GEORGIA AVENUE DEER PARK, TX 77536",BRAD CLARK WILL FREDERKING,1557,,,392,Not a,Not 100% compliant
292168,AMBOY BUS CO INC,NOT AUTHORIZED,,Carrier,Intrastate Non-Hazmat,Authorized For Hire,MC189123,4141,,10/21/2013,"14,451,082 (2012)","46-81 METROPOLITAN AVE RIDGEWOOD, NY 11385",(718) 456-9530,(718) 497-1655,jkelch@aebus.com,,"7 NORTH ST STATEN ISLAND, NY 10302",DAVID CARPENTER GEROLD DENTE,1601,,,"1,601",Not a,Not 100% compliant
315503,TRANSAM TRUCKING INC,AUTHORIZED FOR PROPERTY,TRANSAM,Carrier,Interstate,Authorized For Hire,MC197897,180594079,,04/29/2020,"145,771,875 (2019)","15910 SOUTH 169 HIGHWAY OLATHE, KS 66062",(913) 782-5300,,cvoorhees@transamtruck.com,,"15910 SOUTH 169 HIGHWAY OLATHE, KS 66062",CONRAD VOORHEES,1605,,,"1,051",,Not 100% compliant
330912,RUMPKE TRANSPORTATION COMPANY LLC,AUTHORIZED FOR PROPERTY,,Carrier,Interstate,Authorized For Hire Private Property,MC348275,53092800,,01/13/2020,"36,467,969 (2019)","3990 GENERATION DRIVE CINCINNATI, OH 45251",(513) 741-5241,(513) 741-5284,david.weisinger@rumpke.com,,"3990 GENERATION DRIVE CINCINNATI, OH 45251",WILLIAM RUMPKE JR,1609,,,"1,705",Not a,Not 100% compliant
277071,STAR TRUCK RENTALS INC,AUTHORIZED FOR PROPERTY,,Carrier,Interstate,Authorized For Hire Private Property,MC210976,8901761,,02/03/2020,"59,785,549 (2018)","3940 EASTERN SE GRAND RAPIDS, MI 49508",(616) 243-7033,(866) 269-8179,michelleu@starlease.com,,"5260 36TH STREET SE GRAND RAPIDS, MI 49512",THOMAS BYLENGA,1616,,,219,Not a,Not 100% compliant
44110,GREYHOUND LINES INC,"AUTHORIZED FOR PASSENGER, PROPERTY",BOLT BUS,Carrier,Interstate,Authorized For Hire,MC1515,825063233,,04/16/2020,"140,599,627 (2018)","350 N ST PAUL ST DALLAS, TX 75201-4201",(214) 849-8225,(214) 849-6003,alan.smith@greyhound.com,,"350 N ST PAUL ST DALLAS, TX 75201-4201",DAVE LEACH BILL BLANKENSHIP,1620,,,"2,533",Not a,Not 100% compliant
178538,MAVERICK TRANSPORTATION LLC,AUTHORIZED FOR PROPERTY,,Carrier Broker,Interstate,Authorized For Hire,MC150231,99923310,,07/01/2019,"163,000,000 (2018)","13301 VALENTINE ROAD NORTH LITTLE ROCK, AR 72117",(501) 945-6130,(501) 955-1525,dnewell@maverickusa.com,,"P O BOX 16173 LITTLE ROCK, AR 72231",JOHN CULP DEAN NEWELL,1645,,,"1,645",,Not 100% compliant
714483,DEAN TRANSPORTATION INC,NOT AUTHORIZED,,Carrier,Interstate,Authorized For Hire,MC328882,,,01/12/2021,"56,148,078 (2019)","2711 N HASKELL AVE SUITE 3400 DALLAS, TX 75204",(214) 303-3400,,maureen_peterson@deanfoods.com,,"2711 N HASKELL AVE SUITE 3400 DALLAS, TX 75204",GREGORY WOLLJUNG BRIAN RILEY,1650,,,"2,066",Not a,Not 100% compliant
117034,CENTRAL FREIGHT LINES INC,AUTHORIZED FOR PROPERTY,,Carrier,Interstate,Authorized For Hire,MC30867,7937774,,04/17/2019,"74,361,487 (2018)","5601 WEST WACO DRIVE WACO, TX 76710",(972) 579-4139,(972) 554-5363,tweeks@centralfreight.com,www.centralfreight.com,"PO BOX 2638 WACO, TX 76702-2638",DON ORR TOM BOTSIOS,1651,,,"1,175",Not a,Not 100% compliant
270179,MVT SERVICES LLC,AUTHORIZED FOR PROPERTY,MESILLA VALLEY TRANSPORTATION,Carrier Broker,Interstate,Authorized For Hire,MC186190,152956504,,08/13/2019,"167,270,960 (2018)","3590 W PICACHO AVE LAS CRUCES, NM 88007",(915) 791-4000,(915) 791-4044,rosanna.castro@m-v-t.com,,"PO BOX 1230 FAIRACRES, NM 88033-1230",ROYAL JONES JIMMY RAY,1654,,,"1,615",,Not 100% compliant
665959,STROEHMANN LINE-HAUL L P,AUTHORIZED FOR PROPERTY,,Carrier,Interstate,Authorized For Hire,MC304937,,,04/24/2020,"19,520,000 (2019)","255 BUSINESS CENTER DR HORSHAM, PA 19044",(847) 292-7603,(708) 330-0266,tom.niemiec@grupobimbo.com,,"8550 BRYN MAHR AVE STE 1000 CHICAGO, IL 60631",ALFRED PENNY LEE FAUK,1660,,,"1,382",Not a,Not 100% compliant
8273,INTERSTATE DISTRIBUTOR CO,DELETED,,Carrier Broker,Interstate,Authorized For Hire,MC117201 MC125952,55498216,,05/14/2019,"155,550,997 (2016)","901 NORTH KANSAS AVENUE NORTH LIBERTY, IA 52317",(319) 626-3350,(319) 626-3617,dmcglaughlin@heartlandexpress.com,,"901 NORTH KANSAS AVENUE NORTH LIBERTY, IA 52317",DON MCGLAUGHLIN,1670,,,"1,579",Not a,Not 100% compliant
305779,"ACTION INSURANCE, INC.",NONE,ACTION AUTO TRANSPORTERS,,,,MC205526,,,,,1014 SOUTH CONGRESS AVENUE W. PALM BEACH FL 33406,(407) 965-7620,,,,,,,,,,Not a,Not 100% compliant
363,AARON'S INC,ACTIVE,AARON'S OR WOODHAVEN OR PROGRESSIVE,Carrier,Interstate,Private Property,,33501545,,02/24/2020,"33,360,000 (2019)","400 GALLERIA PKWY ATLANTA, GA 30339",(678) 402-3586,(855) 686-5790,lewis.allen@aarons.com,www.aarons.com,"400 GALLERIA PKWY ATLANTA, GA 30339",STEVE OLSEN ROBERT SINCLAIR,1676,,,"3,048",Not a,Not 100% compliant
53773,CRST EXPEDITED INC,AUTHORIZED FOR PROPERTY,,Carrier,Interstate,Authorized For Hire,MC114273,7793383,,03/08/2019,"267,517,474 (2018)","3930 16TH AVE S W CEDAR RAPIDS, IA 52406",(319) 396-4400,(319) 390-6749,chaffenden@crst.com,www.crst.com,"PO BOX 68 CEDAR RAPIDS, IA 52406",CHARLES HAFFENDEN CAMERON HOLZER,1676,,,"3,377",Not a,Not 100% compliant
361529,RCF INC,AUTHORIZED FOR PROPERTY,,Carrier,Interstate,Authorized For Hire Private Property,MC717104,,,12/09/2019,"35,684 (2019)","560 HAZELWOOD AVE WAYNESVILLE, NC 28786",(828) 456-9570,(828) 452-5904,rcfconst@bellsouth.net,,"PO BOX 157 HAZELWOOD, NC 28738",GARY D MCKAY JANE MCKAY STAMEY,13,,,4,Not a,Not 100% compliant
322521,NORFOLK SOUTHERN RAILWAY COMPANY,ACTIVE,NORFOLK SOUTHERN,Carrier,Interstate,Private Property IEP,,6920417,,02/24/2020,"8,261,145 (2018)","1200 PEACHTREE ST NE BOX 131 ATLANTA, GA 30309",(404) 529-1042,(404) 527-2705,enfleetadministration@nscorp.com,,"1200 PEACHTREE ST NE BOX 131 ATLANTA, GA 30309",NS FLEET MANAGER,1702,,,"1,743",Not a,Not 100% compliant
739235,ROOFLINE INC,AUTHORIZED FOR PROPERTY,SRS DISTRIBUTION,Carrier,Interstate,Authorized For Hire,MC1018193,50241054,,04/30/2020,"3,375,000 (2019)","5900 SOUTH LAKE FOREST DR #400 MCKINNEY, TX 75070",(214) 491-4149,,david.richardson@srsdistribution.com,,"5900 SOUTH LAKE FOREST DR #400 MCKINNEY, TX 75070",PATRICK J HUGHES DAN TINKER,1708,,,"1,318",Not a,Not 100% compliant
100115,LAMERS BUS LINES INC,AUTHORIZED FOR PASSENGER,,Carrier,Interstate,Authorized For Hire,MC146955,65451080,,05/01/2019,"25,370,000 (2018)","2407 SOUTH POINT ROAD GREEN BAY, WI 54313",(920) 496-3600,(920) 496-3611,kevin@golamers.com,www.golamers.com,"2407 SOUTH POINT ROAD GREEN BAY, WI 54313",KEVIN LAMERS,1715,,,"1,622",Not a,Not 100% compliant
179752,PAM TRANSPORT INC,AUTHORIZED FOR PROPERTY,,Carrier,Interstate,Authorized For Hire,MC150496,98571433,,02/26/2019,"151,046,363 (2018)","HIGHWAY 412 WEST TONTITOWN, AR 72770",(479) 361-9111,(479) 361-5335,chria@pamt.com,www.pamt.com,"P O BOX 188 TONTITOWN, AR 72770-9989",DAN CUSHMAN ANDREW CHRISTENSEN,1717,,,"2,111",,Not 100% compliant
10515,HENKELS & MCCOY INC,ACTIVE,HENKELS & MCCOY,Carrier,Interstate,Private Property,,8937815,,05/20/2020,"27,071,063 (2019)","985 JOLLY RD BLUE BELL, PA 19422-0950",,(215) 283-7937,bmauger@henkels.com,www.henkels.com,"985 JOLLY RD BLUE BELL, PA 19422-0950",T. RODERICK HENKELS MARY BETH MARTINO,1726,,,"2,208",Not a,Not 100% compliant
548880,COWAN SYSTEMS LLC,AUTHORIZED FOR PROPERTY,,Carrier Broker,Interstate,Authorized For Hire,MC271882,,,02/17/2020,"173,000,000 (2019)","4555 HOLLINS FERRY ROAD BALTIMORE, MD 21227",(410) 247-0800,(443) 575-4412,sales@cowansystems.com,www.cowansystems.com,"4555 HOLLINS FERRY ROAD BALTIMORE, MD 21227",LAURA HALL,1735,,,"1,710",,Not 100% compliant
86787,HOGAN TRUCK LEASING INC,ACTIVE,HOGAN MOTOR LEASING INC,Carrier Cargo Tank,Interstate,Private Property LEASING CO,,31047913,,07/25/2018,"13,271,779 (2017)","2150 SCHUETZ ROAD SAINT LOUIS, MO 63146",(314) 421-6000,(314) 995-6831,kkilgo@hogan1.com,,"2150 SCHUETZ ROAD SAINT LOUIS, MO 63146",BRIAN J. HOGAN CARL G. HOGAN,1750,,,325,Not a,Not 100% compliant
496970,BASIC ENERGY SERVICES LP,AUTHORIZED FOR PROPERTY,,Carrier,Interstate,Authorized For Hire Private Property,MC344830,793319930,,04/16/2020,"28,253,077 (2019)","801 CHERRY STREET SUITE 2100 FORT WORTH, TX 76102",(817) 334-4100,(817) 334-4101,timothy.collie@basicenergyservices.com,www.basicenergyservices.com,"801 CHERRY STREET SUITE 2100 FORT WORTH, TX 76102",KEITH SCHILLING DAVID SCHORLEMER,1760,,,"1,548",Not a,Not 100% compliant
98686,CUMMINS INC,ACTIVE,CUMMINS SALES AND SERVICE,Carrier,Interstate,Private Property,,2321420,,03/28/2019,"43,698,563 (2018)","500 JACKSON STREET COLUMBUS, IN 47201",(812) 377-3791,(812) 377-3347,tax.admin@notes.cummins.com,,"500 JACKSON STREET COLUMBUS, IN 47201-6258",JOSEPH E BERNOT BEN MCGIBBON,1767,,,"1,911",Not a,Not 100% compliant
807948,PROFESSIONAL TRANSPORTATION INC,AUTHORIZED FOR PASSENGER,,Carrier,Interstate,Authorized For Hire,MC217444,,,05/22/2020,1 (2019),"3700 MORGAN AVE EVANSVILLE, IN 47715",(800) 471-2440,(812) 485-3683,taraha.smith@unitedevv.com,,"3700 MORGAN AVE EVANSVILLE, IN 47715",RON ROMAIN,1775,,,"3,695",Not a,Not 100% compliant
453455,QWEST CORPORATION,ACTIVE,CENTURYLINK,Carrier,Interstate,Private Property UTILITY,,876523556,,05/03/2019,"19,257,364 (2018)","1025 ELDORADO BLVD BROOMFIELD, CO 80021",(720) 578-4587,(303) 965-4517,,,"1025 ELDORADO BLVD BROOMFIELD, CO 80021",BRETT HOLZ,1805,,,871,Not a,Not 100% compliant
175852,GFS TRANSPORT LLC,AUTHORIZED FOR PROPERTY,,Carrier,Interstate,Authorized For Hire,MC544312,6409908,,02/21/2019,"80,417,517 (2018)","1300 GEZON PARKWAY WYOMING, MI 49509",(616) 530-7000,(616) 717-9175,jeff.slater@gfs.com,www.gfs.com,"P O BOX 1823 GRAND RAPIDS, MI 49501-1823",JEFF MADDOX JEFFREY S SLATER,1808,,,"2,435",Not a,Not 100% compliant
165307,GEORGIA POWER COMPANY,ACTIVE,UTILITY,Carrier,Interstate,Private Property UTILITY,,196534093,,07/19/2018,"26,530,000 (2017)","241 RALPH MCGILL BLVD NE BIN 10042 ATLANTA, GA 30308-3374",(706) 236-1449,(706) 236-1311,tbdudley@southernco.com,www.southernco.com,"224 HOLMES ROAD ROME, GA 30161",STERLING SPAINHOUR GLEN GRIZZLE,1818,,,"1,693",Not a,Not 100% compliant
381306,"MULTIFAST TRANSPORTATION, INC.",NONE,,,,,MC227069,,,,,16845 N 29TH AVE PHOENIX AZ 85023,(602) 866-9668,,,,,,,,,,Not a,Not 100% compliant
523181,ALLIED WASTE SERVICES OF NORTH AMERICA LLC,ACTIVE,ALLIED WASTE SERVICES OR BFI OR REPUBLIC SERVICES,Carrier,Interstate,Private Property,,,,05/12/2020,"54,593,750 (2018)","18500 NORTH ALLIED WAY PHOENIX, AZ 85054",(480) 627-2700,(480) 718-4306,dot@republicservices.com,,"18500 NORTH ALLIED WAY PHOENIX, AZ 85054",JAMES OLSON,1828,,,"1,564",Not a,Not 100% compliant
827308,TIME WARNER CABLE,ACTIVE,SPECTRUM,Carrier,Interstate,Private Property,,,,02/24/2020,"137,992,370 (2018)","6360 S FIDDLERS GREEN CIR 1ST FLOOR GREENWOOD VILLAGE, CO 80111",(303) 323-1463,,marvin.reeves@charter.com,,"6360 S FIDDLERS GREEN CIR 1 FL GREENWOOD VILLAGE, CO 80111",MARVIN REEVES BRANDON A. MORRIS,1829,,,"1,829",Not a,Not 100% compliant
263096,ALABAMA POWER COMPANY,ACTIVE,,Carrier,Interstate,Private Property,,6900120,,12/31/2019,"25,360,000 (2018)","600 18TH ST N BIRMINGHAM, AL 35291-0238",(205) 664-6525,(205) 664-6106,jehodge@southernco.com,,"744 SHELBY COUNTY HWY 87 CALERA, AL 35040",MARK A. CROSSWHITE JEREMY E. HODGE,1835,,,"1,759",Not a,Not 100% compliant
464076,BRIGHTVIEW COMPANIES LLC,ACTIVE,BRIGHTVIEW LANDSCAPE DEVELOPMENT BRIGHTVIEW LANDSCAPE SERVICES BRIGHTVIEW TREE CO BRIGHTVIEW GOLF MAINTENANCE INC,Carrier,Interstate,Private Property LANDSCAPE,,849002332,,04/03/2020,"1,176,000 (2019)","27001 AGOURA RD STE 350 CALABASAS, CA 91301",(818) 737-3150,(818) 225-6898,fleet.department@brightview.com,,"27001 AGOURA RD STE 350 CALABASAS, CA 91301",TOMAS A KUEHN ROBERT TYLER,1844,,,"1,844",Not a,Not 100% compliant
236530,ROSELAND TRUCKING INC,AUTHORIZED FOR PROPERTY,,Carrier,Interstate,Authorized For Hire,MC155751,102317617,,09/18/2019,"417,636 (2018)","511 SOUTH MAPLE STREET PAULLINA, IA 51046",(712) 949-2307,(712) 448-2696,roseland.nichole@gmail.com,,"511 SOUTH MAPLE STREET PAULLINA, IA 51046",DANIEL JACOBS NICHOLE FINTEL,5,,,5,Not a,Not 100% compliant
9640,NESTLE TRANSPORTATION COMPANY,AUTHORIZED FOR PROPERTY,,Carrier Broker,Interstate,Authorized For Hire Private Property,MC158221,62038351,,10/31/2018,"58,651,268 (2017)","800 NESTLE COURT DEKALB, IL 60115-8676",(815) 754-2653,(815) 748-5272,michael.mason@us.nestle.com,,"800 NESTLE CT DEKALB, IL 60115-8676",RON CLOW STUART LATTA,1855,,,"1,872",Not a,Not 100% compliant
688143,XPO LOGISTICS DRAYAGE LLC,AUTHORIZED FOR PROPERTY,,Carrier Broker,Interstate,Authorized For Hire,MC164032,,,02/03/2020,"125,288,087 (2019)","11215 NORTH COMMUNITY HOUSE ROAD CHARLOTTE, NC 28277",(980) 244-3293,(855) 484-1134,luis.ortiz001@xpo.com,www.xpo.com,"11215 NORTH COMMUNITY HOUSE ROAD CHARLOTTE, NC 28277",TIM WILLIAMS,1855,,,"1,855",,Not 100% compliant
216652,PUBLIC SERVICE ELECTRIC & GAS COMPANY,ACTIVE,,Carrier,Intrastate Non-Hazmat,Private Property UTILITY,,6973812,,09/04/2019,"7,445,000 (2017)","80 PARK PLAZA NEWARK, NJ 07102",(732) 346-5912,(732) 225-1666,victor.csirip@pseg.com,pseg.com,"350 RARITAN CENTER PARKWAY EDISON, NJ 08837",DAVID M. DALY DANIEL J. CREEG,1860,,,600,Not a,Not 100% compliant
36845,WASHINGTON METROPOLITAN AREA TRANSIT AUTHORITY,ACTIVE,,Carrier,Intrastate Non-Hazmat,UNSPECIFIE,,,,,,"600 FIFTH STREET NW WASHINGTON, DC 20001",(202) 962-1814,,,,"600 FIFTH STREET NW WASHINGTON, DC 20001",,1864,,,"2,581",Not a,Not 100% compliant
524802,SUNSTATE EQUIPMENT COMPANY LLC,ACTIVE,,Carrier,Interstate,Private Property,,56899339,,02/27/2020,"7,500,000 (2019)","5552 E WASHINGTON ST PHOENIX, AZ 85034",(602) 683-2268,(602) 797-5681,abodell@sunstateequip.com,,"5552 E WASHINGTON ST PHOENIX, AZ 85034",CHRIS WATTS GARTH PRICE,1865,,,979,Not a,Not 100% compliant
856351,WASTE MANAGEMENT INC OF FLORIDA,AUTHORIZED FOR PROPERTY,,Carrier,Intrastate Non-Hazmat,Authorized For Hire Exempt For Hire,MC782859,,,06/19/2019,"47,610,579 (2018)","2700 WILES ROAD POMPANO BEACH, FL 33073",(281) 386-5238,(954) 984-2058,gcrump2@wm.com,,"2700 WILES ROAD POMPANO BEACH, FL 33073",GREGORY V CRUMP,1873,,,"2,091",Not a,Not 100% compliant
273301,DAYTON FREIGHT LINES INC,AUTHORIZED FOR PROPERTY,,Carrier,Interstate,Authorized For Hire,MC189528,45380458,,01/31/2020,"135,246,379 (2019)","6450 POE AVE SUITE 311 DAYTON, OH 45414",(937) 415-1744,(937) 264-4077,dkirby@daytonfreight.com,,"6450 POE AVENUE SUITE 311 DAYTON, OH 45414",DEREK L. KIRBY TOM CRONIN,1881,,,"2,322",,Not 100% compliant
411579,OHIO DEPARTMENT OF TRANSPORTATION,ACTIVE,,Carrier,Intrastate Non-Hazmat,State Government,,809174402,,10/21/2005,,"1980 WEST BROAD ST COLUMBUS, OH 43223",(614) 351-2828,(614) 351-2831,,,"P O BOX 899 COLUMBUS, OH 43216-0899",MARK GNATOWSKI TIMOTHY WALD,1881,,,"2,997",Not a,Not 100% compliant
324411,LEWIS TREE SERVICE INC,ACTIVE,CAROLINA TREE CARE INC,Carrier,Interstate,Private Property,,67921775,,04/30/2020,"12,211,529 (2019)","300 LUCIUS GORDON DRIVE WEST HENRIETTA, NY 14586",(585) 436-3208,(585) 235-5864,keastman@lewistree.com,,"300 LUCIUS GORDON DRIVE WEST HENRIETTA, NY 14586",CHRISTOPHER MAKA,1883,,,"1,660",Not a,Not 100% compliant
733151,GARDNER TRUCKING INC,AUTHORIZED FOR PROPERTY,,Carrier Broker,Interstate,Authorized For Hire,MC178551,,,07/10/2019,"105,252,499 (2018)","1219 E ELM STREET BLDG J ONTARIO, CA 91761",(909) 563-5656,(909) 563-5696,dspencer@crst.com,,"1219 ELM STREET BLDG J ONTARIO, CA 91761",TOM LANTING DON SANDRIDGE,1934,,,"1,917",Not a,Not 100% compliant
151288,SAFETY-KLEEN SYSTEMS INC,AUTHORIZED FOR PROPERTY,,Carrier Shipper,Interstate,Authorized For Hire Private Property,MC502328,,,03/12/2020,"39,171,170 (2019)","1722 COOPER CREEK ROAD DENTON, TX 76208",(781) 792-5000,(781) 792-1006,thompson.paul@cleanharbors.com,,"PO BOX 9149 NORWELL, MA 02061",PAUL THOMPSON,1938,,,"1,413",Not a,Not 100% compliant
170146,WRIGHT TREE SERVICE INC,ACTIVE,,Carrier,Interstate,Private Property,,790523385,,02/07/2020,"3,514,340 (2020)","5930 GRAND AVE WEST DES MOINES, IA 50266",(515) 271-1149,(866) 489-0661,sburkman@wrighttree.com,,"PO BOX 1718 DES MOINES, IA 50306",AUSTIN KENNEDY TERRY MCGRONEGLE,1942,,,"2,478",Not a,Not 100% compliant
65769,HIRSCHBACH MOTOR LINES INC,AUTHORIZED FOR PROPERTY,SPOT BY HIRSCHBACH,Carrier,Interstate,Authorized For Hire,MC117686,168488054,,12/14/2018,"213,408,000 (2018)","2460 KERPER BLVD DUBUQUE, IA 52001",(402) 404-2000,(402) 404-2327,brian.kohlwes@hirschbach.com,,"2460 KERPER BLVD DUBUQUE, IA 52001",BRAD PINCHUCK,1949,,,"1,975",,Not 100% compliant
251147,COCA-COLA BOTTLING COMPANY UNITED INC,ACTIVE,,Carrier,Interstate,Private Property,,72108103,,12/17/2018,"12,000,000 (2017)","4600 EAST LAKE BLVD BIRMINGHAM, AL 35217",(205) 943-6767,,bradsmith@ccbcu.com,,"P O BOX 2006 BIRMINGHAM, AL 35201",WILL GOODWYN JOHN SHERMAN,1950,,,"3,185",Not a,Not 100% compliant
79466,STEVENS TRANSPORT INC,AUTHORIZED FOR PROPERTY,,Carrier,Interstate,Authorized For Hire,MC150578,49042237,,01/22/2019,"211,601,281 (2018)","9757 MILITARY PARKWAY DALLAS, TX 75227",(972) 216-9000,(972) 329-1343,btallent@stevenstransport.com,www.stevenstransport.com,"9757 MILITARY PARKWAY DALLAS, TX 75227",WILLIAM TALLENT RACHEL EASLEY,1953,,,"2,426",,100% COMPLIANT
304311,GARY CLAWSON,NONE,GARY CLAWSON TRANSPORTATION,,,,MC203353,,,,,8220 REDWOOD RD. HUGHSON CA 95326,(209) 883-0706,,,,,,,,,,Not a,Not 100% compliant
150749,MEADE COUNTY READY MIX INC,AUTHORIZED FOR PROPERTY,MYERS TRANSPORT,Carrier,Interstate,Authorized For Hire,MC420372,6399422,,10/29/2018,"33,127 (2017)","101 READY MIX RD BRANDENBURG, KY 40108",(270) 422-2858,,liverstax1@yahoo.com,,"P O BOX 597 BRANDENBURG, KY 40108",RICHARD C. MYERS,2,,,1,Not a,Not 100% compliant
329536,"MARTINEZ LIMO TOURS, INC.",NONE,,,,,MC213225,,,,,48C MANCHESTER COURT FREEHOLD NJ 07728,(201) 449-5531,,,,,,,,,,Not a,Not 100% compliant
354086,NELSON OIL & GAS INC,ACTIVE,,Carrier,Intrastate Non-Hazmat,Private Property,,039717871,,06/04/2004,"60,000 (2003)","401 EDWARDS ST STE 1500 SHREVEPORT, LA 71101-3140",(318) 226-0700,(318) 221-6919,lperkins@nelsonenergy.com,,"401 EDWARDS ST STE 1500 SHREVEPORT, LA 71101-3140",RICHARD B. NELSON,5,,,4,Not a,Not 100% compliant
354682,WHITE TURF INC,ACTIVE,,Carrier,Intrastate Non-Hazmat,Private Property,,153897103,,02/28/2020,"2,000 (2019)","1052 WEST STREET BARRE, MA 01005",(978) 355-6777,(978) 355-4202,oconjilly@hotmail.com,,"1052 WEST STREET BARRE, MA 01005",MARK OCONNOR,1,,,1,Not a,Not 100% compliant
388138,GAR-WAL LAWN SERVICE INC,ACTIVE,,Carrier,Interstate,Private Property,,626015762,,08/06/2019,"10,000 (2016)","66 SAWYERS CROSSING RD SWANZEY, NH 03446",(603) 357-4435,,gwlawn@ne.rr.com,,"66 SAWYERS CROSSING RD SWANZEY, NH 03446",GARY W DAVIS,2,,,5,Not a,Not 100% compliant
364128,"MAC TRANSPORTATION, L.L.C.",NONE,,,,,MC257753,,,,,8116 WEST WILLIAMS ROAD PEORIA AZ 85382,(602) 566-3898,,,,,,,,,,Not a,Not 100% compliant
363606,STANDARD SHEET METAL INC,ACTIVE,,Carrier,Interstate,Private Property,,118938240,,01/21/2020,"15,000 (2019)","405 N OLIVE ST KANSAS CITY, MO 64120",(816) 221-5434,(816) 221-8022,smann@ssm-kc.vom,,"405 N OLIVE ST KANSAS CITY, MO 64120",SHAWN MANN,2,,,20,Not a,Not 100% compliant
364969,FRANKFERD FARMS FOODS INC,ACTIVE,,Carrier,Interstate,Private Property,,108903816,,01/30/2019,"150,000 (2017)","717 SAXONBURG BLVD SAXONBURG, PA 16056",(724) 352-9500,(724) 352-9510,t.lyle@frankferd.com,,"717 SAXONBURG BLVD SAXONBURG, PA 16056",T.LYLE FERDERBER BETTY FERDERBER,4,,,7,Not a,Not 100% compliant
380260,LUTHER CURTIS TEEL,NONE,CURTIS TEEL TRUCKING,,,,MC260828,,,,,"HWY. 42 WEST, RFD 4 BOX 594 TARBORO NC 27886",(919) 823-7865,,,,,,,,,,Not a,Not 100% compliant
321265,C & K INDUSTRIAL SERVICES INC,ACTIVE,,Carrier,Interstate,Private Property,,46630323,,05/26/2020,"1,875,165 (2017)","5617 SCHAAF ROAD CLEVELAND, OH 44131",(216) 642-0055,(216) 642-0059,chuck@ckindustrial.com,,"5617 SCHAAF ROAD CLEVELAND, OH 44131",ARTHUR KARAS,2029,,,215,Not a,Not 100% compliant
75525,DART TRANSIT COMPANY,AUTHORIZED FOR PROPERTY,,Carrier,Interstate,Authorized For Hire,MC114457,7791346,,05/21/2020,"177,116,834 (2019)","800 LONE OAK ROAD EAGAN, MN 55121",(651) 688-2000,(651) 683-1830,rluckow@dart.net,,"800 LONE OAK ROAD EAGAN, MN 55121",RANDY LUCKOW DAVID OREN,2051,,,"1,645",,Not 100% compliant
400989,PROBUILD COMPANY LLC,ACTIVE,PROBUILD HOLDINGS LLC A BUILDERS FIRSTSOURCE COMPANY,Carrier,Interstate,Private Property,,,,07/30/2019,"41,324,408 (2018)","7595 TECHNOLOGY WAY SUITE 500 DENVER, CO 80237",(303) 262-9744,,karri.moore@bldr.com,,"7595 TECHNOLOGY WAY SUITE 500 DENVER, CO 80237",BRENT GODWIN,2061,,,"1,958",Not a,Not 100% compliant
600382,BENNETT TRUCK TRANSPORT LLC,AUTHORIZED FOR PROPERTY,,Carrier Broker,Interstate,Authorized For Hire,MC285766,124941795,,02/07/2020,"87,350,000 (2018)","1001 INDUSTRIAL PARKWAY MCDONOUGH, GA 30253",(770) 957-1866,(470) 489-0968,freight@bennettig.com,mailbennettig.com,"1001 INDUSTRIAL PKY MCDONOUGH, GA 30253-0569",KEITH COPELAND GRANT BROOKER,2070,,,"2,070",Not a,Not 100% compliant
154237,KLLM TRANSPORT SERVICES LLC,AUTHORIZED FOR PROPERTY,,Carrier,Interstate,Authorized For Hire,MC138308,9779083,,07/23/2019,"190,885,054 (2018)","135 RIVERVIEW DRIVE JACKSON, MS 39218-4401",(800) 925-1000,(601) 933-8082,rparker@kllm.com,www.kllm.com,"135 RIVERVIEW DRIVE JACKSON, MS 39218-4401",RICKY PARKER TERRY THORNTON,2082,,,"2,178",,Not 100% compliant
116231,NPL CONSTRUCTION CO,ACTIVE,NPL,Carrier,Interstate,Private Property,,42300384,,03/05/2019,"49,942,750 (2018)","19820 N 7TH AVE STE 120 PHOENIX, AZ 85027",(623) 879-3910,(623) 582-6853,fleet@gonpl.com,www.gonpl.com,"19820 N 7TH AVE STE 120 PHOENIX, AZ 85027-2130",PAUL DAILY,2117,,,"3,225",Not a,Not 100% compliant
389496,LANDSCAPING SERVICES INC,ACTIVE,DAPONTE'S LANDSCAPING SERVICES INC,Carrier,Interstate,Private Property,,46613360,,06/12/2020,"60,116 (2020)","700 WOOD ST BRISTOL, RI 02809",(401) 253-6225,(401) 253-1260,mike@dapontes.com,,"700 WOOD ST BRISTOL, RI 02809",MICHAEL DAPONTE SERAPHIN DAPONTE,5,,,10,Not a,Not 100% compliant
774244,MASTEC NORTH AMERICA INC,ACTIVE,MASTEC,Carrier,Interstate,Private Property,,,,04/13/2020,"24,974,694 (2019)","800 S DOUGLAS RD CORAL GABLES, FL 33134",(651) 605-4085,,butch.christian@mastec.com,,"800 S DOUGLAS RD PENTHOUSE CORAL GABLES, FL 33134",BUTCH CHRISTIAN BOB APPLE,2127,,,"3,134",Not a,Not 100% compliant
74481,ROEHL TRANSPORT INC,AUTHORIZED FOR PROPERTY,,Carrier,Interstate,Authorized For Hire,MC127651,6443071,,12/09/2019,"199,216,010 (2019)","1916 E 29 STREET MARSHFIELD, WI 54449",(715) 591-3795,(800) 818-9710,john.spiros@roehl.net,,"PO BOX 750 MARSHFIELD, WI 54449",RICK ROEHL,2140,,,"2,297",,Not 100% compliant
649914,EAGLE EXPRESS LINES INC,AUTHORIZED FOR PROPERTY,EAGLE EXPRESS LINES,Carrier Broker,Interstate,Authorized For Hire U.S. Mail,MC306908,959753278,,02/09/2020,"149,252,461 (2019)","925 WEST 175TH ST HOMEWOOD, IL 60430",(708) 333-8400,(651) 925-0030,lkuhn@hoovestol.com,,"925 WEST 175TH ST HOMEWOOD, IL 60430",AARON GUNDERSON,2152,,,"2,094",Not a,Not 100% compliant
70289,CONTRACT FREIGHTERS INC,AUTHORIZED FOR PROPERTY,CFI,Carrier,Interstate,Authorized For Hire,MC119399 MC137015 FF5228,56385438,,09/23/2020,"259,042,857 (2019)","4701 E 32ND STREET JOPLIN, MO 64804",(417) 623-5229,(417) 782-4768,jeff.yarnall@cfidrive.com,www.cfidrive.com,"PO BOX 2547 JOPLIN, MO 64803",GREG ORR MICHAEL HINZ,2154,,,"2,313",,Not 100% compliant
962089,BFI WASTE SERVICES LLC,ACTIVE,REPUBLIC SERVICES OR ALLIED WASTE SERVICES OR BFI WASTE,Carrier,Interstate,Private Property,,,,01/23/2019,"66,625,000 (2018)","18500 N ALLIED WAY PHOENIX, AZ 85054",(480) 627-2359,(480) 718-4306,dot@republicservices.com,,"18500 NORTH ALLIED WAY PHOENIX, AZ 85054",JAMES OLSON,2161,,,"1,803",Not a,Not 100% compliant
338113,IRON MOUNTAIN INFORMATION MANAGEMENT SERVICES INC,"AUTHORIZED FOR PROPERTY, HHG",,Carrier,Interstate,Authorized For Hire Private Property,MC830455,784477655,,05/19/2020,"45,394,114 (2019)","1 FEDERAL STREET BOSTON, MA 02110",(617) 535-4893,(617) 275-0672,fleetmanagement@ironmountain.com,www.ironmountain.com,"1 FEDERAL STREET BOSTON, MA 02110",WILLIAM L MEANEY BARRY HYTINEN,2175,,,"2,738",,Not 100% compliant
917131,MFS FLEET INC,AUTHORIZED FOR PROPERTY,,Carrier Broker,Interstate,Authorized For Hire,MC196480,,,12/09/2019,"164,505,773 (2019)","4747 MCLANE PARKWAY TEMPLE, TX 76504",(254) 771-7424,(254) 771-7244,robert.merriam@mclaneco.com,,"PO BOX 6115 TEMPLE, TX 76503",WILLIAM G. ROSIER LAWRENCE M. PARSONS,2193,,,"4,394",Not a,Not 100% compliant
74293,NJ TRANSIT CORPORATION,AUTHORIZED FOR PASSENGER,,Carrier,Interstate,Authorized For Hire,MC3647,618026801,,12/05/2019,"94,000,000 (2018)","1 PENN PLAZA EAST NEWARK, NJ 07105",(973) 522-3685,(973) 522-3706,dsulpy@njtransit.com,,"1 PENN PLAZA EAST NEWARK, NJ 07105",DALE J SULPY,2220,,,"3,704",Not a,Not 100% compliant
76054,BRINK'S INCORPORATED,AUTHORIZED FOR PROPERTY,BRINKS,Carrier,Interstate,Authorized For Hire,MC124328,90553843,,05/31/2019,"58,803,492 (2018)","555 DIVIDEND DR COPPELL, TX 75019",(469) 549-6032,(469) 549-6200,alan.brunke@brinksinc.com,,"555 DIVIDEND DR COPPELL, TX 75019",ALAN BRUNKE RAPHAEL J. SHEMANSKI,2228,,,"2,474",Not a,Not 100% compliant
93861,THE DAVEY TREE EXPERT COMPANY,ACTIVE,DAVEY WOLF HARTNEY GRAYMONT MAIER TREE SS TREE ELIZABETH RIVER JONES BROS KERNS THE CARE OF TREES ARBORGUARD CORTESE,Carrier,Interstate,Private Property,,7903180,,02/04/2020,"25,907,780 (2019)","1500 N MANTUA STREET KENT, OH 44240",(330) 673-9515,(330) 552-2686,tim.cheever@davey.com,HTTP://WWW.DAVEY.COM,"1500 N MANTUA STREET KENT, OH 44240",PATRICK COVEY JOSEPH PAUL,2253,,,"2,685",Not a,Not 100% compliant
59076,SOUTHERN CALIFORNIA EDISON COMPANY,ACTIVE,,Carrier,Interstate,Private Property,,6098818,,06/28/2019,"50,184,000 (2018)","265 NORTH EAST END AVENUE POMONA, CA 91767",(909) 469-0352,,todd.carlson@sce.com,,"265 NORTH EAST END AVENUE POMONA, CA 91767",TODD CARLSON TOM GUNTRIP,2291,,,"2,803",Not a,Not 100% compliant
51446,AMEREN SERVICES COMPANY,ACTIVE,AMEREN AND AMEREN ILLINOIS AND AMEREN MISSOURI,Carrier Shipper,Interstate,Private Property,,966851875,,06/16/2020,"25,456,581 (2019)","1901 CHOUTEAU AVE SAINT LOUIS, MO 63103-3003",(618) 343-8122,(314) 612-2827,mwarren2@ameren.com,,"1901 CHOUTEAU AVE SAINT LOUIS, MO 63103-3003",WARNER L BAXTER MICHAEL MOEHN,2292,,,"2,561",Not a,Not 100% compliant
214695,SUBURBAN PROPANE LP,AUTHORIZED FOR PROPERTY,SUBURBAN PROPANE,Carrier Shipper Cargo Tank,Interstate,Authorized For Hire Private Property,MC262017,939241584,,05/30/2019,"43,840,000 (2018)","240 ROUTE 10 WEST WHIPPANY, NJ 07981",(717) 898-3695,(717) 898-5241,cquinlivan@suburbanpropane.com,,"240 ROUTE 10 WEST WHIPPANY, NJ 07981",MICHAEL STIVALA/KEITH ONDERDONK CATHERINE QUINLIVAN,2312,,,"1,822",Not a,Not 100% compliant
287131,"SUNDANCE TRANSPORTATION, INC.",NONE,,,,,MC196135,,,,,4159 N. BROADWAY WICHITA KS 67204,(316) 838-1414,,,,PO BOX 13025 WICHITA KS 67213,,,,,,Not a,Not 100% compliant
330983,BELLSOUTH TELECOMMUNICATIONS,ACTIVE,AT&T,Carrier,Interstate,Private Property,,,,02/13/2020,"18,410,014 (2019)","4119 BROADWAY RM 800 SAN ANTONIO, TX 78209",(210) 536-4574,(214) 446-6345,rl3960@att.com,,"4119 BROADWAY RM 800 SAN ANTONIO, TX 78209",CHRIS ALTOMARI,2350,,,"2,350",Not a,Not 100% compliant
297080,NESTLE WATERS NORTH AMERICA INC,ACTIVE,,Carrier,Interstate,Private Property,,101336568,,10/29/2018,"46,107,403 (2017)","900 LONG RIDGE ROAD BUILDING 2 STAMFORD, CT 06902-1138",(203) 629-7703,(203) 817-3196,karen.mahar@waters.nestle.com,www.nestle-watersna.com,"900 LONG RIDGE ROAD BUILDING 2 STAMFORD, CT 06902-1138",ED NOACK HENRIK JELERT,2391,,,"2,567",Not a,Not 100% compliant
324244,ALSCO INC,ACTIVE,,Carrier,Interstate,Private Property,,7939176,,01/28/2020,"38,400,000 (2019)","505 E 200 SOUTH SALT LAKE CITY, UT 84102",(877) 328-8831,(801) 478-3180,drivesafe@alsco.com,www.alsco.com,"505 E 200 SOUTH SALT LAKE CITY, UT 84102",ROBERT STEINER KEVIN K STEINER,2399,,,"3,313",Not a,Not 100% compliant
328442,KNIGHT TRENCHING & EXCAVATING INC,ACTIVE,,Carrier,Interstate,Private Property,,609853973,,02/18/2020,"40,000 (2019)","14168 SANTA FE TRAIL DRIVE LENEXA, KS 66215",(913) 599-6999,(913) 599-6686,pamk@knightexcavating.com,,"14168 SANTA FE TRAIL DRIVE LENEXA, KS 66215",PAMELA KNIGHT,6,,,3,Not a,Not 100% compliant
273539,MJM LOGISTICS INC,NONE,,,,,MC192074,,,,,336 RUSSELL WOODS DR TECUMSEH ON N8N 4L3,(519) 971-4747,(248) 479-1678,,,,,,,,,Not a,Not 100% compliant
154712,MERCER TRANSPORTATION CO INC,AUTHORIZED FOR PROPERTY,MERCER TRANSPORTATION CO,Carrier Broker,Interstate,Authorized For Hire,MC143059 FF12031,86759743,,05/01/2020,"220,789,706 (2019)","1128 W MAIN ST LOUISVILLE, KY 40203",(502) 584-2301,(502) 625-3158,ldunman@mercer-trans.com,WWW.MERCER-TRANS.COM,"P O BOX 35610 LOUISVILLE, KY 40232",LEN DUNMAN ARTHUR D CORUM II,2410,,,"2,634",,Not 100% compliant
29619,CSX TRANSPORTATION INC,AUTHORIZED FOR PROPERTY,,Carrier,Interstate,Authorized For Hire Private Property,MC86687,7941321,,09/03/2019,"12,223,447 (2018)","500 WATER ST JACKSONVILLE, FL 32202-4423",(800) 232-0144,(904) 332-7101,csx@absautoservices.com,www.csx.com,"9000 EXECUTIVE PK DR A115 KNOXVILLE, TN 37923",JIM FOOTE JESSICA BENTLEY,2454,,,"4,632",Not a,Not 100% compliant
76600,QUALITY CARRIERS INC,AUTHORIZED FOR PROPERTY,QUALITY CARRIERS,Carrier Cargo Tank Broker,Interstate,Authorized For Hire,MC127840,931121610,,05/10/2019,"303,259,000 (2018)","1208 E KENNEDY BLVD SUITE 132 TAMPA, FL 33602",(800) 282-2031,(813) 569-1439,afarmer@qualitydistribution.com,www.qualitydistribution.com,"1208 E KENNEDY BLVD SUITE 132 TAMPA, FL 33602",GARY R. ENZOR RANDY STRUTZ,2460,,,"3,858",,Not 100% compliant
132504,COMPASS GROUP USA,ACTIVE,,Carrier,Interstate,Private Property,,,,06/04/2020,"43,500,000 (2019)","2400 YORKMONT RD CHARLOTTE, NC 28273",,(980) 235-6177,lennie.glass@compass-usa.com,www.compass-usa.com,"2400 YORKMONT RD CHARLOTTE, NC 28217",ADRIAN MERIDETH LENNIE GLASS,2466,,,"2,299",Not a,Not 100% compliant
790261,URS MIDWEST INC,AUTHORIZED FOR PROPERTY,UNITED ROAD AND PILOT TRANSPORT,Carrier Broker,Interstate,Authorized For Hire,MC343084,,,01/31/2020,"159,160,000 (2019)","10701 MIDDLEBELT ROAD ROMULUS, MI 48174",(734) 947-3592,,emadison@unitedroad.com,,"10701 MIDDLEBELT ROAD ROMULUS, MI 48174",MARK ANDERSON DAVID GANN,2470,,,"2,028",Not a,Not 100% compliant
240106,MILLER PIPELINE LLC,ACTIVE,,Carrier,Interstate,Private Property UTILITY SE,,2879294,,05/11/2020,"45,568,655 (2019)","8850 CRAWFORDSVILLE RD INDIANAPOLIS, IN 46234-4331",(317) 653-5291,(317) 293-8502,ralph.miller@millerpipeline.com,www.millerpipeline.com,"PO BOX 34141 INDIANAPOLIS, IN 46234-0141",RALPH MILLER,2477,,,"3,149",Not a,Not 100% compliant
807505,BLACK HORSE CARRIERS LLC,AUTHORIZED FOR PROPERTY,,Carrier,Interstate,Authorized For Hire,MC359207,,,07/14/2020,"206,518,650 (2020)","2675 MORGANTOWN RD READING , PA 19607",(610) 775-6000,(630) 690-8882,david.schneider@blackhorsecarriers.com,www.blackhorsecarriers.com,"2675 MORGANTOWN RD READING , PA 19607",KEN LANDEGO,2490,,,"3,137",Not a,Not 100% compliant
299329,"J. BRUCE BARNES, INC.",NONE,,,,,MC300468,,,,,THE SQUARE RT 240 CROZET VA 22932,(434) 823-4391,,,,P.O. BOX 85 CROZET VA 22932,,,,,,Not a,Not 100% compliant
343850,T N K INC,AUTHORIZED FOR PROPERTY,,Carrier,Interstate,Authorized For Hire Private Property,MC417383,,,08/18/2019,"154,245 (2018)","44085 S CO RD 191 FARGO, OK 73840",(580) 698-2680,,kay_freeman14@hotmail.com,,"PO BOX 148 FARGO, OK 73840",TRACY FREEMAN MADELINE K FREEMAN,2,,,2,Not a,Not 100% compliant
380050,"JATCO, INC.",NONE,,,,,MC226655,,,,,3096 N. CLEVELAND AVENUE ROSEVILLE MN 55112,(612) 641-7399,,,,,,,,,,Not a,Not 100% compliant
306396,AVALON & TAHOE MFG INC,AUTHORIZED FOR PROPERTY,,Carrier,Interstate,Private Property,MC889139,83930446,,06/28/2019,"1,888,180 (2018)","903 MICHIGAN AVE ALMA, MI 48801-1933",(989) 463-2112,(989) 463-8226,lance@avalonpontoons.com,,"903 MICHIGAN AVE ALMA, MI 48801-1933",,27,,,21,Not a,Not 100% compliant
270150,PERFORMANCE TRANSPORTATION LLC,AUTHORIZED FOR PROPERTY,PERFORMANCE FOOD GROUP,Carrier,Interstate,Authorized For Hire,MC199118,61853552,,11/15/2019,"117,328,238 (2018)","12500 WEST CREEK PARKWAY RICHMOND, VA 23238",(804) 484-7700,,lori.johnson2@pfgc.com,,"P O BOX 29269 RICHMOND, VA 23242",DAVID FLITMAN ROBERT EVANS,2539,,,"3,524",Not a,100% COMPLIANT
155682,DS SERVICES OF AMERICA INC,ACTIVE,ALHAMBRA - BELMONT - CRYSTAL SPRINGS- CRYSTAL ROCK -DEEP ROCK- HINCKLEY - KENTWOOD - MOUNT OLYMPUS - SIERRA - SPARKLETTS,Carrier,Interstate,Private Property,,196749550,,03/11/2020,"45,497,000 (2017)","2300 WINDY RIDGE PARKWAY # 500N ATLANTA, GA 30329",(770) 937-7379,(678) 460-3618,smatovu@dsservices.com,,"2300 WINDY RIDGE PKWY # 500N ATLANTA, GA 30329",SOLOMON MATOVU JERRY HOYLE,2544,,,"2,558",Not a,Not 100% compliant
134697,HEARTLAND EXPRESS INC OF IOWA,AUTHORIZED FOR PROPERTY,HEARTLAND EXPRESS,Carrier,Interstate,Authorized For Hire,MC115554,155121166,,07/03/2019,"291,890,983 (2018)","901 NORTH KANSAS AVENUE NORTH LIBERTY, IA 52317",(319) 626-3600,(319) 626-3617,dmcglaughlin@heartlandexpress.com,www.heartlandexpress.com,"901 NORTH KANSAS AVENUE NORTH LIBERTY, IA 52317",DON MCGLAUGHLIN CHRIS STRAIN,2630,,,"2,693",,Not 100% compliant
63904,UNIFIRST CORPORATION,ACTIVE,UNICLEAN UNIFIRST,Carrier,Interstate,Private Property,,19723535,,04/30/2020,"56,320,000 (2020)","68 JONSPIN ROAD WILMINGTON, MA 01887",(978) 658-8888,(978) 657-5663,safety@unifirst.com,,"68 JONSPIN ROAD WILMINGTON, MA 01887",STEVEN SINTROS SHANE O'CONNOR,2646,,,"2,628",Not a,Not 100% compliant
420647,SOUTHERN GLAZER'S WINE AND SPIRITS LLC,AUTHORIZED FOR PROPERTY,SGWS,Carrier,Interstate,Authorized For Hire Private Property,MC882413,151665213,,01/15/2020,"67,596,609 (2019)","1600 NW 163RD STREET MIAMI, FL 33169",(954) 252-5291,,mmeyer@sgws.com,,"2900 SW 149 AVENUE SUITE 300 MIRAMAR, FL 33027",LEE F HAGER,2648,,,"2,597",,Not 100% compliant
171492,BRENT HARTLEY FARMS LLC,AUTHORIZED FOR PROPERTY,,Carrier,Interstate,Authorized For Hire Private Property,MC890903,140593005,,02/28/2019,"89,367 (2018)","17313 E REESE RD PROSSER, WA 99350",(509) 786-4030,(509) 786-4123,anita@bhartleyfarms.com,,"17313 E REESE RD PROSSER, WA 99350",BRENT HARTLEY R TROY HARYLEY,2,,,3,Not a,Not 100% compliant
738657,LOS ANGELES TRANSPORTATION,ACTIVE,LOS ANGELES COUNTY METROPOLITAN TRANSPORTATION AUTHORIT,Carrier,Intrastate Non-Hazmat,APPLYING F,,,,08/12/2003,"90,000,000 (1997)","ONE GATEWAY PLAZA LOS ANGELES, CA 90012",(213) 922-3608,,,,"ONE GATEWAY PLAZA LOS ANGELES, CA 90012",,2694,,,"7,634",Not a,Not 100% compliant
3327,TYSON FOODS INC,AUTHORIZED FOR PROPERTY,TYSON,Carrier Broker,Interstate,Authorized For Hire OFFAL,MC145655,6903702,,01/30/2020,"203,687,709 (2018)","2200 DON TYSON PARKWAY AR07689 SPRINGDALE, AR 72762-6900",(479) 290-4000,(479) 757-6728,randy.pounders@tyson.com,www.tyson.com,"PO BOX 2020 AR07689 SPRINGDALE, AR 72765-2020",READ HUDSON,2704,,,"2,914",,Not 100% compliant
778752,KEYSTONE AUTOMOTIVE INDUSTRIES INC,ACTIVE,LKQ,Carrier,Interstate,Private Property,,,,02/28/2019,"69,689,364 (2018)","5846 CROSSINGS BLVD ANTIOCH, TN 37013",,,chjfoster@lkqcorp.com,,"5846 CROSSINGS BLVD ANTIOCH, TN 37013",DOMINICK ZARCONE,2724,,,"2,371",Not a,Not 100% compliant
125550,ATLAS VAN LINES INC,"AUTHORIZED FOR PROPERTY, HHG",,Carrier Broker,Interstate,Authorized For Hire,MC79658 MC130921,7001761,,10/04/2019,"80,457,951 (2019)","1212 ST GEORGE ROAD EVANSVILLE, IN 47711",(812) 424-2222,(812) 421-7147,scoherr@atlasworldgroup.com,www.atlasworldgroup.com,"PO BOX 509 EVANSVILLE, IN 47703-0509",JAMES K. MCMURRAY BARRY SCHELLENBERG,2759,,,"2,919",Not a,Not 100% compliant
261902,CELADON TRUCKING SERVICES INC,AUTHORIZED FOR PROPERTY,,Carrier Broker,Interstate,Authorized For Hire Private Property,MC185116 FF12406,,,10/25/2019,"253,638,882 (2017)","9503 EAST 33RD STREET INDIANAPOLIS, IN 46235",(317) 972-7000,,,,"9503 EAST 33RD STREET INDIANAPOLIS, IN 46235",THOMAS BURCK CHASE WELSH,2771,,,"2,533",Not a,Not 100% compliant
99905,MICHELS CORPORATION,ACTIVE,MICHELS,Carrier Shipper,Interstate,Private Property,,5809868,,07/29/2019,"61,990,036 (2018)","817 W MAIN ST BROWNSVILLE, WI 53006",,(920) 583-3753,,www.michels.us,"P O BOX 128 BROWNSVILLE, WI 53006-0128",SEAN NICHOLSON BRIAN JOHNSON,2778,,,"2,733",Not a,Not 100% compliant
252201,LOOMIS ARMORED US LLC,AUTHORIZED FOR PROPERTY,LOOMIS OR LOOMIS INTERNATIONAL,Carrier,Interstate,Authorized For Hire,MC114896 MC229936,56370109,,01/28/2020,"71,917,041 (2019)","2500 CITY WEST BLVD SUITE 2300 HOUSTON, TX 77042",(832) 925-5288,(713) 435-6799,david.keyser@us.loomis.com,,"2500 CITY WEST BLVD SUITE 2300 HOUSTON, TX 77042",DAVID D KEYSER LARREA ARITZ,2796,,,"5,236",Not a,Not 100% compliant
357521,STANDARD IRON & WIRE WORKS INC,ACTIVE,,Carrier,Intrastate Non-Hazmat,Private Property,,874959356,,03/13/2013,"10,000 (2012)","1131 W SINCLAIR LEWIS SAUK CENTRE, MN 56378",(763) 295-8700,(763) 295-8701,,,"524 PINE STREET MONTICELLO, MN 55362",RICHARD DEMEULES JOSEPH DEMEULES,1,,,1,Not a,Not 100% compliant
87409,ANNETT HOLDINGS INC,AUTHORIZED FOR PROPERTY,TMC,Carrier,Interstate,Authorized For Hire,MC115730,155119811,,09/27/2019,"253,965,899 (2018)","6115 SW LELAND AVE DES MOINES, IA 50321",(515) 974-3585,(515) 287-2266,todd.bunting@tmctrans.com,,"PO BOX 1774 DES MOINES, IA 50306",TODD BUNTING HARROLD ANNETT,2863,,,"2,882",Not a,Not 100% compliant
213754,USA TRUCK INC,AUTHORIZED FOR PROPERTY,,Carrier Broker,Interstate,Authorized For Hire,MC161412,103658381,,05/14/2020,"201,700,000 (2020)","3200 INDUSTRIAL PARK ROAD VAN BUREN, AR 72956",(479) 471-2500,(479) 410-8012,alicia.black@usa-truck.com,,"PO BOX 449 VAN BUREN, AR 72956",JAMES REED ALLEN LOWRY,2867,,,"2,867",,Not 100% compliant
92261,AAA COOPER TRANSPORTATION,AUTHORIZED FOR PROPERTY,,Carrier Broker,Interstate,Authorized For Hire,MC55889,67112425,,02/07/2020,"192,690,115 (2019)","1751 KINSEY ROAD DOTHAN, AL 36302",(334) 793-2284,(334) 836-4261,,,"1751 KINSEY ROAD DOTHAN, AL 36302",MACK DOVE REID DOVE,2899,,,"2,869",,Not 100% compliant
339774,MHC TRUCK LEASING INC,ACTIVE,,Carrier,Interstate,Private Property RENTAL AND,,,,04/30/2019,"123,733,000 (2018)","11120 TOMAHAWK CREEK LEAWOOD, KS 66211",(816) 483-6444,(816) 841-1808,maggie.gomez@mhc.com,,"11120 TOMAHAWK CREEK LEAWOOD, KS 66211",TIMOTHY SPURGEON GINGER HARRIS,2914,,,102,Not a,Not 100% compliant
281683,BNSF RAILWAY COMPANY,ACTIVE,BNSF,Carrier,Interstate,Private Property IEP,,63624324,,01/14/2020,"37,160,000 (2019)","2650 LOU MENK DRIVE FORT WORTH, TX 76131-2830",(817) 352-1236,(785) 435-3408,silver.amos@bnsf.com,www.bnsf.com,"2500 LOU MENK DRIVE FORT WORTH, TX 76131-2828",SILVER AMOS CARL R. ICE,2934,,,"6,824",Not a,Not 100% compliant
572263,BUILDER SERVICES GROUP INC,ACTIVE,,Carrier,Interstate,Private Property,,,,02/03/2020,"60,914,000 (2019)","475 N WILLIAMSON BLVD DAYTONA BEACH, FL 32114",(386) 304-2256,,sara.wojcik@topbuild.com,,"475 N WILLIAMSON BLVD DAYTONA BEACH, FL 32114",RIP HUBBARD ROBERT BUCK,2966,,,"3,291",Not a,Not 100% compliant
313891,FIRSTFLEET INC,AUTHORIZED FOR PROPERTY,FIRSTFLEET,Carrier,Interstate,Authorized For Hire,MC193678,174266494,,01/28/2020,"218,916,209 (2018)","202 HERITAGE PK DR MURFREESBORO, TN 37129",(800) 819-0905,(615) 895-5288,dppiper@firstfleetinc.com,,"202 HERITAGE PK DR MURFREESBORO, TN 37129",DANIEL PIPER JOHN COLE,2972,,,"3,261",,Not 100% compliant
310704,FREIGHT RUNNERS EXPRESS INC,ACTIVE,,Carrier,Intrastate Non-Hazmat,Authorized For Hire,,,,03/19/2019,"65,000 (2018)","11757 35TH AVE SE BECKER, MN 55308",(763) 350-9686,,garyfre@hotmail.com,,"11757 35TH AVE SE BECKER, MN 55308",GARY COX,1,,,1,Not a,Not 100% compliant
378206,KING CRUSHER INC,ACTIVE,,Carrier,Interstate,Private Property,,194991691,,06/22/2020,"102,000 (2020)","1 QUAIL LN HUDSON, MA 01749",(978) 562-1251,,bbonner246@aol.com,,"1 QUAIL LANE HUDSON, MA 01749",PHILIP BONNER BRENDA BONNER,1,,,1,Not a,Not 100% compliant
381407,WILLIAM L WARREN,ACTIVE,WARREN METAL CO,Carrier,Interstate,Private Property,,,,05/10/2018,"40,000 (2016)","8804 RENE AVE COLLINSVILLE, IL 62234",(618) 407-0064,,,,"P O BOX 184 COLLINSVILLE, IL 62234",WILLIAM L WARREN ALLISON LOYET,1,,,1,Not a,Not 100% compliant
384840,CLARENCE C. PELLERIN,NONE,PELLERIN ENTERPRISES,,,,MC229268,,,,,7287 WEST SAMPLE ST. FRESNO CA 93722,(209) 275-3736,,,,,,,,,,Not a,Not 100% compliant
301123,MITCHELL ASSOCIATES INC,NOT AUTHORIZED,,Carrier,Intrastate Non-Hazmat,Authorized For Hire Private Property,MC203649,,,12/20/2019,50 (2019),"90 BROOKFIELD ST SOUTH WINDSOR, CT 06074",(860) 528-9500,(860) 289-0138,permits@e-s-i.com,,"90 BROOKFIELD ST SOUTH WINDSOR, CT 06074",DUSTIN MITCHELL DEAN MITCHELL,,,,1,Not a,Not 100% compliant
363298,"BENTWOOD FURNITURE, INC.",NONE,,,,,MC181253,,,,,1080 S.W. M ST. GRANTS PASS OR 97526,(503) 474-0996,,,,,,,,,,Not a,Not 100% compliant
338122,ROSES TRANSPORTATION,ACTIVE,,Carrier,Intrastate Hazmat,Authorized For Hire Private Property,,76588763,,04/16/2020,"78,964 (2019)","375 MAIN ST GLOUCESTER, MA 01930-3009",(978) 283-3334,(978) 283-3308,chris.rose@rosesoil.net,,"P O BOX 1346 GLOUCESTER, MA 01931-1346",TIMOTHY ROSE FRANK ROSE IV,2,,,2,Not a,Not 100% compliant
371732,AAA BUILDING COMPONENTS INC,ACTIVE,,Carrier,Interstate,Private Property,,56840887,,12/06/2018,"40,000 (2017)","7301 MAIN ST RALSTON, NE 68127-3913",(402) 592-2850,(402) 592-0408,,,"7301 MAIN ST RALSTON, NE 68127-3913",JOHN KRAYNESKI JR,5,,,3,Not a,Not 100% compliant
31080,VERIZON NEW YORK INC,ACTIVE,VERIZON,Carrier,Interstate,Private Property,,6988349,,03/27/2020,"18,120,000 (2019)","700 HIDDEN RIDGE MC HQW0BH50 IRVING, TX 75038",(972) 457-5716,(888) 847-6186,sonya.schroeder@verizon.com,www.verizon.com,"700 HIDDEN RIDGE - MC HQWOBH50 IRVING, TX 75038",KEVIN M SERVICE,3020,,,"4,298",Not a,Not 100% compliant
282018,FERGUSON ENTERPRISES LLC,AUTHORIZED FOR PROPERTY,,Carrier,Interstate,Authorized For Hire Private Property,FF11696 FF11919,,,06/25/2020,"93,500,000 (2018)","12500 JEFFERSON AVENUE NEWPORT NEWS, VA 23602",(757) 989-2421,,amanda.rose@ferguson.com,www.ferguson.com,"12500 JEFFERSON AVENUE NEWPORT NEWS, VA 23602",KEVIN MURPHY,3035,,,"2,850",,Not 100% compliant
511412,WESTERN EXPRESS INC,AUTHORIZED FOR PROPERTY,,Carrier,Interstate,Authorized For Hire,MC260323,928138064,,06/29/2021,"329,750,755 (2020)","7135 CENTENNIAL PLACE NASHVILLE, TN 37209",(615) 259-9920,(615) 846-4008,dpatterson@westernexp.com,www.westernexp.com,"7135 CENTENNIAL PLACE NASHVILLE, TN 37209",PAUL WIECK,3042,,,"3,042",,Not 100% compliant
89243,FERRELLGAS L P,AUTHORIZED FOR PROPERTY,,Carrier Cargo Tank,Interstate,Authorized For Hire Private Property,MC145095,816017291,,02/06/2020,"59,716,000 (2019)","ONE LIBERTY PLAZA LIBERTY, MO 64068",(816) 792-1600,(816) 792-7884,kimberlyeasley@ferrellgas.com,,"ONE LIBERTY PLAZA MD#5 LIBERTY, MO 64068",JIM FERRELL WILLIAM RUISINGER,3104,,,"2,934",Not a,Not 100% compliant
63419,SOUTHEASTERN FREIGHT LINES,AUTHORIZED FOR PROPERTY,,Carrier,Interstate,Authorized For Hire,MC111871,3793569,,07/03/2019,"226,183,687 (2018)","420 DAVEGA RD LEXINGTON, SC 29073",(800) 637-7335,(803) 939-3340,chris.reynolds@sefl.com,www.sefl.com,"PO BOX 1691 COLUMBIA, SC 29202",W.T. CASSELS TOBIN CASSELS,3143,,,"4,193",,Not 100% compliant
55787,RUAN TRANSPORT CORPORATION,AUTHORIZED FOR PROPERTY,,Carrier Broker,Interstate,Authorized For Hire,MC107496,6941371,,06/24/2020,"263,377,366 (2019)","666 GRAND AVENUE DES MOINES, IA 50309",(800) 678-3210,,tl@ruan.com,www.ruan.com,"666 GRAND AVENUE DES MOINES, IA 50309",STEVE WOOD JOHN RUAN III,3147,,,"4,084",,100% COMPLIANT
74432,MARTEN TRANSPORT LTD,AUTHORIZED FOR PROPERTY,,Carrier,Interstate,Authorized For Hire,MC103798 MC139853,,,02/18/2020,"331,713,175 (2019)","129 MARTEN STREET MONDOVI, WI 54755",(715) 926-4216,(800) 395-2026,lori.ott@marten.com,www.marten.com,"129 MARTEN STREET MONDOVI, WI 54755",TIMOTHY KOHL,3156,,,"3,100",,Not 100% compliant
191496,CARDINAL LOGISTICS MANAGEMENT CORPORATION,"AUTHORIZED FOR PROPERTY, HHG",,Carrier Broker,Interstate,Authorized For Hire,MC154105,13478482,,06/10/2019,"222,960,000 (2018)","5333 DAVIDSON HIGHWAY CONCORD, NC 28027",(704) 786-6125,(704) 782-7406,pdaugherty@cardlog.com,www.cardlog.com,"PO BOX 1389 CONCORD, NC 28026",ROY SZYMKOWICZ KIMMY WHITTEN,3174,,,"3,345",,Not 100% compliant
385711,R E SPARKS CONSTRUCTION CO INC,ACTIVE,,Carrier,Intrastate Non-Hazmat,Private Property,,150941946,,02/04/2003,"30,000 (2002)","2555 N LIBERTY ST INDEPENDENCE, MO 64050-1317",(816) 252-9500,(816) 252-9535,,,"PO BOX 240 INDEPENDENCE, MO 64051-0240",,4,,,3,Not a,Not 100% compliant
373293,J & L DRYWALL SUPPLIES INC,ACTIVE,,Carrier Shipper,Interstate,Private Property,,63671440,,05/19/2020,"37,754 (2019)","5002 LAKE AVE SAINT JOSEPH, MO 64504-1119",(816) 238-2241,(816) 238-9553,jldrywall@stjoelive.com,,"P O BOX 4205 SAINT JOSEPH, MO 64504-0205",JEFFREY D. COLLINS NICOLE GRIFFITH,8,,,6,Not a,Not 100% compliant
352475,PAR ELECTRICAL CONTRACTORS INC,ACTIVE,,Carrier,Interstate,Private Property,,7857451,,09/20/2019,"26,859,746 (2018)","4770 N BELLVIEW AVENUE - SUITE 300 KANSAS CITY, MO 64116-2188",(816) 691-4204,(816) 691-4246,bmosier@parelectric.com,parelectric.com/,"4770 N BELLVIEW AVENUE - SUITE 300 KANSAS CITY, MO 64116-2188",GREG DOEDEN DAN GOVIN,3307,,,"2,250",Not a,Not 100% compliant
931445,CHARTER COMMUNICATIONS LLC,ACTIVE,SPECTRUM,Carrier,Interstate,Private Property,,,,05/15/2020,"51,035,299 (2020)","12405 POWERSCOURT DR ST LOUIS, MO 63131",(314) 543-6613,(636) 207-7562,doug.schneider@chartercom.com,,"6399 S FIDDLERSGREEN CIR 6TH F GREENWOOD VILLAGE, CO 80111",MIKE REID,3418,,,"3,418",Not a,Not 100% compliant
543047,NESCO LLC,AUTHORIZED FOR PROPERTY,NESCO RENTALS,Carrier,Interstate,Authorized For Hire Private Property LEASING CO,MC388585,155131477,,05/05/2020,"30,886,698 (2019)","3112 EAST STATE RD 124 BLUFFTON, IN 46714",(260) 824-6340,(260) 824-7085,rebekah.ashley@nescorentals.com,nescorentals.com,"3112 EAST STATE RD 124 BLUFFTON, IN 46714",LEE JACOBSON KEVIN KAPELKE,3423,,,43,Not a,Not 100% compliant
180743,CLEAN HARBORS ENVIRONMENTAL SERVICES INC,AUTHORIZED FOR PROPERTY,,Carrier Shipper Cargo Tank,Interstate,Authorized For Hire Private Property,MC152120,157793639,,03/12/2020,"91,636,742 (2019)","42 LONGWATER DRIVE NORWELL, MA 02061",(781) 792-5760,(781) 792-1006,thompson.paul@cleanharbors.com,,"PO BOX 9149 NORWELL, MA 02061",ALAN S MCKIM,3448,,,"2,180",Not a,Not 100% compliant
108029,CYGNUS HOME SERVICE LLC,ACTIVE,SCHWAN'S HOME SERVICE,Carrier,Interstate,Private Property,,22865398,,03/19/2019,"85,250,835 (2018)","115 WEST COLLEGE DRIVE MARSHALL, MN 56258-1747",(507) 532-3274,(507) 537-8442,colleen.thompson@schwans.com,,"115 WEST COLLEGE DRIVE MARSHALL, MN 56258-1747",JOSEPH M KIRBY JOHN L CONNELL,3580,,,"3,093",Not a,Not 100% compliant
165182,PIKE ELECTRIC LLC,ACTIVE,,Carrier,Interstate,Private Property,,3885514,,02/18/2020,"55,853,872 (2019)","100 PIKE WAY MT AIRY, NC 27030",,(336) 719-4545,gbush@pike.com,www.pike.com,"P O BOX 868 MT AIRY, NC 27030",ERIC PIKE,3591,,,"4,531",Not a,Not 100% compliant
268015,PENSKE LOGISTICS LLC,AUTHORIZED FOR PROPERTY,PENSKE LOGISTICS,Carrier Broker,Interstate,Authorized For Hire,MC143308,118202423,,05/23/2019,"260,113,972 (2018)","2675 MORGANTOWN ROAD READING , PA 19607",(610) 775-6000,(610) 775-8111,ryan.bass@penske.com,www.penske.com,"2675 MORGANTOWN ROAD READING , PA 19607",SCOTT ZUIDEMA JASON HERR,3612,,,"5,006",,Not 100% compliant
53433,UNION PACIFIC RAILROAD COMPANY,ACTIVE,UNION PACIFIC,Carrier,Interstate,Private Property IEP,,6991590,,02/14/2019,"56,725,649 (2018)","1400 DOUGLAS ST STOP 1020 OMAHA, NE 68179-1020",(402) 544-6014,(402) 501-2965,cathomps@up.com,,"1400 DOUGLAS ST STOP 0910 OMAHA, NE 68179-1020",LANCE FRITZ TOM LISCHER,3629,,,"8,816",Not a,Not 100% compliant
801828,ESTENSON LOGISTICS LLC,AUTHORIZED FOR PROPERTY,HUB GROUP,Carrier Broker,Interstate,Authorized For Hire,MC357193,,,03/23/2020,"89,696,492 (2019)","560 W BROWN RD SUITE 3001 MESA, AZ 85201-3225",(480) 940-8800,(480) 940-8802,mbenefield@hubgroup.com,,"560 W BROWN RD SUITE 3001 MESA, AZ 85201-3225",LUKE SIMENDINGER,3639,,,"3,900",Not a,Not 100% compliant
332295,AIM LEASING COMPANY,ACTIVE,AIM NATIONALEASE,Carrier,Interstate,Private Property,,71130942,,10/24/2019,"84,307,154 (2018)","1500 TRUMBULL ROAD GIRARD, OH 44420-3453",(330) 759-0438,(330) 759-5525,,,"1500 TRUMBULL ROAD GIRARD, OH 44420-3453",THOMAS FLEMING,3700,,,386,Not a,Not 100% compliant
661173,CENTRAL TRANSPORT LLC,AUTHORIZED FOR PROPERTY,CENTRAL TRANSPORT,Carrier Shipper Broker,Interstate,Authorized For Hire,MC302382,,,12/30/2019,"220,058,108 (2019)","12225 STEPHENS ROAD WARREN, MI 48089",(586) 939-7000,(586) 467-0106,bchapman@centraltransport.com,www.centraltransport.com,"12225 STEPHENS ROAD WARREN, MI 48089",BILL CHAPMAN KEVIN KALCZYNSKI,3729,,,"4,177",,Not 100% compliant
251000,AMERICAN BUILDERS & CONTRACTORS SUPPLY CO INC,ACTIVE,ABC SUPPLY CO INC,Carrier Shipper,Interstate,Private Property,,52690047,,01/30/2020,"70,318,131 (2019)","ONE ABC PARKWAY BELOIT, WI 53511-4466",(608) 362-7777,(608) 363-0273,kevin.manning@abcsupply.com,www.abcsupply.com,"P O BOX 838 BELOIT, WI 53512-0838",KEITH ROZOLIS MIKE JOST,3807,,,"3,968",Not a,Not 100% compliant
97235,LOWE'S HOME CENTERS LLC,ACTIVE,LOWE'S,Carrier,Interstate,Private Property,,6997142,,01/17/2020,"88,605,287 (2018)","1000 LOWES BLVD MOORESVILLE, NC 28117",(704) 757-4334,(877) 665-5831,delivery@lowes.com,,"1000 LOWE'S BLVD MOORESVILLE, NC 28117",KELVIN DEDNER DONALD FRIESON,3833,,,"8,038",Not a,Not 100% compliant
428823,KNIGHT TRANSPORTATION INC,AUTHORIZED FOR PROPERTY,,Carrier,Interstate,Authorized For Hire,MC227271,615956992,,03/31/2020,"435,000,000 (2020)","20002 NORTH 19TH AVENUE PHOENIX, AZ 85027",(602) 269-2000,(602) 269-2000,,,"20002 NORTH 19TH AVENUE PHOENIX, AZ 85027",DAVID JACKSON,3848,,,"3,848",,Not 100% compliant
221707,ARAMARK UNIFORM AND CAREER APPAREL LLC,ACTIVE,ARAMARK,Carrier,Interstate,Private Property,,70120696,,03/03/2019,"84,000,000 (2018)","115 NORTH FIRST STREET BURBANK, CA 91502",(479) 616-7919,(818) 953-4580,iseler-megan@aramark.com,,"115 NORTH FIRST STREET BURBANK, CA 91502",BRAD DRUMMOND MEGAN ISELER,3876,,,"4,142",Not a,Not 100% compliant
181069,SALEM LEASING CORPORATION,ACTIVE,SALEM NATIONALEASE,Carrier,Interstate,Private Property,,24893976,,02/06/2020,"1,985,000 (2019)","175 CHARLOIS BLVD WINSTON SALEM, NC 27114",(336) 768-6800,(336) 760-9644,jerry.waddell@salemcorp.com,,"PO BOX 24788 WINSTON SALEM, NC 27114-4788",JERRY WADDELL DENNIS GIFF,3943,,,13,Not a,Not 100% compliant
397962,STERICYCLE INC,ACTIVE,,Carrier,Interstate,Private Property,,363596297,,02/14/2020,"78,037,278 (2019)","2355 WAUKEGAN RD BANNOCKBURN, IL 60015",,(866) 562-9384,jhlaka@stericycle.com,www.stericycle.com,"2355 WAUKEGAN RD BANNOCKBURN, IL 60015",CINDY MILLER MATT KROL,3968,,,"4,555",Not a,Not 100% compliant
374669,WILLIAM HENRY BARBOUR,NONE,,,,,MC225193,,,,,RT. 1 BOX 547 COATS NC 27521,(919) 897-6264,,,,,,,,,,Not a,Not 100% compliant
971464,BIMBO BAKERIES USA INC,AUTHORIZED FOR PROPERTY,,Carrier,Interstate,Authorized For Hire Private Property,MC57556,929249613,,04/24/2020,"69,460,000 (2018)","255 BUSINESS CENTER DRIVE HORSHAM, PA 19044",(847) 292-7603,,tom.niemiec@grupobimbo.com,,"8550 W BRYN MAHR AVE STE 1000 CHICAGO, IL 60631",FRED PENNY LEE FALK,3989,,,"4,780",Not a,Not 100% compliant
328765,RUSSELL LEE FLOOR,ACTIVE,,Carrier,Intrastate Non-Hazmat,Private Property,,4400628,,08/19/2014,46 (2013),"915 31ST AVE TUSCALOOSA, AL 35401",(205) 345-1735,(205) 349-3567,wyoung@rslee.com,,"P O BOX 20166 TUSCALOOSA, AL 35402-0166",KENNETH W LEE DOYLE E PITTS,1,,,2,Not a,Not 100% compliant
336645,DEWAINE H. RICE,NONE,D. H. RICE TRUCKING,,,,MC302144,,,,,250 N EVANI BENSON AZ 85602,(520) 586-2544,,,,P O BOX 1017 BENSON AZ 85602,,,,,,Not a,Not 100% compliant
367469,TECON SERVICES INC,ACTIVE,,Carrier,Interstate,Private Property,,29173358,,06/02/2020,"5,000 (2019)","515 GARDEN OAKS BLVD HOUSTON, TX 77018-5505",(713) 691-2700,(713) 691-5333,choward@teconservices.com,,"P O BOX 10158 HOUSTON, TX 77206-0158",CURTIS A FORD CHERYL HOWARD,1,,,1,Not a,Not 100% compliant
31386,BEACON SALES ACQUISITION INC,ACTIVE,,Carrier,Interstate,Private Property,,62186630,,06/05/2020,"110,810,000 (2019)","505 HUNTMAR PARK DRIVE HERNDON, VA 20170",,(571) 589-0154,ddean@becn.com,www.beaconsales.com/,"505 HUNTMAR PARK DRIVE HERNDON, VA 20170",JULIAN G. FRANCIS FRANK LONEGRO,4029,,,"2,192",,Not 100% compliant
390196,SIGNWORKS INC F K A NEON PRODUCTS CO INC,ACTIVE,,Carrier,Interstate,Private Property,,7258676,,06/03/2019,"30,000 (2016)","4713 F STREET OMAHA, NE 68117",(402) 346-5447,(402) 346-9250,mikaela@signworksomaha.com,,"4713 F STREET OMAHA, NE 68117",MIKAELA LAYSON GABRIELLE RYAN,2,,,7,Not a,Not 100% compliant
362019,SAM T CARTER OIL CO INC,ACTIVE,CARTER OIL CO,Carrier,Interstate,Private Property,,34108035,,02/18/2020,"13,567 (2016)","604 E 2ND ST SHEFFIELD, AL 35660-0487",,(256) 383-6081,acbutler@hiwaay.net,,"P O BOX 487 SHEFFIELD, AL 35660-0487",ANN CARTER BUTLER JOHN CARTER,6,,,6,Not a,Not 100% compliant
384708,"SUNNY VALE FARM TRANSPORT, INC.",NONE,,,,,MC252813,,,,,PO BOX 26 TYLER HILL PA 18469,(717) 224-4020,,,,,,,,,,Not a,Not 100% compliant
358597,US FOODS INC,AUTHORIZED FOR PROPERTY,US FOODS,Carrier,Interstate,Authorized For Hire Private Property,MC221931,795140433,,07/02/2019,"162,776,364 (2018)","6133 N RIVER ROAD 9TH FLOOR ROSEMONT, IL 60018",(847) 720-8000,,james.gustin@usfoods.com,www.usfoods.com,"6133 N RIVER ROAD 9TH FLOOR ROSEMONT, IL 60018",DARIO SKOCIR JERRY GREINER,4072,,,"4,185",Not a,Not 100% compliant
86873,HELENA AGRI-ENTERPRISES LLC,AUTHORIZED FOR PROPERTY,HELENA CHEMICAL COMPANY,Carrier Shipper,Interstate,Authorized For Hire Private Property,MC246952,7036759,,03/30/2020,"70,005,199 (2019)","225 SCHILLING BLVD SUITE 300 COLLIERVILLE, TN 38017",(901) 761-0050,(901) 821-9122,roarkr@helenaagri.com,www.helenaagri.com,"225 SCHILLING BLVD SUITE 300 COLLIERVILLE, TN 38017",MICHAEL W. MCCARTY DAVID W. HAWKINS,4075,,,"2,680",Not a,Not 100% compliant
390067,HODGES FARM EQUIPMENT INC,ACTIVE,,Carrier,Intrastate Non-Hazmat,Private Property,,68813633,,09/22/2014,"90,000 (2013)","1280 RAY RD FENTON, MI 48430-9774",(810) 629-6481,(810) 629-6484,hfehodgesfarm@aol.com,,"1280 RAY RD FENTON, MI 48430-9774",RICHARD D HODGES,3,,,3,Not a,Not 100% compliant
82866,ABF FREIGHT SYSTEM INC,AUTHORIZED FOR PROPERTY,,Carrier Broker,Interstate,Authorized For Hire,MC29910,6902977,,06/11/2020,"319,325,649 (2019)","3801 OLD GREENWOOD ROAD FORT SMITH, AR 72903",(800) 755-6486,(479) 785-6221,harnold@abf.com,www.freight.abf.com,"3801 OLD GREENWOOD ROAD FORT SMITH, AR 72903",JOSHUA LOVAN TIM THORNE,4118,,,"6,858",,Not 100% compliant
94646,DUKE ENERGY BUSINESS SERVICES LLC,ACTIVE,,Carrier,Interstate,Private Property,,,,06/11/2020,"29,192,458 (2017)","526 S CHURCH ST CHARLOTTE, NC 28202-1006",(980) 373-5132,,denise.kennedy@duke-energy.com,,"526 S CHURCH ST CHARLOTTE, NC 28202-1006",DENISE KENNEDY,4205,,,"4,998",Not a,Not 100% compliant
75806,USF HOLLAND LLC,AUTHORIZED FOR PROPERTY,HOLLAND,Carrier,Interstate,Authorized For Hire,MC59206 FF7239,7773724,,06/16/2020,"272,044,000 (2019)","700 S WAVERLY HOLLAND, MI 49423",(616) 395-5000,,robert.mann@usfc.com,,"700 S WAVERLY HOLLAND, MI 49423",TAMARA JALVING TJ O'CONNOR,4231,,,"5,867",Not a,Not 100% compliant
77949,UNITED VAN LINES LLC,"AUTHORIZED FOR PROPERTY, HHG",UNITED VAN LINES,Carrier Freight Forwarder Broker,Interstate,Authorized For Hire,MC67234 FF9300,364404293,,03/30/2020,"111,446,000 (2019)","1 UNITED DRIVE FENTON, MO 63026-2535",(636) 305-5000,(636) 305-4682,dave_pile@unigroupinc.com,www.unigroupinc.com,"1 UNITED DRIVE FENTON, MO 63026-2535",SCOTT A. KLUESNER,4247,,,"4,235",,Not 100% compliant
389515,"SCHULZ TRANSFER, INC.",NONE,,,,,MC193705,,,,,3656 MARTHA LANE RED WING MN 55066,(612) 388-7251,,,,,,,,,,Not a,Not 100% compliant
38111,EVANS DELIVERY COMPANY INC,AUTHORIZED FOR PROPERTY,,Carrier Broker,Interstate,Authorized For Hire,MC57591,8781833,,01/10/2020,"366,435,000 (2019)","100-110 W COLUMBIA ST SCHUYLKILL HAVEN, PA 17972",(570) 385-9048,(570) 385-5970,,www.evansdelivery.com,"P O BOX 268 POTTSVILLE, PA 17901",MATTHEW J BATES ESQ DEBORAH RAYMOND,4311,,,"4,290",Not a,Not 100% compliant
387384,KEITH CARLSON TRUCKING INC,NOT AUTHORIZED,,Carrier,Interstate,Authorized For Hire,MC232495,,,01/18/2021,"6,500,000 (2020)","19179 385TH STREET GOODHUE, MN 55027",(651) 923-4822,,beth@keithcarlsontrucking.com,,"19179 385TH STREET GOODHUE, MN 55027",KEITH CARLSON LEE ANN CARLSON,46,,,46,Not a,Not 100% compliant
28406,C R ENGLAND INC,AUTHORIZED FOR PROPERTY,,Carrier Broker,Interstate,Authorized For Hire,MC124679,9942898,,09/20/2019,"522,055,642 (2018)","4701 W 2100 S SALT LAKE CITY, UT 84120",(801) 972-2712,,dustin.england@crengland.com,www.crengland.com,"POB 27728 SALT LAKE CITY, UT 84127",DUSTIN ENGLAND,4362,,,"7,043",,Not 100% compliant
253896,SCHLUMBERGER TECHNOLOGY CORPORATION,ACTIVE,SCHLUMBERGER,Carrier Shipper,Interstate,Private Property,,5926100,,06/06/2019,"40,720,218 (2018)","300 SCHLUMBERGER DR SUGAR LAND, TX 77478",(281) 285-8500,,melton9@slb.com,www.slb.com/,"300 SCHLUMBERGER DR SUGAR LAND, TX 77478",ALLAN WAYNE MELTON,4411,,,"1,663",Not a,Not 100% compliant
333354,LINCOLN TRUCK REPAIR INC.,NONE,,,,,MC247114,,,,,8000 FLETCHER AVENUE LINCOLN NE 68507,(402) 435-2736,,,,PO BOX 29663 LINCOLN NE 68529,,,,,,Not a,Not 100% compliant
374382,CLYDE E. & ANNE RICHARDS,NONE,C & A RICHARDS TRUCKING,,,,MC243841,,,,,"1525 E BEACH BLVD., APT. 221 PASS CHRISTIAN MS 39571",(228) 326-0041,,,,,,,,,,Not a,Not 100% compliant
384922,ALLEN CONSTRUCTION COMPANY; L.C.,NONE,,,,,MC324035,,,,,"HCR 3, BOX 59 SHAMROCK TX 79079",,,,,,,,,,,Not a,Not 100% compliant
280968,"TRANSPORT COMMERCE, INC.",NONE,,,,,MC183680,,,,,210 WEST PARK AVENUE OKLAHOMA CITY OK 73102,(416) 746-8226,,,,APT. 203 - 3000 BATHURST ST. TORONTO ON M6B 3B4,,,,,,Not a,Not 100% compliant
216939,LANDSTAR INWAY INC,AUTHORIZED FOR PROPERTY,,Carrier,Interstate,Authorized For Hire,MC161864,55585517,,01/25/2022,"385,826,178 (2021)","13410 SUTTON PARK DRIVE SOUTH JACKSONVILLE, FL 32224-5270",(800) 872-9400,,mcobb@landstar.com,www.landstar.com,"13410 SUTTON PARK DRIVE SOUTH JACKSONVILLE, FL 32224-5270",JOE BEACOM MIKE COBB,4778,,,"3,883",Not a,Not 100% compliant
289689,LONNIE L SPONAUGLE,AUTHORIZED FOR PROPERTY,SPONAUGLE TRUCKING,Carrier,Interstate,Authorized For Hire,MC185586,,,02/19/2020,"120,000 (2017)","2298 SENECA TRAIL BEVERLY, WV 26253",(304) 338-2737,(304) 338-0856,esponaugle@cebridge.net,,"2298 SENECA TRAIL BEVERLY, WV 26253",EVADALE S SPONAUGLE,1,,,1,Not a,Not 100% compliant
291443,TY MORGAN,NONE,TY MORGAN TRUCKING,,,,MC186039,,,,,4251 GREENVILLE ROAD LA GRANGE GA 30240,(706) 882-1041,,,,P. O. BOX 343 LAGRANGE GA 30241,,,,,,Not a,Not 100% compliant
313788,CENTRAL ARKANSAS PETROLEUM TRANSPORT,AUTHORIZED FOR PROPERTY,,Carrier,Interstate,Authorized For Hire,MC254764,53753976,,08/31/2018,"2,285,043 (2015)","2666 OLIVER LANCASTER BLVD MALVERN, AR 72104-9200",(501) 332-3683,(501) 337-1992,keith@centralarkansaspertoleum.com,,"PO BOX 580 MALVERN, AR 72104",KEITH DAVIS KIMBALL DAVIS,19,,,41,Not a,Not 100% compliant
325217,ACE IHM ENTERPRISES INC,NONE,,,,,MC806204,,,,,295 STATE RD 35 HAZEL GREEN WI 53811,(608) 748-4386,,,,,,,,,,Not a,Not 100% compliant
333238,DWYER INSTRUMENT INC,ACTIVE,,Carrier,Intrastate Non-Hazmat,Private Property,,5081237,,08/30/2019,"53,331 (2018)","102 INDIANA HWY 212 MICHIGAN CITY, IN 46360-1956",(219) 879-8868,(219) 872-9057,,,"P O BOX 373 MICHIGAN CITY, IN 46361-0373",STEPHEN S CLARK MICHAEL S BURNS,3,,,4,Not a,Not 100% compliant
337467,BILL AMAREL TRUCKING INC,AUTHORIZED FOR PROPERTY,,Carrier,Interstate,Authorized For Hire,MC214720,39988688,,02/06/2020,"180,000 (2019)","2260 OSWALD RD YUBA CITY, CA 95993",(530) 673-1108,,ar@billamareltrucking.com,,"2260 OSWALD RD YUBA CITY, CA 95993",DARYL AMAREL CINDY AMAREL,3,,,2,Not a,Not 100% compliant
346404,SOUTHERN CROSS CORP,AUTHORIZED FOR PROPERTY,,Carrier Broker,Interstate,Authorized For Hire,MC217508,879419463,,06/17/2020,"334,129 (2019)","1881 W LEE RD OTHELLO, WA 99344",(509) 488-5242,(509) 488-6448,scc@cbnn.net,,"PO BOX 2876 OTHELLO, WA 99344",MICAH GEARHEART TOM GEARHEART,5,,,5,Not a,Not 100% compliant
360268,DAVID H GALER TRUCKING INC,NOT AUTHORIZED,,Carrier,Interstate,Authorized For Hire Private Property,MC789235,,,05/18/2020,"482,239 (2015)","68 BROUSE ROAD MIFFLINBURG, PA 17844",(570) 966-9225,,galercamp404@gmail.com,,"68 BROUSE ROAD MIFFLINBURG, PA 17844",DAVID H GALER,10,,,8,Not a,Not 100% compliant
383595,PATRICK H. GRIMES,NONE,GRIMES TRANSPORT,,,,MC228283,,,,,4506 N 83RD AVENUE PHOENIX AZ 85033,(602) 848-6660,,,,,,,,,,Not a,Not 100% compliant
389405,BAKER BILL JR,ACTIVE,,Carrier,Intrastate Non-Hazmat,Private Property,,,,07/12/2014,,"1180 TEMPERENCE ROAD TEMPERANCE, MI 48182",(734) 317-7003,,,,"1180 TEMPERENCE ROAD TEMPERANCE, MI 48182",BAKER BILL JR,1,,,1,Not a,Not 100% compliant
372195,JAMES GREGOIRE,AUTHORIZED FOR PROPERTY,GREGOIRE TRUCKING,Carrier,Interstate,Authorized For Hire,MC224676,,,05/21/2019,"71,080 (2018)","1710 NORTH 7TH STREET GRAND FORKS, ND 58203",(218) 791-8944,,manngregoire@gmail.com,,"13340 BUTTERFLY PATH ROSEMOUNT, MN 55068",JAMES GREGOIRE,1,,,1,Not a,Not 100% compliant
500579,SUNBELT RENTALS,ACTIVE,,Carrier,Interstate,Private Property,,,,03/10/2020,"186,667,099 (2019)","2341 DEERFIELD DR FORT MILL, SC 29715",(803) 578-5227,,badkins@sunbeltrentals.com,,"2341 DEERFIELD DR FORT MILL, SC 29715",BRENDAN HORGAN ANTHONY MILLER,5054,,,"3,279",Not a,Not 100% compliant
306482,NEW YORK CITY TRANSIT,AUTHORIZED FOR PASSENGER,,Carrier,Interstate,Authorized For Hire State Government,MC206005,9702853,,08/22/2019,"154,611,689 (2018)","1500 LINDEN BOULEVARD BROOKLYN, NY 11212",(718) 927-7877,,frank.annicaro@nyct.com,,"1500 LINDEN BOULEVARD BROOKLYN, NY 11212",FRANK ANNICARO CRAIG CIPRIANO,5115,,,"21,811",Not a,Not 100% compliant
299712,AIRGAS USA LLC,AUTHORIZED FOR PROPERTY,,Carrier Shipper Cargo Tank,Interstate,Authorized For Hire Private Property,MC767770,78301808,,01/16/2020,"161,581,798 (2019)","31 N PEORIA AVENUE TULSA, OK 74120",(918) 295-6015,(866) 237-1495,john.anderson@airgas.com,,"31 N PEORIA AVENUE TULSA, OK 74120",ANDREW CICHOCKI JAY WORLEY,5230,,,"5,639",Not a,Not 100% compliant
298533,"DAVID EUGENE WIKOFF, SR.",NONE,MONARCH NATIONAL MOVERS,,,,MC201589,,,,,7630 W 54TH AV ARVADA CO 80002,(303) 421-0952,,,,P.O. BOX 1394 ARVADA CO 80001,,,,,,Not a,Not 100% compliant
36684,AVERITT EXPRESS INC,AUTHORIZED,AVERITT,Carrier Freight Forwarder,Interstate,Authorized For Hire,MC121600 MC843369 FF12114,56492606,,02/28/2020,"393,462,952 (2019)","1415 NEAL STREET COOKEVILLE, TN 38502-3166",(931) 526-3306,(931) 520-5699,jwalton@averittexpress.com,www.averittexpress.com,"P O BOX 3166 COOKEVILLE, TN 38502-3166",JOHN WALTON,5434,,,"6,274",,Not 100% compliant
73705,CRETE CARRIER CORPORATION,AUTHORIZED FOR PROPERTY,CRETE CARRIER CORP SHAFFER TRUCKING,Carrier Broker,Interstate,Authorized For Hire,MC126118,7296403,,05/19/2020,"615,650,000 (2019)","400 NW 56TH STREET LINCOLN, NE 68528",(402) 475-9521,,chilkemann@cretecarrier.com,,"400 NW 56TH STREET LINCOLN, NE 68528",CHRISTOPHER HILKEMANN TIMOTHY ASCHOFF,5478,,,"5,250",,Not 100% compliant
362924,DUANE H. SANFORD,NONE,SANFORD TRUCKING,,,,MC342573,,,,,18346 GUAVA ST SW ROCHESTER WA 98579,(360) 481-4353,(360) 858-7305,,,,,,,,,Not a,Not 100% compliant
373551,HOLDER EXCAVATION INC,ACTIVE,,Carrier,Interstate,Private Property,,,,11/05/2018,"5,149 (2017)","394 JOHNSTON ROAD SUMMERVILLE, GA 30747",(540) 295-6864,(706) 859-8091,richieholder@gmail.com,,"394 JOHNSTON ROAD SUMMERVILLE, GA 30747",RICHARD J HOLDER CYNTHIA Y HOLDER,2,,,1,Not a,Not 100% compliant
353973,SWEETCO ENTERPRISES INC.,NONE,,,,,MC212960,,,,,11481 OLD BRIGHTON ROAD HENDERSON CO 80640,(303) 288-0655,,,,,,,,,,Not a,Not 100% compliant
333967,GOTHAM CORRUGATED CONTAINER CO INC,ACTIVE,,Carrier,Interstate,Private Property,,1313238,,09/13/2018,"40,000 (2009)","82 HENRY STREET SECAUCUS, NJ 07094",(201) 305-8044,(201) 305-8058,,,"82 HENRY STREET SECAUCUS, NJ 07094",STEPHEN PLOTKIN RICHARD PLOTKIN,2,,,2,Not a,Not 100% compliant
899748,UNITED RENTALS NORTH AMERICA INC,AUTHORIZED FOR PROPERTY,UNITED RENTALS,Carrier,Interstate,Authorized For Hire Private Property,MC415505,,,05/17/2019,"212,458,290 (2018)","3120 SPUR 482 IRVING, TX 75062",(209) 324-7760,(209) 593-3087,dgregory@ur.com,www.ur.com,"PO BOX 4366 MODESTO, CA 95352",MATTHEW J. FLANNERY JESSICA T. GRAZIANO,5766,,,"5,135",Not a,Not 100% compliant
165420,RYDER INTEGRATED LOGISTICS INC,AUTHORIZED FOR PROPERTY,RYDER,Carrier Broker,Interstate,Authorized For Hire,MC140902,151201919,,03/05/2019,"561,944,446 (2018)","11690 NW 105 STREET MIAMI, FL 33178-1103",(305) 500-3556,(305) 500-3541,jfinley@ryder.com,,"11690 NW 105 STREET MIAMI, FL 33178-1103",JAMES FINLAY TRANSPORTATION MANAGEMENT 800-392-3736,5821,,,"9,765",Not a,Not 100% compliant
63391,GREENWOOD MOTOR LINES INC,AUTHORIZED FOR PROPERTY,R L CARRIERS,Carrier,Interstate,Authorized For Hire,MC99074,155931017,,02/18/2020,"351,942,728 (2019)","600 GILLAM ROAD WILMINGTON, OH 45177",(937) 382-1494,(937) 382-2677,gkrisa@rlcarriers.com,,"PO BOX 271 WILMINGTON, OH 45177",GERALD A KRISA ROBERT ZIMMERMAN,5951,,,"6,765",Not a,Not 100% compliant
172598,R & L TRANSFER INC,AUTHORIZED FOR PROPERTY,,Carrier,Interstate,Authorized For Hire,MC146892,44574572,,02/18/2020,1 (2019),"600 GILLAM RD WILMINGTON, OH 45177",(937) 382-1494,(937) 382-2677,gkrisa@rlcarriers.com,,"P O BOX 271 WILMINGTON, OH 45177",ROBY ROBERTS ROBERT ZIMMERMAN,5951,,,1,Not a,Not 100% compliant
349647,ARNOLD F. MAJESKI,NONE,MAJESKI ALTERNATE CARRIERS,,,,MC204587,,,,,4361 BISHOP ROAD PROPHETSTOWN IL 61277,(815) 537-5377,,,,,,,,,,Not a,Not 100% compliant
387310,NORBY DISTRIBUTING CO,AUTHORIZED FOR PROPERTY,,Carrier,Interstate,Authorized For Hire Private Property,MC659784,161925375,,10/10/2019,"58,000 (2018)","111 20 TH AVE SW INDEPENDENCE, IA 50644",(319) 334-3860,(319) 334-3861,gwnorby@norbysfarmfleet.com,www.norbysfarmfleet.com,"5700 SARATOGA RD DUBUQUE, IA 52002-2118",GREG NORBY PAULA NORBY,2,,,2,Not a,Not 100% compliant
29124,SAIA MOTOR FREIGHT LINE LLC,AUTHORIZED FOR PROPERTY,SAIA LTL FREIGHT,Carrier Broker,Interstate,Authorized For Hire,MC87511,2781342,,04/27/2020,"350,740,000 (2019)","11465 JOHNS CREEK PKWY STE 400 JOHNS CREEK, GA 30097",(770) 232-5067,(770) 232-4066,kstaver@saia.com,,"11465 JOHNS CREEK PKWY STE 400 JOHNS CREEK, GA 30097",FRITZ HOLZGREFE PAUL PECK,6011,,,"5,523",,Not 100% compliant
888671,CINTAS CORPORATION NO 2,ACTIVE,CINTAS,Carrier Shipper,Interstate,Private Property,,,,01/29/2019,"91,970,000 (2018)","6800 CINTAS BLVD MASON, OH 45040",,(877) 762-8532,kirstg@cintas.com,,"6800 CINTAS BLVD MASON, OH 45040",KEVIN BIEN,6128,,,"8,574",Not a,Not 100% compliant
386983,W R MURDOCK & SONS INC,ACTIVE,,Carrier,Interstate,Private Property,,46756573,,05/11/2020,"200,000 (2011)","220 LAUREL CREEK RD FAYETTEVILLE, WV 25840",(304) 574-0600,(304) 574-3982,rusty@wrmurdock.com,,"220 LAUREL CREEK RD FAYETTEVILLE, WV 25840",J. EUGENE KIDD RAYMOND R. RUTTER,5,,,7,Not a,Not 100% compliant
303024,US XPRESS INC,AUTHORIZED FOR PROPERTY,US XPRESS,Carrier Broker,Interstate,Authorized For Hire,MC188121,151915949,,09/20/2019,"594,318,297 (2018)","4080 JENKINS RD CHATTANOOGA, TN 37421",(423) 510-3000,,dtomshack@usxpress.com,,"4080 JENKINS RD CHATTANOOGA, TN 37421",MATT HERNDON,6266,,,"7,250",,Not 100% compliant
342305,TRUGREEN LIMITED PARTNERSHIP,ACTIVE,TRUGREEN OR TRUGREEN CHEMLAWN OR EG SYSTEMS OR SCOTTS LAWN SERVICE OR ACTION PEST CONTROL,Carrier,Interstate,Private Property,,622681351,,05/20/2020,"79,724,000 (2019)","1790 KIRBY PKWY SUITE 300 MEMPHIS, TN 38138",(866) 417-7866,,customerservice@leetrans.com,www.trugreen.com,"1790 KIRBY PKWY SUITE 300 MEMPHIS, TN 38138",BARRY CUMMINS,6593,,,"6,548",Not a,Not 100% compliant
388004,AMERIGAS PROPANE LP,AUTHORIZED FOR PROPERTY,AMERIGAS - PTI - PROPANE TRANSPORT INTERNATIONAL - AMERIGAS PROPANE EXCHANGE,Carrier Shipper Cargo Tank Broker,Interstate,Authorized For Hire Private Property,MC114969,621773753,,03/23/2020,"125,409,738 (2019)","460 N GULPH ROAD KING OF PRUSSIA, PA 19406",(610) 337-7000,(610) 992-3206,christopher.wagner@amerigas.com,www.amerigas.com,"P O BOX 858 VALLEY FORGE, PA 19482",HUGH GALLAGHER TONY ROSBACK,6624,,,"3,707",Not a,Not 100% compliant
241572,LANDSTAR RANGER INC,AUTHORIZED,,Carrier,Interstate,Authorized For Hire,MC166960 FF11348,,,01/25/2022,"528,407,043 (2021)","13410 SUTTON PARK DRIVE SOUTH JACKSONVILLE, FL 32224",(904) 398-9400,(904) 306-2668,compliance@landstar.com,,"13410 SUTTON PARK DRIVE SOUTH JACKSONVILLE, FL 32224",MIKE COBB JOSEPH BEACOM,6855,,,"7,027",,Not 100% compliant
361843,ANDY PICARD EXCAVATING INC,NOT AUTHORIZED,,Carrier,Intrastate Non-Hazmat,Authorized For Hire Private Property,MC46770,97737795,,01/28/2019,"8,000 (2017)","80 NEW COUNTY RD SACO, ME 04072-9744",(207) 282-6640,(207) 494-7825,juliepicard2015@yahoo.com,,"80 NEW COUNTY RD SACO, ME 04072-9744",ANDRE PICARD,10,,,7,Not a,Not 100% compliant
372886,J & M PLATING,ACTIVE,,Carrier,Intrastate Non-Hazmat,Private Property,,155137458,,08/17/2016,"101,000 (2014)","4500 KISHWAUKEE ST ROCKFORD, IL 61109",(815) 964-4975,(815) 961-7353,elizabethk@jmplating.com,,"4500 KISHWAUKEE ST ROCKFORD, IL 61109",MARK MORRIS RICK MORRIS,3,,,3,Not a,Not 100% compliant
374044,"SPARNO'S TRUCKING, INC.",NONE,,,,,MC209722,,,,,4128 THICKETT AVENUE NORTH LAS VEGAS NV 89030,(702) 645-2914,,,,,,,,,,Not a,Not 100% compliant
374241,MOSS WHEEL AND AXLE INC,ACTIVE,,Carrier,Interstate,Private Property,,605888411,,12/22/2019,"55,000 (2018)","2271 GREENSBORO HWY WATKINSVILLE, GA 30677",(706) 769-6747,(706) 769-6747,rickymoss2271@bellsouth.net,,"2271 GREENSBORO HWY WATKINSVILLE, GA 30677",RICKY MOSS,1,,,1,Not a,Not 100% compliant
377233,EDD DWIGHT VAUGHN,NONE,,,,,MC258990,,,,,2391 STATE HWY FF SIKESTON MO 63801,(314) 471-9317,,,,,,,,,,Not a,Not 100% compliant
378080,RAMEY AUTO TRANSPORT CORP,AUTHORIZED FOR PROPERTY,,Carrier,Interstate,Authorized For Hire,MC210443,95308441,,11/13/2020,"195,821 (2020)","11424 BRISTOL RD BRISTOL, WI 53104",(847) 922-6224,,ramey11424@gmail.com,,"P/O BOX 397 BRISTOL, WI 53104",DAVID RAMEY DAVID RAMEY,3,,,5,Not a,Not 100% compliant
380176,ZEK TRUCKING INC,NONE,,,,,MC238060,,,,,4809 CO RD 35 WEST BUFFALO MN 55313,(612) 382-7009,,,,,,,,,,Not a,Not 100% compliant
124419,CHS INC,AUTHORIZED FOR PROPERTY,CHS,Carrier Shipper Cargo Tank Broker,Interstate,Authorized For Hire Exempt For Hire Private Property,MC169344,6147177,,01/03/2020,"63,407,082 (2018)","5500 CENEX DRIVE INVER GROVE HEIGHTS, MN 55077",(651) 355-8000,(651) 355-5062,chstransportation@chsinc.com,www.chsinc.com,"PO BOX 64089 MS 305 SAINT PAUL MINNESOTA, MN 55164",JOHN LENZI JIM ZAPPA,7031,,,"3,282",Not a,Not 100% compliant
121058,TFORCE FREIGHT INC,AUTHORIZED FOR PROPERTY,,Carrier Broker,Interstate,Authorized For Hire,MC109533,5995071,,05/19/2021,"469,318,972 (2019)","1000 SEMMES AVE RICHMOND, VA 23218-1216",(804) 231-8000,(804) 231-8154,,www.upsfreight.com,"1000 SEMMES AVE RICHMOND, VA 23218-1216",RICH MCARDLE KEVIN MARTIN,7077,,,"7,870",,Not 100% compliant
3706,NEW PRIME INC,AUTHORIZED FOR PROPERTY,PRIME INC,Carrier Broker,Interstate,Authorized For Hire,MC140665,152182473,,03/31/2020,"855,947,539 (2019)","2740 N MAYFAIR AVENUE SPRINGFIELD, MO 65803",(417) 866-0001,(417) 521-5728,sfield@primeinc.com,,"PO BOX 4208 SPRINGFIELD, MO 65808",LAWANA LOW,7239,,,"8,509",Not a,Not 100% compliant
121018,ESTES EXPRESS LINES,AUTHORIZED FOR PROPERTY,ESTES,Carrier Broker,Interstate,Authorized For Hire,MC97275,2780633,,08/27/2021,"522,136,399 (2020)","3901 W BROAD ST RICHMOND, VA 23230",(804) 353-1900,(804) 359-9341,curtis.carr@estes-express.com,www.estes-express.com,"PO BOX 25612 RICHMOND, VA 23260",ROBEY W ESTES KELLY SAMUEL,7312,,,"8,060",,Not 100% compliant
63585,WAL-MART TRANSPORTATION LLC,AUTHORIZED FOR PROPERTY,,Carrier Shipper Broker,Interstate,Authorized For Hire Private Property,MC311233,51957769,,05/20/2020,"752,559,517 (2019)","311 NORTH WALTON BLVD BENTONVILLE, AR 72716",(800) 925-6278,(479) 277-9859,jason.ahten@walmart.com,,"311 NORTH WALTON BLVD BENTONVILLE, AR 72716-0650",JOE METZGER,7425,,,"9,531",,Not 100% compliant
101328,ASPLUNDH TREE EXPERT LLC,ACTIVE,ASPLUNDH TREE EXPERT CO,Carrier,Interstate,Private Property UTILITY SE,,794685503,,04/08/2020,"53,104,461 (2019)","708 BLAIR MILL ROAD WILLOW GROVE, PA 19090-1784",(215) 784-4444,(215) 784-4237,dot@utilservllc.com,,"708 BLAIR MILL ROAD WILLOW GROVE, PA 19090-1784",GEORGE GRAHAM SCOTT ASPLUNDH,7429,,,"10,150",Not a,Not 100% compliant
286995,"CMS TRUCKING SERVICES, INC.",NONE,CMS SERVICES,,,,MC197956,,,,,4441 WALTERS RD FAIRFIELD CA 94533-6603,(707) 428-3021,(707) 428-6476,,,,,,,,,Not a,Not 100% compliant
284279,KEVIN SALISBURY,NONE,SALISBURY TRUCKING,,,,MC189492,,,,,"RT.2, BOX 1198 HOLLY HILL SC 29059",,,,,,,,,,,Not a,Not 100% compliant
363734,"B & B FREIGHT SYSTEMS, INC.",NONE,,,,,MC220680,,,,,1455 E. DRINKER STREET DUNMORE PA 18512,(717) 969-6003,,,,,,,,,,Not a,Not 100% compliant
71821,YRC INC,AUTHORIZED FOR PROPERTY,YRC FREIGHT,Carrier Broker,Interstate,Authorized For Hire,MC2202 FF4268,6998397,,01/20/2020,"465,022,141 (2019)","10990 ROE AVENUE OVERLAND PARK, KS 66211",(913) 696-6100,(913) 696-6122,kwolfe@usfc.com,,"10990 ROE AVENUE OVERLAND PARK, KS 66211",TJ O'CONNOR TAMARA JALVING,7522,,,"9,107",Not a,Not 100% compliant
376831,AMTHOR STEEL,ACTIVE,,Carrier,Interstate,Private Property,,5028261,,01/31/2019,"120,358 (2010)","1717 GASKELL AVENUE ERIE, PA 16503",(814) 452-4700,(814) 456-5055,pviglione@amthorsteel.com,,"1717 GASKELL AVENUE ERIE, PA 16503",PATRICK S. CARRARA,6,,,2,Not a,Not 100% compliant
343838,"O'DELL TRUCKING, INC.",NONE,,,,,MC215753,,,,,7538 RIVER ROAD GREENLEAF WI 54126,(414) 864-7389,,,,,,,,,,Not a,Not 100% compliant
378954,ROBERT KAMP,ACTIVE,R S KAMP FARMS,Carrier,Intrastate Non-Hazmat,Private Property,,141856807,,04/24/2009,,"8460 112TH WEST OLIVE, MI 49460",(616) 875-8489,(616) 875-2016,,,"8460 112TH WEST OLIVE, MI 49460",ROBERT KAMP,5,,,6,Not a,Not 100% compliant
379473,"JEAN EDGECOMBE TRUCKING CO., INC.",NONE,JETCO,,,,MC216438,,,,,2000 ARAMIS DRIVE MERAUX LA 70075,(504) 277-0155,,,,,,,,,,Not a,Not 100% compliant
389169,MID-STATES PROPANE INC,ACTIVE,,Carrier,Intrastate Hazmat,Private Property,,197263817,,07/01/2019,"32,000 (2018)","11701 KAW DR KANSAS CITY, KS 66111-1107",(913) 422-1747,(913) 422-3696,mthomas158@kc.rr.com,,"PO BOX 184 BONNER SPRINGS, KS 66012-0184",BRAD THOMAS,5,,,3,Not a,Not 100% compliant
354682,WHITE TURF INC,ACTIVE,,Carrier,Intrastate Non-Hazmat,Private Property,,153897103,,02/28/2020,"2,000 (2019)","1052 WEST STREET BARRE, MA 01005",(978) 355-6777,(978) 355-4202,oconjilly@hotmail.com,,"1052 WEST STREET BARRE, MA 01005",MARK OCONNOR,1,,,1,Not a,Not 100% compliant
241829,XPO LOGISTICS FREIGHT INC,AUTHORIZED FOR PROPERTY,,Carrier Broker,Interstate,Authorized For Hire BIT,MC165377,80431863,,11/18/2019,"664,947,501 (2018)","2211 OLD EARHART ROAD ANN ARBOR, MI 48105-2751",(734) 994-6600,(888) 234-7347,michael.gardner@xpo.com,www.xpo.com,"2211 OLD EARHART ROAD ANN ARBOR, MI 48105-2751",TONY BROOKS MICHAEL GARDNER,8216,,,"11,878",,Not 100% compliant
349606,DAVID WILLIAMS,NOT AUTHORIZED,WEST VALLEY TRANSPORT,Carrier,Interstate,Authorized For Hire,MC218517,786645481,,06/04/2020,"90,000 (2019)","8517 SOUTH 17TH STREET BELLEVUE, NE 68147",(385) 214-4175,,westvalleytransport@yahoo.com,,"8517 SOUTH 17TH STREET BELLEVUE, NE 68147",DAVID S. WILLIAMS,3,,,1,Not a,Not 100% compliant
360962,A. W. TRUCKING INC.,NONE,,,,,MC222102,,,,,4336 NORTH 35TH AVENUE PHOENIX AZ 85061,(602) 242-6000,,,,,,,,,,Not a,Not 100% compliant
325418,TODD'S TRANSPORT LLC,NOT AUTHORIZED,,Carrier,Interstate,Authorized For Hire,MC504541,,,05/18/2019,"249,703 (2017)","2948 COUNTY ROAD 139A MANDAN, ND 58554",(701) 226-1140,,twalkertransport@yahoo.com,,"2948 COUNTY ROAD 139A MANDAN, ND 58554",TODD WALKER MARY WALKER,3,,,2,Not a,Not 100% compliant
376684,ROBERT C BOHM JR & ROBERT C BOHM III,AUTHORIZED FOR PROPERTY,ROBERT BOHM,Carrier,Interstate,Authorized For Hire Exempt For Hire Private Property,MC294703,65942682,,04/15/2020,"123,992 (2019)","31A NASSAU BLVD WEST HEMPSTEAD, NY 11552",(516) 437-9634,(516) 437-9634,,,"31A NASSAU BLVD WEST HEMPSTEAD, NY 11552",ROBERT C BOHM JR ROBERT C BOHM III,3,,,2,Not a,Not 100% compliant
388412,TRACY SEIM,AUTHORIZED FOR PROPERTY,SEIM TRUCKING,Carrier,Interstate,Authorized For Hire Exempt For Hire,MC769674,,,04/03/2020,"87,415 (2018)","204 SUMMIT AVE S PARK RIVER, ND 58270",(701) 330-6606,,,,"204 SUMMIT AVE S PARK RIVER, ND 58270",TRACY SEIM,1,,,1,Not a,Not 100% compliant
126693,HALLIBURTON ENERGY SERVICES INC,AUTHORIZED FOR PROPERTY,HALLIBURTON,Carrier Shipper,Interstate,Authorized For Hire Private Property Private Passengers (Business),MC1069556,807764857,,02/25/2020,"46,191,000 (2018)","3000 N SAM HOUSTON PKWY PLAZA 1 RM 3310C HOUSTON, TX 77032-3219",(281) 575-3794,,fmcsa.dot.hal@halliburton.com,,"3000 N SAM HOUSTON PKWY E HOUSTON, TX 77032-3219",TRAVIS JOHNSON MARK RICHARD,8835,,,"8,001",Not a,Not 100% compliant
324568,DANNY'S TRANNYS INC,ACTIVE,,Carrier Shipper,Intrastate Non-Hazmat,Private Property,,,,,0 (),"14050 BASALT ST NW RAMSEY, MN 55303",(763) 421-1223,,,,"14050 BASALT ST NW RAMSEY, MN 55303",,1,,,1,Not a,Not 100% compliant
336760,"DUKE CITY TRANSFER & STORAGE, INC.",NONE,,,,,MC180216,,,,,825 BELLAMAH N W ALBUQUERQUE NM 87102,(505) 765-1541,(505) 508-3758,,,,,,,,,Not a,Not 100% compliant
352689,SIMA DRILLING COMPANY INC,ACTIVE,,Carrier,Interstate,Private Property,,46241428,,01/14/2020,"62,976 (2012)","150 SCHOOLHOUSE RD CHESHIRE, CT 06410-1242",(203) 272-3077,(203) 250-7199,simadrilling@necoxmail.com,www.simadrilling.com,"150 SCHOOLHOUSE RD CHESHIRE, CT 06410-1242",JAMES M SIMA ROBERT A SIMA,14,,,14,Not a,Not 100% compliant
365825,LARRY MINEHART,NONE,MINEHART TRUCKING,,,,MC215167,,,,,P. O. BOX 114 KEWANEE MO 63860,(314) 748-5403,,,,,,,,,,Not a,Not 100% compliant
380808,ALBERT LEA CRATING,ACTIVE,,Carrier Shipper,Intrastate Non-Hazmat,Private Property,,47349436,,06/13/2014,"181,000 (2014)","1719 MARGARETHA AVE ALBERT LEA, MN 56007-0043",(507) 377-3907,(507) 377-9307,alcrating@hotmail.com,,"PO BOX 43 ALBERT LEA, MN 56007-0043",MICHAEL BREUER,1,,,2,Not a,Not 100% compliant
387292,"A AAADVANTAGE AUTO TRANSPORT, INC.",NONE,,,,,MC210561,,,,,7810 SOUTH HARDY DR STE 108 TEMPE AZ 85284,(480) 753-9000,(480) 753-0765,,,,,,,,,Not a,Not 100% compliant
388057,ALSAM STEEL CORP,NOT AUTHORIZED,,Carrier,Intrastate Non-Hazmat,Authorized For Hire Private Property,MC276265,89117600,,,,"CR #51 HILLDALE RD LOCH SHELDRAKE, NY 12759",(914) 434-5692,,,,"185 CLEMENTS RD LIBERTY, NY 12754-2840",,2,,,2,Not a,Not 100% compliant
374441,OASIS ALIGNMENT SERVICES LLC,ACTIVE,,Carrier,Interstate,Private Property,,101410694,,01/27/2020,"60,000 (2019)","363 PICKERING ROAD ROCHESTER, NH 03867",(603) 332-9641,(603) 332-0356,tomloporcaro@oasisalignment.com,,"363 PICKERING ROAD ROCHESTER, NH 03867",PAUL SIMONEAU BRAIN HILTUNEN,6,,,17,Not a,Not 100% compliant
284170,"S & S AUTO CENTER, INC.",NONE,,,,,MC198609,,,,,1020 6TH. AVE. SE ABERDEEN SD 57401,(605) 229-4069,,,,,,,,,,Not a,Not 100% compliant
345264,"FREDERICK BULK TRANSPORT, INC.",NONE,TRANSPORT EN VRAC FREDERICK,,,,MC177600,,,,,"RR #2 DUNDAS, ONTARIO L9H 5E2 ON 00000",(519) 352-6680,,,,,,,,,,Not a,Not 100% compliant
389195,CONNECTICUT BULK TRANSPORT LLC,AUTHORIZED FOR PROPERTY,,Carrier,Interstate,Authorized For Hire Private Property,MC237622,,,05/02/2019,"127,389 (2016)","194 PRUDENCE DRIVE STAMFORD, CT 06907",(203) 223-5592,(203) 504-2352,dpossident@aol.com,,"194 PRUDENCE DR STAMFORD, CT 06907",PAMELA POSSIDENTO DANIEL POSSIDENTO,5,,,5,Not a,Not 100% compliant
331404,STROHECKER INCORPORATED,ACTIVE,,Carrier,Interstate,Private Property,,4391967,,04/08/2020,"30,000 (2019)","213 NORTH PLEASANT DRIVE EAST PALESTINE, OH 44413",(330) 426-9496,(330) 426-3143,marlenefigley@strohecker.com,,"213 NORTH PLEASANT DRIVE EAST PALESTINE, OH 44413",MARLENE FIGLEY,3,,,6,Not a,Not 100% compliant
346951,CAMPBELLS FENCE CO,ACTIVE,,Carrier,Intrastate Non-Hazmat,Private Property,,786239988,,03/13/2001,,"HWY 52 NORTH CROSSETT, AR 71635",(501) 364-2724,,,,"P O BOX 356 CROSSETT, AR 71635",,2,,,2,Not a,Not 100% compliant
351709,"BRADLEY TRANSPORTATION, INC.",NONE,,,,,MC218992,,,,,7484 QUEEN CIRCLE ARVADA CO 80005,(303) 420-6886,,,,,,,,,,Not a,Not 100% compliant
356965,MICHAEL CHARLES CLONTZ,AUTHORIZED FOR PROPERTY,CLONTZ TRANSPORTATION,Carrier,Interstate,Authorized For Hire,MC259495,,,06/11/2020,721 (2019),"3311 CAMDEN RD MARSHVILLE, NC 28103",(704) 624-2400,,,,"3311 CAMDEN RD MARSHVILLE, NC 28103",MICHAEL CHARLES CLONTZ,1,,,1,Not a,Not 100% compliant
359061,W A KENDALL & CO LLC,ACTIVE,KENDALL VEGETATION SERVICES,Carrier,Interstate,Private Property,,56222037,,10/15/2019,"329,701 (2018)","400 FARMER CT LAWRENCEVILLE, GA 30046",(770) 963-6017,(770) 962-8510,,,"P O BOX 831 LAWRENCEVILLE, GA 30046-0831",LORREN WILLIAMS ROBERT WILLIAMS,258,,,386,Not a,Not 100% compliant
359364,PARAGON PRODUCTIONS INC,ACTIVE,PPI,Carrier,Interstate,Private Property,,50279942,,02/11/2020,"10,000 (2015)","150 GRAYSON RD ROCK HILL, SC 29732",(803) 329-3939,(803) 329-3592,,,"150 GRAYSON RD ROCK HILL, SC 29732",ALAN P SMITH,2,,,2,Not a,Not 100% compliant
360045,JOSEPH A. RAMON & BERNARD H. BONAVITA,NONE,BONAVITA LIMOUSINE,,,,MC221309,,,,,501 NATIONAL AVE. #18 KINGS BEACH CA 95719,(916) 587-7605,,,,,,,,,,Not a,Not 100% compliant
370802,KOLORPRESS INC,ACTIVE,,Carrier,Intrastate Non-Hazmat,Private Property,,6477673,,,0 (),"33 S 6TH ST STE 3970 MINNEAPOLIS, MN 55402-3720",(612) 338-8641,,,,"33 S 6TH ST STE 3970 MINNEAPOLIS, MN 55402-3720",,1,,,1,Not a,Not 100% compliant
692947,NEW BERN TRANSPORT CORP,AUTHORIZED FOR PROPERTY,,Carrier Broker,Interstate,Authorized For Hire,MC321263,,,04/06/2020,"305,178,507 (2019)","700 ANDERSON HILL RD PURCHASE, NY 10577",(914) 767-6000,,derek.janquart@pepsico.com,,"700 ANDERSON HILL RD PURCHASE, NY 10577",DAVID H. PATRICK DEREK JANQUART,9738,,,"12,929",,Not 100% compliant
90849,OLD DOMINION FREIGHT LINE INC,AUTHORIZED FOR PROPERTY,,Carrier Broker,Interstate,Authorized For Hire,MC107478,6870877,,09/19/2019,"825,246,972 (2018)","500 OLD DOMINION WAY THOMASVILLE, NC 27360",(336) 889-5000,(336) 822-5235,sam.faucette@odfl.com,www.odfl.com,"500 OLD DOMINION WAY THOMASVILLE, NC 27360",GREG GANTT ROSS PARR,9798,,,"10,974",,Not 100% compliant
377495,MIKE CARSON,ACTIVE,MIKE CARSON TRUCKING,Carrier,Interstate,Private Property,,363887597,,07/08/2019,"265,500 (2018)","15 CARSON WAY WILLSBORO, NY 12996",(518) 963-1193,(518) 963-1193,pattycarson3@yahoo.com,,"15 CARSON WAY WILLSBORO, NY 12996",MICHAEL R CARSON,10,,,10,Not a,Not 100% compliant
360030,"AYRES & BROWNING, INC.",NONE,HAZARDOUS WASTE SERVICES,,,,MC219752,,,,,8012 SEYMOUR HIGHWAY WICHITA FALLS TX 76308,(817) 766-2671,,,,,,,,,,Not a,Not 100% compliant
389286,NEW ENGLAND AUDIO TECH LLC,ACTIVE,RAINBOW PRODUCTION SERVICES,Carrier,Interstate,Private Property,,71959183,,04/16/2018,"18,000 (2018)","11 INDUSTRIAL WAY ATKINSON, NH 03811",(603) 898-6328,(603) 898-6333,jibc@rps.us.com,,"11 INDUSTRIAL WAY ATKINSON, NH 03811",HOLLIS CLARK C MICHAEL MARTELL,2,,,7,Not a,Not 100% compliant
345167,"HIGHLAND EXPRESS, INC.",NONE,,,,,MC116564 MC119118,,,,,R.D.#4 LATROBE PA 15650,,,,,,,,,,,Not a,Not 100% compliant
344436,"DJR TRANSPORT, INC.",NONE,,,,,MC216739,,,,,440 MORNINGSIDE ST. PETERS MO 63376,(618) 797-1682,,,,P.O. BOX 1104 EDGEWOOD NM 87015,,,,,,Not a,Not 100% compliant
290844,"EXECUTIVE COURIER NETWORK, INC.",NONE,,,,,MC191115,,,,,4261 HOWARD AVENUE KENSINGTON MD 20895,(301) 564-9330,,,,,,,,,,Not a,Not 100% compliant
291410,"BUTTERBALL, LTD.",NONE,,,,,MC188991,,,,,28700 NORTH RIVER ROAD MT. CLEMENS MI 48045,,,,,,,,,,,Not a,Not 100% compliant
292820,"WELLMAN ENTERPRISES, INC.",NONE,,,,,MC182388,,,,,1941 S. SUNNYLANE OKLAHOMA CITY OK 73115,,,,,,,,,,,Not a,Not 100% compliant
297885,WARREN W FANE INC,AUTHORIZED FOR PROPERTY,,Carrier,Interstate,Authorized For Hire Private Property,MC202058,13298831,,02/03/2020,1 (2019),"449 ROUTE 40 TROY, NY 12182",(518) 235-5531,(518) 235-5531,info@wwfane.com,wwfane.com,"62 LEVERSEE RD TROY, NY 12182",WARREN FANE,99,,,81,Not a,Not 100% compliant
302282,TOM A MARKS,ACTIVE,,Carrier,Interstate,Exempt For Hire Private Property,,,,02/04/2020,"20,000 (2019)","1834 CO RD 400E WEST SALEM, IL 62476",(618) 456-3101,,markstom@yahoo.com,,"1834 CO RD 400E WEST SALEM, IL 62476",TOM A MARKS,2,,,2,Not a,Not 100% compliant
330598,TOM HERMANSON,NONE,TOM HERMANSON TRUCKING,,,,MC213851,,,,,316 1/2 HARRISON ST. BOONE IA 50036,(515) 733-4582,,,,,,,,,,Not a,Not 100% compliant
333695,SHAW ELECTRIC COMPANY,ACTIVE,,Carrier,Intrastate Non-Hazmat,Private Property,,,,07/11/2019,"10,000 (2018)","3600 FULLER AVE KANSAS CITY, MO 64129",(816) 921-0033,(816) 921-4189,nshaw@seckc.com,,"3600 FULLER AVE KANSAS CITY, MO 64129",RYAN BLAKE NED SHAW,2,,,4,Not a,Not 100% compliant
343764,LARRY MICHEL,NONE,MICHEL TRUCKING,,,,MC216571,,,,,8122 PHLOX STREET DOWNEY CA 90241,(310) 861-0885,,,,,,,,,,Not a,Not 100% compliant
354173,REED J TAYLOR,ACTIVE,,Shipper,,,,,,,,"8493 CALENDULA BUENA PARK, CA 90620",(714) 522-2933,,,,"8493 CALENDULA BUENA PARK, CA 90620",,,,,,Not a,Not 100% compliant
357245,ARTHUR PARENT CONTRACTOR INC,ACTIVE,PARENT SANITATION,Carrier,Interstate,Private Property,,45111648,,03/06/2020,"41,030 (2019)","11B SAYLES AVE DAYVILLE, CT 06241-1609",(860) 774-3147,(860) 774-2258,lisact@parentsanitation.com,,"P O BOX 81 DAYVILLE, CT 06241-0081",GLENN A PARENT LISA G PARENT,3,,,2,Not a,Not 100% compliant
358032,WICO DISTRIBUTION CORP,ACTIVE,,Shipper,,,,,,,,"6400 W GROSS PT ROAD NILES, IL 60648",(312) 647-7500,,,,"6400 W GROSS PT ROAD NILES, IL 60648",,,,,,Not a,Not 100% compliant
359433,"NVA TRANSPORTATION, INC.",NONE,,,,,MC222082,,,,,P. O. BOX 4 GOODLETTSVILLE TN 37072,(615) 859-1219,,,,,,,,,,Not a,Not 100% compliant
359822,"OILEX TANK LINES, INC.",NONE,,,,,MC204600,,,,,7010 TRUCK WORLD BOULEVARD HUBBARD OH 44425,(216) 534-1157,,,,,,,,,,Not a,Not 100% compliant
360300,"TIME LIMOUSINE SERVICE, INC.",NONE,,,,,MC201698,,,,,1425 BEDFORD ST. STAMFORD CT 06905,(203) 531-0162,,,,,,,,,,Not a,Not 100% compliant
361162,ROGER JOHNSON FARMS,ACTIVE,,Carrier,Interstate,Private Property,,,,02/06/2020,899 (2009),"P O BOX 397 LULA, MS 38644",(662) 337-2998,(662) 337-2998,johnsonshcl@bellsouth.net,,"P O BOX 397 LULA, MS 38644",ROGER A JOHNSON SR,1,,,1,Not a,Not 100% compliant
361647,MICHAEL MUJSCE INC,ACTIVE,M & S AUTO SALES,Carrier,Intrastate Non-Hazmat,Private Property,,,,09/25/2019,"10,000 (2014)","2055 FLANDERS RD FLANDERS, NY 11901",(631) 728-1227,(631) 728-5714,samm32564@aol.com,,"17 BELLOWS POND RD HAMPTON BAYS, NY 11946",MICHAEL MUJSCE,2,,,1,Not a,Not 100% compliant
362094,"MOYER ENTERPRISES, INC.",NONE,,,,,MC163708,,,,,NOT KNOWN LAKE CITY MN 55041,,,,,,,,,,,Not a,Not 100% compliant
362661,SOUTHSIDE MACHINE WORKS INC,ACTIVE,,Carrier,Interstate,Private Property,,6272371,,07/31/2019,"15,000 (2018)","3761 EILER STREET SAINT LOUIS, MO 63116",(314) 481-7171,(314) 481-9271,mjost@southsidemachine.net,,"P O BOX 22199 SAINT LOUIS, MO 63116",TIMOTHY M JOST,2,,,2,Not a,Not 100% compliant
362703,SCHAEFER ENT OF WOLF LAKE INC,ACTIVE,,Carrier,Interstate,Private Property,,25927393,,01/15/2020,"106,496 (2019)","4535 STATE RT 3N WOLF LAKE, IL 62998",(618) 833-5498,(618) 833-5232,susank@sewlparts.com,,"P O BOX 136 WOLF LAKE, IL 62998-0136",GERHARDT SCHAEFER THOMAS WINKLEBLACK,2,,,3,Not a,Not 100% compliant
363741,MILLER F P COMPANY,ACTIVE,,Carrier,Interstate,Private Property,,17162306,,11/25/2019,"20,000 (2018)","420 INGHAM ST JACKSON, MI 49201",(517) 787-3100,(517) 787-3116,accountspayable@fpmiller.com,,"420 INGHAM ST JACKSON, MI 49201",JOSEPH R MILLER LYNN MILLER,2,,,12,Not a,Not 100% compliant
364548,"GONZALEZ TRANSFER, INC.",NONE,,,,,MC222470,,,,,830 NW 22ND ST. MIAMI FL 33127,(305) 324-4624,,,,,,,,,,Not a,Not 100% compliant
364719,M&M TRUCKING INC,ACTIVE,,Carrier,Interstate,Private Property,,68302728,,09/04/2019,"7,359 (2016)","2100 23RD AVE MENOMINEE, MI 49858-2039",(906) 863-9598,(906) 864-0160,mmtruk@new.rr.com,,"2100 23RD AVE MENOMINEE, MI 49858-2039",JAMES A. HOFFMAN ROSE HOFFMAN,2,,,1,Not a,Not 100% compliant
365290,HERITAGE PACKAGING CO INC,ACTIVE,,Carrier,Interstate,Private Property,,114227705,,08/22/2019,"20,002 (2019)","441 MARKET ST LAWRENCE, MA 01843-1431",(978) 686-6127,(978) 682-2572,accounts@hpipackaging.com,www.hpipackaging.com,"441 MARKET ST LAWRENCE, MA 01843-1431",STEPHEN DEFUSCO,1,,,3,Not a,Not 100% compliant
365566,GERRY RUSHTON STABLES,AUTHORIZED FOR PROPERTY,,Carrier,Interstate,Authorized For Hire,MC295777,126436039,,04/08/2020,"50,000 (2019)","18255 IDALEONA RD PERRIS, CA 92570",(951) 789-7101,(951) 789-7101,emgjoker@aol.com,,"18255 IDALEONA RD PERRIS, CA 92570",GERRY RUSHTON,2,,,5,Not a,Not 100% compliant
369675,RAY DEVRIES AND CINDY DEVRIES,ACTIVE,CANYON CONCRETE SAND & GRAVEL,Carrier,Intrastate Non-Hazmat,Private Property,,,,07/10/2019,"80,000 (2018)","101 AMORETTI THERMOPOLIS, WY 82443",(307) 864-3500,(307) 864-3609,rctrucks@outlook.com,,"P O BOX 1249 THERMOPOLIS, WY 82443",RAY DEVRIES CINDY DEVRIES,8,,,4,Not a,Not 100% compliant
370053,MICHAEL H. PARISH,NONE,M & D ENTERPRISES,,,,MC223786,,,,,13911-113TH AVE. CT. E. PUYALLUP WA 98374,(206) 763-9221,,,,,,,,,,Not a,Not 100% compliant
371486,LORETEL SYSTEMS INC,ACTIVE,,Carrier,Intrastate Non-Hazmat,Private Property,,71791545,,12/23/2003,"460,000 (2001)","13 4TH AVE E ADA, MN 56510-1331",(218) 784-7171,(218) 784-2706,,,"P O BOX 72 ADA, MN 56510-0072",,17,,,35,Not a,Not 100% compliant
374185,JOEL D KUGLER,AUTHORIZED FOR PROPERTY,KUGLER TRUCKING,Carrier,Interstate,Authorized For Hire,MC224831,153650114,,02/13/2020,"99,112 (2019)","9158 W CR 49 HUDSON, CO 80642",(303) 536-4692,(303) 536-4692,kugler42@gmail.com,,"PO BOX 369 HUDSON, CO 80642-0369",JOEL D KUGLER,1,,,1,Not a,Not 100% compliant
376152,BARBARA J. CHALMERS,NONE,C & K TRUCKING,,,,MC205698,,,,,11901B 221ST ST SE SHOHOMISH WA 98296,(206) 915-9243,,,,PO BOX 1726 BOTHELL WA 98041-1726,,,,,,Not a,Not 100% compliant
379275,TRACY'S EXCAVATING,ACTIVE,,Carrier,Intrastate Non-Hazmat,Private Property APPLYING F,,072158587,,07/12/2009,"4,000 (2008)","6375 FIRMAN RD ERIE, PA 16510",(814) 899-7454,,,,"6375 FIRMAN RD ERIE, PA 16510",TRACY PASSEROTTI,1,,,1,Not a,Not 100% compliant
380994,DIANA'S MEXICAN FOOD PRODUCTS INC,ACTIVE,,Carrier,Interstate,Private Property,,77974475,,01/31/2020,"986,794 (2019)","16330 S PIONEER BLVD NORWALK, CA 90650-7095",(562) 926-5802,(562) 404-9567,,,"P O BOX 369 NORWALK, CA 90651-0369",SAMUEL F MAGANA SAMUEL R. MAGANA,26,,,22,Not a,Not 100% compliant
381154,"PETERSON COMMODITY CARRIER, INC.",NONE,,,,,MC209452,,,,,2799 SOUTH STATE ROAD 1 BLUFFTON IN 46714,(219) 824-1717,,,,,,,,,,Not a,Not 100% compliant
381281,"DOVER LEASING CO., INC.",NONE,,,,,MC498677,,,,,613 CLARA ST DOVER DE 19904,(302) 674-2300,,,,PO BOX 603 DOVER DE 19904,,,,,,Not a,Not 100% compliant
381294,RICHARD PATTEN,NONE,R. PATTEN TRUCKING,,,,MC227653,,,,,75 COLUMBIA STREET QUINCY MA 02169,(617) 479-5435,,,,,,,,,,Not a,Not 100% compliant
382210,R & D LATEX CORPORATION,NONE,,,,,MC227902,,,,,5901 TELEGRAPH ROAD COMMERCE CA 90040,(213) 724-6161,,,,,,,,,,Not a,Not 100% compliant
382916,NORM SCHULDT & SON EXCAVATING AND TRUCKING INC,AUTHORIZED FOR PROPERTY,,Carrier,Interstate,Authorized For Hire Private Property,MC228576,44228666,,10/07/2019,"40,000 (2018)","16806 US HWY 14 WOODSTOCK, IL 60098",(847) 404-0146,(815) 206-3987,norm.schuldtexctrk2017@yahoo.com,,"16806 US HWY 14 WOODSTOCK, IL 60098",WILLIAM A SCHULDT PEGGY S SCHULDT,4,,,5,Not a,Not 100% compliant
383451,"HOWARD J. SNYDER, INC.",NONE,,,,,MC228510,,,,,"371 COMMERCIAL ST., P O BOX 3 PETTISVILLE OH 43553",(419) 446-9118,,,,,,,,,,Not a,Not 100% compliant
384431,"SANDIVER ENTERPRISES, LTD.",NONE,,,,,MC292139,,,,,5660 TEN OAKS ROAD CLARKSVILLE MD 21029,(410) 531-2800,,,,,,,,,,Not a,Not 100% compliant
384986,KREISER DISTRIBUTING CO,ACTIVE,,Shipper,,,,082254269,,,,"13800 LINCOLN WAY IRWIN, PA 15642-2133",(412) 863-3360,,,,"P O BOX B IRWIN, PA 15642-0561",,,,,,Not a,Not 100% compliant
387537,"HORRALL TRUCKING, INC.",NONE,,,,,MC326689,,,,,RR 4 BOX 30 VINCENNES IN 47591,,,,,,,,,,,Not a,Not 100% compliant
387705,UNITED FORMS-TENNESSEE SCAFFOLDING INC,ACTIVE,,Carrier,Interstate,Private Property,,,,03/27/2020,"27,729 (2019)","2561 OVERTON CROSSING MEMPHIS, TN 38127-8610",(901) 353-3000,(901) 358-6000,michaelvinas@ufts.net,,"2561 OVERTON CROSSING STREET MEMPHIS, TN 38127-8610",STEVE HARRISON SEAN HARRISON,2,,,2,Not a,Not 100% compliant
387911,MAVERICK INTERNATIONAL LTD,ACTIVE,MAVERICK VALVE & FITTING,Carrier,Interstate,Private Property,,189836398,,02/27/2020,"200,000 (2017)","1650 BROCKMAN ST BEAUMONT, TX 77705-1906",(409) 833-7878,(409) 833-3123,drenda.tate@mavint.com,,"P O BOX 6600 BEAUMONT, TX 77725",GERALD NELSON JR GLEN MORGAN,11,,,9,Not a,Not 100% compliant
388311,GRIFFEY FARMS LLC,ACTIVE,,Carrier,Interstate,Private Property,,613549732,,04/08/2019,"10,000 (2017)","12660 W GERMANTOWN RD MILTON, IN 47357",(765) 478-6297,(866) 539-6997,griffeyfarms@gmail.com,,"12660 W GERMANTOWN RD MILTON, IN 47357",DANIEL GRIFFEY AMANDA GRIFFEY,9,,,4,Not a,Not 100% compliant
389390,HADEKA STONE CORP,ACTIVE,,Carrier,Interstate,Private Property,,2086148,,01/27/2020,"25,744 (2017)","115 STASO LANE HAMPTON, NY 12837",(518) 282-9605,(518) 282-9746,tennis@hadekastone.com,,"P O BOX 108 HAMPTON, NY 12837",GERALD HADEKA WILLIAM HADEKA,2,,,2,Not a,Not 100% compliant
389831,"HOWARD'S TRANSPORTATION, INC.",NONE,,,,,MC217889,,,,,P. O. BOX 7871 TYLER TX 75711,(903) 581-5201,,,,,,,,,,Not a,Not 100% compliant
390196,SIGNWORKS INC F K A NEON PRODUCTS CO INC,ACTIVE,,Carrier,Interstate,Private Property,,7258676,,06/03/2019,"30,000 (2016)","4713 F STREET OMAHA, NE 68117",(402) 346-5447,(402) 346-9250,mikaela@signworksomaha.com,,"4713 F STREET OMAHA, NE 68117",MIKAELA LAYSON GABRIELLE RYAN,2,,,7,Not a,Not 100% compliant
292055,"BEAN'S TRUCKING, INC.",NONE,,,,,MC191882,,,,,P. O. BOX 578 SMITHVILLE TN 37166,(615) 467-3518,,,,,,,,,,Not a,Not 100% compliant
325355,673051 ONTARIO INC.,NONE,POINTS WEST EQUIPMENT,,,,MC197267,,,,,215 QUEEN STREET WEST CAMBRIDGE ON N3C 1G6,(519) 658-1080,,,,,,,,,,Not a,Not 100% compliant
338068,"KONICA PHOTO SERVICE U. S. A. , INC.",NONE,KONICA QUALITY PHOTO EAST,,,,MC235210,,,,,71 US RT 1 SCARBOROUGH ME 04074-9375,(207) 883-7269,,,,,,,,,,Not a,Not 100% compliant
354295,MT. PULASKI PRODUCTS LLC,NONE,,,,,MC601834,,,,,908 NORTH VINE STREET MOUNT PULASKI IL 62548,(217) 792-3211,(217) 792-5040,,,PO BOX 110 MOUNT PULASKI IL 62548,,,,,,Not a,Not 100% compliant
357126,SHELLS INC,ACTIVE,,Carrier,Interstate,Private Property,,64097157,,06/17/2020,"200,000 (2019)","502 OLD US HWY 30 EAST BOURBON, IN 46504",,(574) 342-5018,mark@truckingconsultant.com,,"P O BOX 482 HOLLAND, OH 43528",SKIP BRAY,2,,,2,Not a,Not 100% compliant
379081,JOHN L BLOSENSKI & SONS INC,ACTIVE,,Carrier,Intrastate Non-Hazmat,Private Property APPLYING F,,043285634,,,"215,000 (1997)","PARKMOUNT ROAD GLEN RIDDLE, PA 19037-0033",(610) 459-1173,(610) 459-2583,,,"P O BOX 33 MEDIA, PA 19037-0033",,18,,,13,Not a,Not 100% compliant
379512,LASSETER TRACTOR CO INC,ACTIVE,,Carrier,Interstate,Private Property,,33810474,,03/05/2019,"792,201 (2018)","1000 VETERANS PARKWAY MOULTRIE, GA 31788",(229) 985-1027,(229) 890-1481,benita@lassetertractor.com,,"P O BOX 726 MOULTRIE, GA 31776-0726",JUDD LASSETER TONY LASSETER,31,,,24,Not a,Not 100% compliant
374064,KRAEMER FARMS,INACTIVE USDOT NUMBER PER 49 CFR 390.19(B)(4); BIENNIAL UPDATE OF MCS-150 DATA NOT COMPLETED,,Carrier,Interstate,Private Property,,54391917,,03/30/2018,"18,000 (2013)","13318 DOMINIC RD NE MOUNT ANGEL, OR 97362-9728",(503) 845-2489,(503) 845-6474,diana@kraemerfarms.com,,"13318 DOMINIC RD NE MOUNT ANGEL, OR 97362-9728",TOM KRAEMER DAN KRAEMER,5,,,4,Not a,Not 100% compliant
300678,THE WILLIAM G SIMMONS COMPANY INC,ACTIVE,,Carrier,Intrastate Non-Hazmat,Private Property,,23811318,,10/10/2019,"5,000 (2018)","122 MONROE STREET NARROWS, VA 24124",(540) 726-2436,(540) 726-2057,wgsimmonsco1946@gmail.com,,"PO BOX 386 NARROWS, VA 24124",KEVIN SIMMONS MARK SIMMONS,2,,,1,Not a,Not 100% compliant
357059,INDUSTRIAL CHEMICAL CORP,AUTHORIZED FOR PROPERTY,INDAL AMERICA,Carrier Shipper,Intrastate Hazmat,Authorized For Hire Private Property,MC482675,39999412,,09/30/2019,"74,128 (2018)","885 W SMITH RD MEDINA, OH 44256",(330) 725-0800,(330) 722-5187,fred@custompak.org,,"885 W SMITH RD MEDINA, OH 44256",FRED CAMAGLIA RON CAMAGLIA,4,,,2,Not a,Not 100% compliant
358949,GOLDEN VALLEY SUPPLY CO,ACTIVE,,Carrier,Interstate,Private Property,,59033092,,05/20/2020,"320,000 (2016)","1000 ZANE AVENUE NORTH MINNEAPOLIS, MN 55422-4606",(763) 544-8907,(763) 544-2243,connielarson@goldenvalleysupply.com,,"1000 ZANE AVENUE NORTH MINNEAPOLIS, MN 55422-4606",CONNIE LARSON,9,,,13,Not a,Not 100% compliant
382047,BARNETTE & BENEFIELD TRUCKING INC,NONE,,,,,MC578638,,,,,1600 HUDSON STREET HAYNESVILLE LA 71038,(318) 624-1829,,,,PO BOX 550 HAYNESVILLE LA 71038,,,,,,Not a,Not 100% compliant
317296,"SEE DESIGN & PRODUCTION, INC.",NONE,,,,,MC219717,,,,,2215 CLAXTER ROAD NE SALEM OR 97303,(503) 393-1733,,,,,,,,,,Not a,Not 100% compliant
358325,"JUDITH L. GRADNEY AND MICHAEL E. GRADNEY, JR.",NONE,WHITE STONE TRANSPORTATION,,,,MC220644,,,,,4100 BRONSON AVENUE LOS ANGELES CA 90008,(213) 298-7259,,,,,,,,,,Not a,Not 100% compliant
339438,OHIO-SEALY MATTRESS MANUFACTURING COMPANY,NONE,,,,,MC751449,,,,,1 OFFICE PARKWAY TRINITY NC 27370,(336) 861-3500,,,,,,,,,,Not a,Not 100% compliant
53467,WERNER ENTERPRISES INC,AUTHORIZED FOR PROPERTY,,Carrier Broker,Interstate,Authorized For Hire Private Property Private Passengers (Business),MC138328,22086565,,11/12/2019,"952,507,026 (2018)","14507 FRONTIER ROAD OMAHA, NE 68138",(402) 895-6640,(402) 894-3769,jmaus@werner.com,www.werner.com,"PO BOX 45308 OMAHA, NE 68145-0308",MARTY NORDLUND,10100,,,"10,817",,Not 100% compliant
380503,ORVILLE B. SCOTT,NONE,,,,,MC227451,,,,,2102 UTICA JOPLIN MO 64801,(417) 624-0661,,,,,,,,,,Not a,Not 100% compliant
360663,PIONEER MATERIALS WEST INC,ACTIVE,PIONEER MATERIALS WEST SLOPE,Carrier,Interstate,Private Property,,116269051,,02/20/2020,"601,841 (2019)","7271 S EAGLE ST CENTENNIAL, CO 80112",(303) 693-7900,(303) 693-1430,ryan@pioneermaterialswest.com,,"7271 S EAGLE ST CENTENNIAL, CO 80112",RYAN STENSLAND,38,,,37,Not a,Not 100% compliant
100221,FLAMBEAU INC.,NONE,,,,,MC181660,,,,,801 LYNN AVE. BARABOO WI 53913,(608) 355-6500,(608) 356-5260,,,,,,,,,Not a,Not 100% compliant
369317,FORT TRANSPORT LTD.,NONE,,,,,MC223882,,,,,938 MCPHILLIPS RD. ST. ANDREWS MB R1A 4E7,(204) 785-2180,,,,114 REGENT AVE W WINNIPEG MB R2C 1P9,,,,,,Not a,Not 100% compliant
341858,GLOBAL INDUSTRIES INC,ACTIVE,GLOBAL FURNITURE GROUP,Carrier,Interstate,Private Property,,49908403,,05/28/2020,"110,000 (2018)","17 WEST STOW ROAD MARLTON, NJ 08053",(856) 596-3390,(856) 596-5684,cmyers@globalfurnituregroup.com,www.globalfurnituregroup.com/us/,"17 WEST STOW ROAD MARLTON, NJ 08053",CHAD MYERS JOHN MOLCHES,3,,,5,Not a,Not 100% compliant
349045,"SHELLY WARD ENTERPRISES, INC.",NONE,,,,,MC240595,,,,,3550 LAKELINE BLVD STE 170-1713 LEANDER TX 78641,(818) 925-5850,(877) 401-1528,,,3550 LAKELINE BLVD STE 170-171 LEANDER TX 78641,,,,,,Not a,Not 100% compliant
360498,"O'DELL TRUCKING, INC.",NONE,,,,,MC331639,,,,,825 SOUTH HILLSDALE STREET HOMER MI 49245,(517) 568-3323,,,,,,,,,,Not a,Not 100% compliant
372687,K INC,ACTIVE,METROLINA FOOD BANK,Carrier,Intrastate Non-Hazmat,Private Property,,,,,,"P O BOX 33264 CHARLOTTE, NC 28233",(704) 376-1785,,,,"P O BOX 33264 CHARLOTTE, NC 28233",,3,,,,Not a,Not 100% compliant
388470,METRO EXPRESS OF BALTIMORE INC,AUTHORIZED FOR PROPERTY,,Carrier,Interstate,Authorized For Hire,MC191934,618839369,,06/07/2019,"90,000 (2010)","27 ALDYTH AVE REISTERSTOWN, MD 21136",(410) 833-0111,,,,"P O BOX 593 REISTERSTOWN, MD 21136",MICHAEL GOODMAN,5,,,5,Not a,Not 100% compliant
341224,"M. T. X., INC.",NONE,,,,,MC216158,,,,,RR 1 OAKLAND CITY IN 47660,(812) 795-2209,,,,,,,,,,Not a,Not 100% compliant
328891,ARKANSAS SIGN & NEON CO INC,ACTIVE,,Carrier,Interstate,Private Property,,6338107,,11/21/2018,"20,000 (2018)","8525 DISTRIBUTION DR LITTLE ROCK, AR 72209",(501) 562-3942,(501) 562-6651,,,"8525 DISTRIBUTION DR LITTLE ROCK, AR 72209",DAVID ASHLEY LORA RAND,7,,,5,Not a,Not 100% compliant
264184,SCHNEIDER NATIONAL CARRIERS INC,AUTHORIZED,,Carrier Cargo Tank Broker,Interstate,Authorized For Hire,MC133655,157304676,,02/10/2020,"1,121,341,230 (2019)","3101 S PACKERLAND DR GREEN BAY, WI 54313",(800) 558-6767,(920) 403-8541,sequina@schneider.com,www.schneider.com,"PO BOX 2545 GREEN BAY, WI 54306-2545",MARK B. ROURKE JONATHAN G JOHNSON,11275,,,"12,919",,Not 100% compliant
357156,GOTTSON OIL INC,AUTHORIZED FOR PROPERTY,,Carrier,Interstate,Authorized For Hire,MC302346,137564902,,07/16/2019,"945,574 (2018)","2035 EVANGELINE HIGHWAY JENNINGS, LA 70546",(337) 824-3171,(337) 824-5341,gottsonoil@yahoo.com,,"2035 EVANGELINE HIGHWAY JENNINGS, LA 70546",NACIS GATTE PATTY GATTE,28,,,12,Not a,Not 100% compliant
359971,HOLTON BROTHERS INC,ACTIVE,,Carrier,Interstate,Private Property,,63521546,,02/06/2020,"260,000 (2017)","1257 TERMINAL RD GRAFTON, WI 53024",(262) 377-7887,(262) 377-0615,kristie@holtonbrothers.com,,"1257 TERMINAL RD GRAFTON, WI 53024",THOMAS F HOLTON JOHN HOLTON,30,,,24,Not a,Not 100% compliant
360502,SEIFERT SERVICE,ACTIVE,,Carrier,Interstate,Private Passengers (Business) UNKNOWN,,74303298,,02/28/2020,"90,000 (2019)","7854 W FOREST LAWN RD THREE OAKS, MI 49128",(269) 756-9210,(269) 756-2401,mseifertms@hotmail.com,,"7854 W FOREST LAWN RD THREE OAKS, MI 49128",KENNETH SEIFERT,2,,,3,Not a,Not 100% compliant
376345,LIVEOAK CONSTRUCTION,ACTIVE,,Carrier,Intrastate Non-Hazmat,Private Property,,106906076,,06/03/2020,"20,000 (2019)","611 COUNTY ROAD 236 THORSBY, AL 35171",(205) 312-1126,,lou.loveoak@gmail.com,,"611 COUNTY ROAD 236 THORSBY, AL 35171",DONALD LIVEOAK,1,,,1,Not a,Not 100% compliant
381826,"C & C TRANSPORT COMPANY, INC.",NONE,,,,,MC222440,,,,,7131 INTERVALE DETROIT MI 48238,(313) 933-2573,(313) 933-1375,,,P.O. BOX 27827 DETROIT MI 48227,,,,,,Not a,Not 100% compliant
383185,MASSOLO TRUCKING LLC,AUTHORIZED FOR PROPERTY,,Carrier,Interstate,Authorized For Hire,MC212513,,,05/12/2020,"1,700,000 (2019)","18765 GOULD ROAD SALINAS, CA 93908-9703",(831) 424-7205,(831) 789-8529,,,"18765 GOULD ROAD SALINAS, CA 93908-9703",STEVEN MASSOLO DANIEL MASSOLO,19,,,18,Not a,Not 100% compliant
377581,BURCHFIELD AUTO & TRUCK SALES,ACTIVE,,Carrier,Interstate,Private Property,,792538571,,11/13/2019,"54,340 (2018)","713 ROUTE 764 DUNCANSVILLE, PA 16635-7903",(814) 695-3232,,deburchfield@gmail.com,,"PO BOX 178 DUNCANSVILLE, PA 16635",DAVID E BURCHFIELD RICHARD E BURCHFIELD,7,,,6,Not a,Not 100% compliant
318588,"CIRELLI FOODS, INC.",NONE,,,,,MC296746,,,,,30 COMMERCE BOULEVARD MIDDLEBOROUGH MA 02346,(800) 242-0939,(508) 638-6609,,,,,,,,,Not a,Not 100% compliant
319030,EASON INC,ACTIVE,PAULK TIMBER CO,Carrier,Interstate,Private Property,,174266221,,08/10/2019,"600,000 (2019)","301 BOONE AVE E KINGSLAND, GA 31548",(912) 729-5264,(912) 729-4601,eason_inc_ptc@yahoo.com,,"PO BOX 515 KINGSLAND, GA 31548",JESSEE EASON BARBARA EASON,16,,,7,Not a,Not 100% compliant
327884,"DIMENSION TRANSPORT SYSTEMS, INC.",NONE,,,,,MC197365,,,,,"P. O. BOX 2276 CAMBRIDGE, ONT. N3C3P8 ON",(519) 658-6569,,,,,,,,,,Not a,Not 100% compliant
332649,DORO BRAND FOODS,ACTIVE,DOM'S SAUSAGE CO INC,Carrier,Interstate,Private Property,,1043009,,07/06/2018,"250,000 (2009)","10 RIVERSIDE PARK MALDEN, MA 02148-6711",(617) 324-6390,(781) 322-6776,office@domssausage.com,,"10 RIVERSIDE PARK MALDEN, MA 02148",ANGELO BOTTICELLI,3,,,3,Not a,Not 100% compliant
361476,WILLIAM M LEE,AUTHORIZED FOR PROPERTY,WILLIAM LEE TRUCKING,Carrier,Interstate,Authorized For Hire,MC302554,,,04/14/2019,"120,000 (2000)","735 COUNTY ROAD G REWEY, WI 53580",(608) 778-6671,,dawnlee30@gmail.com,,"735 COUNTY ROAD G REWEY, WI 53580",WILLIAM LEE,1,,,1,Not a,Not 100% compliant
361989,CAUSEWAY ENTERPRISES INC,ACTIVE,,Carrier,Interstate,Private Property,,62168471,,11/09/2018,"4,900 (2018)","77 BRIDGE RD SALISBURY, MA 01952-5068",(978) 465-7757,(978) 465-1474,causewayent@verizon.net,,"P O BOX 5068 SALISBURY, MA 01952-5068","HENRY A BOUCHARD JR CHERYL A BOUCHARD, TREAS",1,,,1,Not a,Not 100% compliant
363678,BEATTY CONSTRUCTION LLC,ACTIVE,BEATTY CONSTRUCTION COMPANY,Carrier,Interstate,Private Property,,139139695,,07/01/2019,"78,689 (2018)","50 ROUTE 39 N SHERMAN, CT 06784-1315",(860) 355-2447,(860) 355-2447,beattycon@sbcglobal.net,,"50 ROUTE 39 N SHERMAN, CT 06784-1315",GEORGE ALLEN BEATTY JR TIMOTHY JAMES BEATTY,4,,,10,Not a,Not 100% compliant
368232,GAINES B BECK,ACTIVE,GAINES B BECK TRUCKING,Carrier,Intrastate Non-Hazmat,ASPHALT AN,,197487994,,03/03/2015,"55,000 (2014)","709 HICKORY DR SIKESTON, MO 63801-3301",(573) 471-9074,,ronspell1@yahoo.com,,"709 HICKORY DR SIKESTON, MO 63801-3301",GAINES B BECK,2,,,2,Not a,Not 100% compliant
374848,GILES TRUCKING LLC,NONE,,,,,MC208340,,,,,2120 WEST GILES ROAD CHATHAM VA 24531,(540) 433-6470,(434) 432-2923,,,,,,,,,Not a,Not 100% compliant
375443,WIETHOP GREENHOUSES INC,ACTIVE,,Carrier,Interstate,Private Property,,789047891,,01/15/2020,500 (2019),"2463 BARRETT STATION ROAD BALLWIN, MO 63021",(314) 821-2598,(314) 821-0334,,,"2463 BARRETT STATION ROAD BALLWIN, MO 63021",MICHAEL WIETHOP TIMOTHY WIETHOP,1,,,1,Not a,Not 100% compliant
380810,REH EXPRESS INC,AUTHORIZED FOR PROPERTY,,Carrier,Interstate,Authorized For Hire,MC522288,28744770,,10/18/2019,"180,000 (2013)","44258 MERCURE CIRCLE 101-A STERLING, VA 20166",(703) 574-8395,(703) 574-8390,chadhenderson@rehexpress.com,,"44258 MERCURE CIRCLE 101-A STERLING, VA 20166",MARY ANN HENDERSON CHAD MCNALLY HENDERSON,6,,,5,Not a,Not 100% compliant
389366,"CASS INTERNATIONAL MOVING, INC.",NONE,,,,,MC218965,,,,,3536 CARLIN SPRING RD SUITE 13 FALLS CHURCH VA 22041,(301) 530-4123,,,,,,,,,,Not a,Not 100% compliant
389927,"EVERETT TRUCKING, INC.",NONE,,,,,MC217738,,,,,506 N. MAIN STREET FRANKLIN VA 23851,(804) 658-4771,,,,,,,,,,Not a,Not 100% compliant
386876,"TRANSPORTATION MASTERS, INC.",NONE,,,,,MC230161,,,,,119 W. ANAHEIM ST. WILMINGTON CA 90744,(213) 830-3313,,,,P. O. BOX 1436 WILMINGTON CA 90748,,,,,,Not a,Not 100% compliant
375263,"TRANSLOADING SERVICES, INC.",NONE,,,,,MC225217,,,,,8713 HWY 161 NORTH LITTLE ROCK AR 72117,(501) 982-3746,,,,,,,,,,Not a,Not 100% compliant
375820,MID-STATE SKID STEER LLC,ACTIVE,,Carrier,Interstate,Private Property,,187753918,,01/28/2019,"15,000 (2018)","43329 STATE HWY 6 EMILY, MN 56447",(218) 763-4502,(888) 502-3135,midstatesteve@emily.net,,"43329 STATE HWY 6 EMILY, MN 56447",STEVE HUSS,1,,,1,Not a,Not 100% compliant
294583,"PARAGON EXPRESS, INC.",NONE,,,,,MC194905,,,,,1805 N DIXIE HWY LIMA OH 45801-3255,(419) 221-1705,,,,P O BOX 5277 LIMA OH 45802-5277,,,,,,Not a,Not 100% compliant
376656,FAIRVIEW APIARIES,ACTIVE,,Carrier,Interstate,Private Property BEES & B E,,,,04/15/2019,"20,000 (2014)","4895 SPICER DR SE ALBANY, OR 97322-9710",(541) 926-1850,,,,"4895 SPICER DR SE ALBANY, OR 97322",WILLIAM J MESPELT,1,,,2,Not a,Not 100% compliant
345753,REGINALD E SHAW,OUT-OF-SERVICE,SHAW OIL & SHAWAY,Carrier,Intrastate Hazmat,Exempt For Hire Private Property,,195093984,,06/23/2006,"40,000 (2005)","304 CORNER RD BRIDGEWATER, ME 04735",(207) 429-8536,(207) 429-8530,,,"304 CORNER ROAD BRIDGEWATER, ME 04735",REGINALD SHAW,3,,,3,Not a,Not 100% compliant
377160,TRIANGLE ELECTRIC CO,ACTIVE,,Carrier,Interstate,Private Property,,555491273,,09/06/2018,"31,000 (2017)","29787 STEPHENSON HWY MADISON HEIGHTS, MI 48071",(248) 399-2200,,erobinson@trielec.com,,"29787 STEPHENSON HWY MADISON HEIGHTS, MI 48071",ROY MARTIN JR,3,,,2,Not a,Not 100% compliant
380640,LLOYD EUGENE TUCKER,NOT AUTHORIZED,SECURITY DELIVERY SERVICE,Carrier,Intrastate Non-Hazmat,Authorized For Hire UNKNOWN,MC226958,,,,,"1812 WENSON RD KERNERSVILLE, NC 27284",(919) 869-2981,,,,"1812 WENSON RD KERNERSVILLE, NC 27284",,,,,,Not a,Not 100% compliant
388389,L. N. BOND,NONE,,,,,MC230886,,,,,165 DREWS PRAIRIE ROAD TOLEDO WA 98591,(206) 864-6361,,,,,,,,,,Not a,Not 100% compliant
389668,CHARLES R. BYE,NONE,BYE TRUCKING,,,,MC231064,,,,,POST OFFICE 264E MILLTOWN IN 47145,(812) 739-4796,,,,,,,,,,Not a,Not 100% compliant
290005,DAVID G DOOGAN,NOT AUTHORIZED,DOOGAN'S CARTAGE,Carrier,Interstate,Authorized For Hire,MC444113,,,02/25/2020,"35,319 (2019)","426 KEEPATAW LEMONT, IL 60439",(708) 259-9279,,doogan67fast@gmail.com,,"426 KEEPATAW LEMONT, IL 60439",DAVID DOOGAN DAVID G DOOGAN,1,,,1,Not a,Not 100% compliant
373223,K & B AUTO SALES,ACTIVE,K B H ENTERPRISES INC,Carrier,Intrastate Non-Hazmat,Private Property,,,,,,"1207 SMOKEY PARK HWY CANDLER, NC 28715-0458",(704) 667-2576,,,,"P O BOX 458 CANDLER, NC 28715-9248",,,,,,Not a,Not 100% compliant
375071,WILLIAMSON ELECTRICAL CO INC,NOT AUTHORIZED,WILLIAMSON PUMP & MOTOR,Carrier,Interstate,Authorized For Hire Private Property,MC1025798,19505460,,03/11/2019,"75,000 (2018)","25 GRIFFIN WAY CHELSEA, MA 02150",(617) 884-9200,(617) 884-3144,rebeccat@weco-group.com,www.weco-group.com,"PO BOX 6265 CHELSEA, MA 02150",REBECCA L TILTON BRIAN K TILTON,55,,,50,Not a,Not 100% compliant
381899,RONALD R. BECKER,NONE,BECKER TRUCKING,,,,MC227656,,,,,NORTH MUNSTER ST. GERMANTOWN IL 62245,(618) 523-4107,,,,,,,,,,Not a,Not 100% compliant
382799,GORDON A LOWE,NOT AUTHORIZED,LOWE'S SERVICE STATION,Carrier,Interstate,Authorized For Hire,MC718399,626014153,,11/08/2019,"25,000 (2015)","908 US RTE 2 RANDOLPH, NH 03593",(603) 466-3950,(603) 466-5283,lowestowing@yahoo.com,,"908 US RTE 2 RANDOLPH, NH 03593",GORDON A LOWE,1,,,2,Not a,Not 100% compliant
367368,CLEVELAND CONCRETE CONSTRUCTION INC,ACTIVE,CLEVELAND CEMENT CONTRACTORS INC,Carrier,Interstate,Private Property,,9871583,,06/04/2020,"150,000 (2019)","4823 VAN EPPS ROAD CLEVELAND, OH 44131-1015",(216) 741-3954,(216) 741-9278,,,"4823 VAN EPPS ROAD CLEVELAND, OH 44131-1015",MICHEAL H SIMONETTI JAMES SIMONETTI,6,,,12,Not a,Not 100% compliant
292187,CHARLES WOOLDRIDGE,NONE,,,,,MC182528,,,,,6022 2ND N. W. #42 ALBUQUERQUE NM 87107,,,,,,,,,,,Not a,Not 100% compliant
336656,CONTINENTAL AMERICAN TRUCKING CO.,NONE,CATCO,,,,MC215631,,,,,1300 CHARLESTON NATIONAL PLAZA CHARLESTON WV 25301,(304) 345-7700,,,,P.O. BOX 3969 CHARLESTON WV 25339,,,,,,Not a,Not 100% compliant
337808,"FERRARO FOODS, INC.",NONE,,,,,MC356673,,,,,287 S RANDOLPHVILLE ROAD PISCATAWAY NJ 08854,(908) 757-1600,,,,287 RANDOLPHVILLE ROAD PISCATAWAY NJ 08854,,,,,,Not a,Not 100% compliant
366001,CHARLES V. SMITH,NONE,C. V. SMITH & SON TRUCKING,,,,MC223003,,,,,1111 PINE STREET CABOOL MO 65689,(417) 962-3841,,,,,,,,,,Not a,Not 100% compliant
367075,CHADWICK-BAROSS,ACTIVE,,Carrier,Interstate,Private Property,,19310572,,03/22/2019,"150,000 (2004)","15 KATRINA RD CHELMSFORD, MA 01824",(978) 256-9571,(978) 256-8802,hagler@chadwick-baross.com,,"15 KATRINA RD CHELMSFORD, MA 01824",STUART WELCH DAN ROTT,1,,,1,Not a,Not 100% compliant
374469,SUNDHAGEN CONSTRUCTION INC,ACTIVE,,Carrier,Intrastate Non-Hazmat,Exempt For Hire Private Property,,052735941,,09/15/2008,,"10428 67TH ST NW TIOGA, ND 58852-9202",(701) 664-3886,(701) 664-3887,sundcon@juno.com,,"10428 67TH ST NW TIOGA, ND 58852-9202",HAROLD SUNDHAGEN KAREN SUNDHAGEN,5,,,4,Not a,Not 100% compliant
374988,GARY JACOBSON TRUCKING LLC,AUTHORIZED FOR PROPERTY,,Carrier,Intrastate Non-Hazmat,Authorized For Hire,MC677612,,,02/25/2020,"400,000 (2019)","W6922 COUNTY ROAD B LAKE MILLS, WI 53551",(920) 723-1774,(920) 648-5273,jolene.jacobson56@yahoo.com,,"W6922 COUNTY ROAD B LAKE MILLS, WI 53551",GARY JACOBSON,3,,,6,Not a,Not 100% compliant
376156,"WAYNE R. GENDRON TRUCKING, INC.",NONE,,,,,MC220256,,,,,274 GREAT ROAD #11 SHIRLEY MA 01464,(508) 425-4716,,,,,,,,,,Not a,Not 100% compliant
387501,PAUL KRAUSE,NONE,MAVERICK TRUCKING,,,,MC198329,,,,,45854 375TH ST. PERHAM MN 56573,(218) 849-7812,,,,,,,,,,Not a,Not 100% compliant
350651,DURHAM SCHOOL SERVICES LP,AUTHORIZED FOR PASSENGER,DURHAM SCHOOL SERVICES,Carrier,Interstate,Authorized For Hire,MC163066,,,03/27/2019,"153,163,000 (2018)","2601 NAVISTAR DRIVE LISLE, IL 60532",(630) 821-9059,(800) 217-0734,michelle.simon@nellc.com,,"2601 NAVISTAR DRIVE LISLE, IL 60532",MATT ASHLEY ROBERT RAMSDELL,14461,,,"13,806",Not a,Not 100% compliant
374469,SUNDHAGEN CONSTRUCTION INC,ACTIVE,,Carrier,Intrastate Non-Hazmat,Exempt For Hire Private Property,,052735941,,09/15/2008,,"10428 67TH ST NW TIOGA, ND 58852-9202",(701) 664-3886,(701) 664-3887,sundcon@juno.com,,"10428 67TH ST NW TIOGA, ND 58852-9202",HAROLD SUNDHAGEN KAREN SUNDHAGEN,5,,,4,Not a,Not 100% compliant
385616,"D & N TRUCKING & GRADING, INC.",NONE,,,,,MC398828,,,,,HWY 107 TUCKASEGEE NC 28783,(828) 293-5868,,,,PO BOX 223 TUCKASEGEE NC 28783,,,,,,Not a,Not 100% compliant
348934,"ADVANCE AIR FREIGHT, INC.",NONE,,,,,MC182116,,,,,AIR CARGO BLVD.METROPOLITAN AIRPORT NASHVILLE TN 37217,,,,,,,,,,,Not a,Not 100% compliant
380570,DIAMOND MOTOR SPORTS INC,ACTIVE,,Carrier,Interstate,Private Property,,,,02/12/2020,"15,000 (2019)","4595 SOUTH DUPONT HWY DOVER, DE 19901",(302) 697-3222,(302) 697-3226,mharper@ridedms.com,,"4595 SOUTH DUPONT HWY DOVER, DE 19901",ALVIN ATKINSON K. MICHELLE HARPER,1,,,1,Not a,Not 100% compliant
283992,KELSAN INC,ACTIVE,,Carrier Shipper,Interstate,Private Property,,,,04/30/2020,"1,240,000 (2019)","5109 NATIONAL DRIVE KNOXVILLE, TN 37914",(865) 525-7132,(865) 251-0909,clong@kelsan.biz,,"5109 NATIONAL DRIVE KNOXVILLE, TN 37914",KEN BODIE,27,,,27,Not a,Not 100% compliant
288247,BUCKHEAD MEAT COMPANY,AUTHORIZED FOR PROPERTY,,Carrier,Interstate,Authorized For Hire,MC341833,102030228,,08/24/2018,"2,387,681 (2017)","4500 WICKERSHAM DRIVE COLLEGE PARK, GA 30337",(404) 355-4400,(404) 367-0336,england.bill@corp.sysco.com,,"4500 WICKERSHAM DRIVE COLLEGE PARK, GA 30337",CARMEN NG PAUL MOORING,65,,,61,Not a,Not 100% compliant
290191,"MACCARTAGE, INC",NONE,,,,,MC199188,,,,,1296 E GIBSON RD PMB 197 WOODLAND CA 95776,(530) 662-1214,(530) 662-1214,,,,,,,,,Not a,Not 100% compliant
327521,JAMES F O'DONOGHUE,AUTHORIZED FOR PROPERTY,M G K SERVICES,Carrier,Interstate,Authorized For Hire,MC212805,,,12/31/2019,"877,753 (2017)","8713 ROUTE 237 STAFFORD, NY 14143",(585) 343-5749,(585) 343-5810,od1@rochester.rr.com,,"PO BOX 87 STAFFORD, NY 14143",JAMES F O'DONOGHUE,16,,,15,Not a,Not 100% compliant
333744,WLS 1 LLC,ACTIVE,WILLIAMS LAWN SEED,Carrier,Interstate,Private Property,,29910684,,01/28/2020,"31,978 (2019)","224 W SOUTH HILLS DR MARYVILLE, MO 64468",(660) 582-4614,(660) 582-4600,,,"P O BOX 112 MARYVILLE, MO 64468-0112",LEON WILLIAMS,1,,,1,Not a,Not 100% compliant
338065,"KNIGHT'S DELIVERY SERVICE, INC.",NONE,,,,,MC163229,,,,,3041 VIA MONDO RANCHO DOMINGUEZ CA 90221,(310) 639-4555,(310) 639-0116,,,,,,,,,Not a,Not 100% compliant
351388,"V. A. W. OF AMERICA, INC",NONE,,,,,MC218751,,,,,249 S. 51ST AVENUE PHOENIX AZ 85043,(602) 269-2488,(602) 269-0220,,,P.O. BOX 6726 PHOENIX AZ 85005,,,,,,Not a,Not 100% compliant
354713,HERMAN'S TRUCKING INC,AUTHORIZED FOR PROPERTY,,Carrier,Interstate,Authorized For Hire,MC292150,60734530,,03/26/2019,"832,574 (2018)","181 JACOBSTOWN-COOKSTOWN RD WRIGHTSTOWN, NJ 08562",(609) 758-3808,(609) 758-0040,,,"181 JACOBSTOWN-COOKSTOWN RD WRIGHTSTOWN, NJ 08562",MARILYN STELLJES,19,,,17,Not a,Not 100% compliant
355280,CROTON HOME CENTER INC,ACTIVE,,Carrier,Interstate,Private Property,,,,06/22/2020,"24,000 (2013)","77 WATER STREET OSSINING, NY 10562",(914) 762-4900,(914) 762-6209,,,"77 WATER STREET OSSINING, NY 10562",CRAIG P. FLYNN KATHERINE FLYNN,6,,,7,Not a,Not 100% compliant
356947,KAREN ELAINE BALDWIN,NONE,MODULAR SETS,,,,MC220083,,,,,SCOUT ROAD GRANITE QUARRY NC 28072,(704) 636-8097,,,,,,,,,,Not a,Not 100% compliant
357236,DONALD R. COX,NONE,POP'S TRUCKING,,,,MC218366,,,,,205 OAKLANE CAPE GIRARDEAU MO 63701,(314) 335-5699,,,,,,,,,,Not a,Not 100% compliant
357915,TOMKO CARRIERS CORP,ACTIVE,,Carrier,Intrastate Non-Hazmat,Private Property UNSPECIFIE,,077315158,,04/27/2007,"10,000 (2006)","1036 PORTION RD LAKE RONKONKOMA, NY 11779-1974",(631) 736-1414,,,,"1036 PORTION RD LAKE RONKONKOMA, NY 11779-1974",THOMAS MURRAY,1,,,1,Not a,Not 100% compliant
358616,JAMES C. PERDUE,NONE,JAMES C. PERDUE TRUCKING,,,,MC221827,,,,,HIGHWAY 42 BYRDSTOWN TN 38549,(615) 864-3195,,,,,,,,,,Not a,Not 100% compliant
359312,MAYER ELECTRIC SUPPLY COMPANY INC,ACTIVE,,Carrier,Interstate,Private Property,,6900419,,02/25/2019,"4,670,000 (2018)","3405 4TH AVENUE SOUTH BIRMINGHAM, AL 35222",(205) 583-3500,(205) 583-3318,riskmanagement@mayerelectric.com,www.mayerelectric.com,"3405 4TH AVENUE SOUTH BIRMINGHAM, AL 35201-1328",JAMES W SMITH DAVID MORGAN,277,,,198,Not a,Not 100% compliant
360945,PHIL'S TOWING & RECOVERY SERVICE INC,NOT AUTHORIZED,,Carrier,Interstate,Authorized For Hire TOW TRUCK,MC253844,60033560,,05/09/2018,"210,000 (2013)","44 ELLSWORTH ROAD PEABODY, MA 01960",(978) 531-0456,(978) 532-3013,,,"44 ELLSWORTH RD PEABODY, MA 01960",MAUREEN LYNCH BRIAN LYNCH,4,,,4,Not a,Not 100% compliant
362168,GRAFT MILK TRANSPORT LLC,AUTHORIZED FOR PROPERTY,,Carrier,Interstate,Authorized For Hire Exempt For Hire,MC841669,130979313,,06/15/2020,"510,000 (2019)","9809 LEESBURG RD FORT WAYNE, IN 46818-9761",(260) 625-3855,,bscows@aol.com,,"9809 LEESBURG RD FORT WAYNE, IN 46818-9761",DONALD GRAFT,13,,,12,Not a,Not 100% compliant
362959,STEFFEY AND FINDLAY INC,ACTIVE,,Carrier,Interstate,Private Property,,22609127,,08/21/2019,"40,000 (2018)","177 S BURHANS BLVD HAGERSTOWN, MD 21740-5353",,(301) 733-1650,phil@steffeyfindlay.com,www.steffeyfindlay.com,"177 S BURHANS BLVD HAGERSTOWN, MD 21740-5353",PHILIP ADUMS WALTER GOSSARD,7,,,4,Not a,Not 100% compliant
369448,"HIGH TRANS, INC.",NONE,,,,,MC223598,,,,,3031 SAN FERNANDO ROAD BURBANK CA 91504,(818) 845-3300,,,,,,,,,,Not a,Not 100% compliant
370955,SERRATO SIGN LLC,ACTIVE,,Carrier,Interstate,Private Property,,1135029,,03/05/2019,"23,963 (2010)","15 DEWEY ST WORCESTER, MA 01609-2909",(508) 756-7004,(508) 756-7050,,,"15 DEWEY ST WORCESTER, MA 01609-2909",ANDREW SERRATO SUSAN SERRATO,4,,,6,Not a,Not 100% compliant
371517,RC CALDWELL LLC,AUTHORIZED FOR PROPERTY,GARY'S TOWING,Carrier,Interstate,Authorized For Hire,MC289215,,,07/30/2019,99 (2018),"1409 PIKE STREET MARIETTA, OH 45750",(740) 374-8144,(740) 374-7138,garystowing15@gmail.com,,"1409 PIKE ST MARIETTA, OH 45750",RUSTY C CALDWELL,14,,,4,Not a,Not 100% compliant
374866,CHERYL WEAVER,NONE,WEAVER'S TRANSPORTING,,,,MC262451,,,,,745 W. HEATHER RIALTO CA 92376,(909) 874-0623,,,,,,,,,,Not a,Not 100% compliant
375837,BETH ANN & RUSSELL WELLS,ACTIVE,QUALITY CONSTRUCTION,Carrier,Intrastate Non-Hazmat,Private Property,,,,,,"ROUTE TORRINGTON, WY 82240",(307) 532-3338,,,,"ROUTE 1 BOX 134 TORRINGTON, WY 82240",RUSSELL L. WELLS,2,,,2,Not a,Not 100% compliant
376630,"RAPID FREIGHT CARRIER, INC.",NONE,,,,,MC225625,,,,,7971 FRINGETREE COURT LAS VEGAS NV 89123,(702) 896-6588,,,,,,,,,,Not a,Not 100% compliant
376806,YOUNG WHA SHIN,NONE,NATIONAL PAPER SALVAGE,,,,MC225824,,,,,10350 S. W. KERI CT. TIGARD OR 97224,(503) 253-1755,,,,,,,,,,Not a,Not 100% compliant
379034,JA-MAR MANUFACTURING INC,ACTIVE,JA MAR MANUFACTURING CO,Carrier,Interstate,Private Property,,6578091,,05/21/2019,"8,300 (2018)","228 N INTERSTATE DR SIKESTON, MO 63801-8621",(573) 471-9541,(573) 471-3435,lmbrewer71s@jamarmfg.com,,"228 NORTH INTERSTATE DRIVE SIKESTON, MO 63801",JIM BREWER JIMMY BREWER,2,,,1,Not a,Not 100% compliant
383774,AG SPECTRUM COMPANY,ACTIVE,,Carrier,Interstate,Private Property,,115076770,,04/25/2019,"13,400 (2018)","428 E 11TH STREET DE WITT, IA 52742-1902",(563) 659-5046,(563) 659-3750,info@agspectrum.com,,"P O BOX 215 DE WITT, IA 52742-0215",WAYNE R. STUEDEMANN ROBIN PETERSEN,1,,,2,Not a,Not 100% compliant
383823,GARY LEE GALLOWAY,NONE,MIRACLE EXPRESS,,,,MC228003,,,,,1666 ANNETA RD. LEITCHFIELD KY 42754,(502) 259-4267,,,,,,,,,,Not a,Not 100% compliant
385357,UNICHEM INC,ACTIVE,,Carrier,Intrastate Non-Hazmat,Private Property,,182833996,,05/16/2019,"50,000 (2018)","916 W MAIN ST HAW RIVER, NC 27258",(336) 578-5476,(336) 578-1871,bhyndshaw@unichem.com,,"P O BOX 612 HAW RIVER, NC 27258-0612",GARY HARRIS WILLIAM K HYNDSHAW,3,,,3,Not a,Not 100% compliant
386676,WILLIAM O. BRUMMETT,NONE,BRUMMETT TRANSPORTATION,,,,MC229866,,,,,1216 PINAL ST. CHINO VALLEY AZ 86323,(602) 636-2782,,,,,,,,,,Not a,Not 100% compliant
388258,"H & B TRANSPORT, INC.",NONE,,,,,MC230798,,,,,9712 BERKLEY CIRCLE OKLAHOMA CITY OK 73162,(405) 661-2808,,,,,,,,,,Not a,Not 100% compliant
388511,PIQUA STEEL COMPANY,AUTHORIZED FOR PROPERTY,PSC CRANE & RIGGING,Carrier,Interstate,Authorized For Hire Private Property,MC643150,2894012,,05/20/2019,"877,154 (2018)","4243 W US RT 36 PIQUA, OH 45356",(937) 773-3632,(937) 778-8136,kristie.huston@pscind.com,,"4243 W US ROUTE 36 PIQUA, OH 45356",JAMES R SEVER EARL F SEVER IV,55,,,72,Not a,Not 100% compliant
389983,SEITZ TRUCKING INC,AUTHORIZED FOR PROPERTY,,Carrier,Interstate,Authorized For Hire,MC232065,121992085,,03/31/2020,"450,167 (2019)","52770 OLD RT 50 LONDONDERRY, OH 45647",(740) 887-3221,(740) 887-4130,,,"52770 OLD RT 50 LONDONDERRY, OH 45647",RANDY G SEITZ HEIDI SEITZ,15,,,7,Not a,Not 100% compliant
367072,CARL E SHOCKEY,NONE,GENE'S MOBILE HOME TRANSPORT,,,,MC272537,,,,,"RT 1, BOX 200 RAVENSWOOD WV 26164",(304) 273-5270,,,,,,,,,,Not a,Not 100% compliant
358732,COLUMBUS CELLOPOLY INC,ACTIVE,,Shipper,,,,004298618,,,,"4041 ROBERTS RD COLUMBUS, OH 43228-9536",(614) 876-1204,(614) 876-1072,,,"4041 ROBERTS RD COLUMBUS, OH 43228-9536",,,,,,Not a,Not 100% compliant
54283,SWIFT TRANSPORTATION CO OF ARIZONA LLC,AUTHORIZED FOR PROPERTY,,Carrier Broker,Interstate,Authorized For Hire,MC136818,61295799,,09/24/2019,"1,816,140,546 (2017)","2200 S 75TH AVE PHOENIX, AZ 85043",(800) 800-2200,(623) 907-7464,marilyn_bellamy@swifttrans.com,www.swifttrans.com,"2200 S 75TH AVE PHOENIX, AZ 85043",KEVIN KNIGHT ADAM MILLER,15898,,,"20,530",,Not 100% compliant
341933,MICHAEL J. LYNDS,NONE,MJ LYNDS TRUCKING,,,,MC510592,,,,,276 FLETCHER RD MONTICELLO ME 04760,(207) 551-8504,(207) 538-8055,,,PO BOX 311 MONTICELLO ME 04760-0311,,,,,,Not a,Not 100% compliant
360627,METAL PROCESSORS INC,ACTIVE,,Carrier,Interstate,Private Property,,96947353,,05/18/2020,"30,193 (2015)","1435 ALLEN ST JACKSON, MS 39201-6202",(601) 969-6910,,,,"P O BOX 23309 JACKSON, MS 39225-3309",MISTI M. WALTERS,4,,,4,Not a,Not 100% compliant
374470,DWYER DISPOSAL AND HAULING INC,ACTIVE,DWYER DISPOSAL & HAULING,Carrier,Intrastate Non-Hazmat,Authorized For Hire,,,,02/19/2013,"217,420 (2012)","1301 MOCKINGBIRD IOWA PARK, TX 76367",(940) 631-5200,(940) 592-1831,,,"P O BOX 115 IOWA PARK, TX 76367",MARK RABY,2,,,3,Not a,Not 100% compliant
376934,FRANK REED,NONE,,,,,MC244323,,,,,RT. 1 BOX 111 TUNICA MS 38676,(662) 363-3983,(662) 357-0438,,,,,,,,,Not a,Not 100% compliant
380794,WILLIAM EDWARD DAVIS,ACTIVE,NORFOLK EQUIPMENT COMPANY,Carrier,Intrastate Non-Hazmat,Private Property,,063425375,,04/14/2003,"60,000 (2000)","1001 CAVALIER BLVD CHESAPEAKE, VA 23323-1509",(804) 487-5600,(757) 487-4277,glorial@norfolkequipment.com,,"P O BOX 6387 CHESAPEAKE, VA 23323-0387",,3,,,2,Not a,Not 100% compliant
358243,GERRIT'S APPLIANCE INC,ACTIVE,,Carrier,Intrastate Non-Hazmat,Private Property,,017083296,,,"50,000 (2006)","2410 28TH ST SW GRAND RAPIDS, MI 49509-0346",(616) 532-3626,(616) 532-2296,,,"P O BOX 9346 WYOMING, MI 49509-2104",H JOHN HOOYER,3,,,5,Not a,Not 100% compliant
385468,PRECISION PACKAGING,ACTIVE,,Carrier,Interstate,Private Property,,106545270,,06/28/2018,"52,000 (2017)","16240 SW 72ND AVE TIGARD, OR 97223",(503) 684-0384,(503) 639-1238,elr4412@gmail.com,,"16240 SW 72ND AVE TIGARD, OR 97223",ELENA RIVERA,1,,,1,Not a,Not 100% compliant
352409,"L D M TRUCKING CO., INC.",NONE,,,,,MC205307,,,,,22433 N. BLACK CANYON HWY. PHOENIX AZ 85027,(602) 581-2725,,,,PO BOX 42795 PHOENIX AZ 85080,,,,,,Not a,Not 100% compliant
386766,JAMES C & JANICE MCNEE,ACTIVE,MCNEE DRILLING & METALS,Carrier,Intrastate Non-Hazmat,Private Property,,,,06/21/2010,"100,000 (2009)","1235 160TH RD COTTONWOOD FALLS, KS 66845",(620) 273-8134,,,,"1235 160TH RD COTTONWOOD FALLS, KS 66845",JAMES C. MCNEE,4,,,2,Not a,Not 100% compliant
284775,MARGARET E. YARD AND DONALD R. YARD,NONE,DON AL TRUCKING,,,,MC197294,,,,,P. O. BOX 1454 CHRYSTAL BEACH TX 77650,(409) 684-0712,,,,,,,,,,Not a,Not 100% compliant
360998,"L & R & SONS TRUCKING, INC.",NONE,,,,,MC221808,,,,,9518 I-25 ACCESS RD. LONGMONT CO 80501,(303) 772-2131,,,,,,,,,,Not a,Not 100% compliant
382850,D'ERCOLE CONSTRUCTION INC,ACTIVE,,Carrier,Interstate,Private Property,,54227707,,06/10/2019,"12,500 (2018)","2800 PLAINFIELD PIKE CRANSTON, RI 02921",(401) 942-8090,,paul@dercoleconstruction.com,,"2800 PLAINFIELD PIKE CRANSTON, RI 02921",PAUL D'ERCOLE,1,,,1,Not a,Not 100% compliant
382255,STARTRANS TRANSPORT LTD.,NONE,,,,,MC228031,,,,,9800 - 190 STREET SURRY BC V3T 4W2,(604) 888-3588,,,,,,,,,,Not a,Not 100% compliant
379183,NORTHERN VIRGINIA TRUCKING,NONE,,,,,MC275219,,,,,6933 COLCHESTER PARK DRIVE MANASSAS VA 20112,(703) 550-5580,,,,,,,,,,Not a,Not 100% compliant
379524,CARGO TRAILER SALES INC,ACTIVE,,Carrier,Interstate,Private Property,,175055623,,03/04/2020,"10,000 (2020)","801 WEST 8TH ST LANSDALE, PA 19446-1931",(215) 855-7120,(215) 855-7907,paul@cargotrailersales.com,www.cargotrailersales.com,"801 WEST 8TH ST LANSDALE, PA 19446-1931",MICHAEL WOGLOM PATRICIA WOGLOM,2,,,5,Not a,Not 100% compliant
324022,"RAINBOW CARRIERS, INC.",NONE,,,,,MC183748,,,,,6218 S. LEWIS ST. #112 TULSA OK 74136,(918) 749-9472,,,,,,,,,,Not a,Not 100% compliant
353089,STATE STREET DISCOUNT,ACTIVE,,Carrier,Intrastate Non-Hazmat,Private Property,,043524073,,09/04/2002,"7,000 (2001)","3613 LAFAYETTE RD PORTSMOUTH, NH 03801-6003",(603) 436-7047,,,,"3613 LAFAYETTE RD PORTSMOUTH, NH 03801-6003",,1,,,5,Not a,Not 100% compliant
376995,WORKSAVER INC,ACTIVE,,Carrier,Interstate,Exempt For Hire Private Property,,,,05/04/2019,"12,000 (2017)","9 WORKSAVER TRAIL LITCHFIELD, IL 62056",(217) 324-5973,(217) 324-3356,mikek@worksaver.com,,"P O BOX 100 LITCHFIELD, IL 62056",TOM BURENGA TIM BURENGA,2,,,5,Not a,Not 100% compliant
377179,"NEW CONTAINER LINE, INC.",NONE,,,,,MC220299,,,,,2587 OTAY CENTER DR. SAN DIEGO CA 92154,(619) 661-5444,(619) 661-9468,,,,,,,,,Not a,Not 100% compliant
357500,P H DRAYER CO INC,ACTIVE,,Carrier,Intrastate Non-Hazmat,Private Property,,173366709,,04/01/2019,"1,230,000 (2018)","4111 LANDER RD JEFFERSON, MD 21755",(301) 473-4466,(301) 473-4424,dodgendaja@aol.com,,"4111 LANDER RD JEFFERSON, MD 21755",ALICE DRAYER PETER DRAYER,6,,,6,Not a,Not 100% compliant
926150,ROLLING FRITO LAY SALES LP,ACTIVE,,Carrier,Interstate,Private Property,,,,03/24/2020,"241,712,000 (2019)","7701 LEGACY DR PLANO, TX 75024-4099",(972) 334-3464,,kervin.carrette@pepsico.com,,"7701 LEGACY DRIVE ATTN SAFETY PLANO, TX 75024-4099",KERVIN CARRETTE LAURA MAXWELL,18194,,,"21,151",Not a,Not 100% compliant
366027,BADGER AND BULY EXCAVATING INC,ACTIVE,,Carrier,Intrastate Non-Hazmat,Private Property,,,,06/15/2020,"2,500 (2020)","321 GARDNER CENTER RD NEW CASTLE, PA 16101",(724) 333-6801,(724) 657-0557,scottbadger54@outlook.com,,"321 GARDNER CENTER RD NEW CASTLE, PA 16101",SCOTT D BADGER MICHAEL D BULY,2,,,2,Not a,Not 100% compliant
80806,J B HUNT TRANSPORT INC,"AUTHORIZED FOR PROPERTY, HHG",J B HUNT,Carrier Broker,Interstate,Authorized For Hire U.S. Mail IEP,MC135797,6338552,,01/29/2021,"1,393,166,770 (2019)","615 J B HUNT CORPORATE DRIVE LOWELL, AR 72745",(479) 820-0000,(479) 820-4566,marty.nagel@jbhunt.com,,"615 J B HUNT CORPORATE DRIVE LOWELL, AR 72745",JOHN ROBERTS,18857,,,"21,325",,Not 100% compliant
294868,NOVOTNE TRUCKING,ACTIVE,,Carrier,Interstate,Exempt For Hire,,,,07/08/2019,"31,000 (2018)","17755 BUCKEYE RD GIBBON, NE 68840",(308) 452-3728,,,,"17755 BUCKEYE RD GIBBON, NE 68840",LARRY NOVOTNE,1,,,1,Not a,Not 100% compliant
342523,BUDZIAK ENT INC,ACTIVE,BUDZIES NURSERY,Carrier,Interstate,Private Property,,50327964,,03/18/2020,"35,000 (2011)","429 FAIRVIEW AVE COVENTRY, RI 02816-7218",(401) 821-5219,,budzie@verizon.net,,"429 FAIRVIEW AVE COVENTRY, RI 02816-7218",RAYMOND S. BUDZIAK JR RAYMOND BUDZIAK III,1,,,2,Not a,Not 100% compliant
377593,HARTEL SERVICES INC,ACTIVE,INTERSTATE BATTERY SYSTEMS OF NORTH DAKOTA,Carrier,Interstate,Private Property,,87680625,,03/13/2019,"213,910 (2018)","4430 17TH AVENUE S FARGO, ND 58103",(701) 232-4409,(701) 232-4921,ibs4053@hotmail.com,,"4430 17TH AVENUE S FARGO, ND 58103",DANIEL C HARTEL,6,,,6,Not a,Not 100% compliant
379531,KING FARMS,ACTIVE,,Carrier,Intrastate Non-Hazmat,Private Passengers (Business) APPLYING F,,,,06/28/2007,,"RT 1 MM183 PUTNAM, OK 73659",(580) 582-6340,,,,"PO BOX 423 PUTNAM, OK 73659",STACY J KING,1,,,1,Not a,Not 100% compliant
387825,"G. FISHER TRANSPORT, INC.",NONE,,,,,MC456703,,,,,136 ALDRICH RD GLOCESTER RI 02857,(401) 934-1684,,,,136 ALDRICH RD GLOCESTER RI 02857,,,,,,Not a,Not 100% compliant
332790,"PARKLANE BUS COMPANY, INC.",NONE,,,,,MC52448,,,,,50 PARKSIDE LANE BAYONNE NJ 07002,,,,,,,,,,,Not a,Not 100% compliant
239039,FEDEX FREIGHT INC,AUTHORIZED FOR PROPERTY,FEDEX FREIGHT,Carrier Shipper Broker,Interstate,Authorized For Hire,MC121805,16414120,,10/23/2019,"1,139,546,529 (2018)","2200 FORWARD DRIVE HARRISON, AR 72601",(844) 521-5125,(870) 365-4027,,www.fedex.com,"P O BOX 840 DC2260 SAFETY HARRISON, AR 72602",RODNEY MYERS STEVEN PHILLIPS,19245,,,"22,370",,Not 100% compliant
290842,GEORGE W. CHAPMAN,NONE,"MARTIN URLING COMPANY, INC.",,,,MC190912,,,,,6500 CARLISLE PIKE APT. B MECHANICSBURG PA 17055,(717) 761-8516,,,,,,,,,,Not a,Not 100% compliant
380250,"SPRINT COURIER, INC.",NONE,,,,,MC227067,,,,,213 WATER STREET WAUKEGAN IL 60085,(708) 336-6150,,,,,,,,,,Not a,Not 100% compliant
342034,KELKATE ENTERPRISES INC,AUTHORIZED FOR PROPERTY,CLASSIC TOWING,Carrier,Interstate,Authorized For Hire Private Property,MC416049,38482006,,06/24/2020,"437,421 (2018)","2 SHADY STREET PATERSON, NJ 07524",(973) 742-8008,(973) 742-3492,teresa@classic-towing.com,,"2 SHADY STREET PATERSON, NJ 07524",JOHN S. KRUSE,15,,,26,Not a,Not 100% compliant
358160,"IND DELIVERY SERVICE, INC.",NONE,,,,,MC220330,,,,,7323 ORINOCO AVENUE INDIANAPOLIS IN 46241,(317) 293-7285,,,,,,,,,,Not a,Not 100% compliant
